h_name,address,city,district,state,lat,lng
I.N.H.S. Dhanvantri,Minni Bay,NA,Port Blair,Andaman and Nicobar Islands,11.6491442,92.717406
Pillar Health Centre,"Junglighat,Lamba Line, P.B. No.526",NA,Port Blair,Andaman and Nicobar Islands,11.6532306,92.7307157
A.P.Vidya Vidhana Parishad Community Hospital Blood Bank,Hospital Road,Gudur,Nellore,Andhra Pradesh,14.146561,79.8498809
A.S.N. Raju Charitable Trust Blood Bank,"Door No. 24-1-1, R.K. Plaza (Sarovar Complex), J.P. Road",Bhimavaram,West Godavari,Andhra Pradesh,16.543909,81.5162373
Alluri Sita Rama Raju Acadamy of Medical Sciences Blood Bank,"Ground Floor, Hospital Block, NH5",Eluru,West Godavari,Andhra Pradesh,16.737394,81.146494
Anil Neerukunda Hospital Blood Bank,"Sangi Valasa, Bheemunipatnam (M)",Visakhapatnam,Visakhapatnam,Andhra Pradesh,17.9216597,83.4264002
Apollo Hospitals Heart and Kidney Centre Blood Bank,"Apollo Hospitals Entps. , 10-50-80, Heart and Kidney Center, 1st Floor, Waltair Main Road",Visakhapatnam,Visakhapatnam,Andhra Pradesh,17.7170847,83.3092112
APVVP Area Hospital Blood Bank,"Area Hospital Premises, Ground Floor",Proddutur,Kadapa,Andhra Pradesh,14.7706897,78.5450916
APVVP Area Hospital Blood Bank,"Area Hospital Premises, Muddanoor Road, Pulivendla",Kadapa,Kadapa,Andhra Pradesh,14.6896777,78.3927547
APVVP Area Hospital Blood Bank,"APVVP Area Hospital Blood Bank, Kavali, S.P.S.R Nellore",Kavali,S.P.S.R Nellore,Andhra Pradesh,14.9133787,79.9927167
APVVP Community Hospital,Area Hospital Premises,Madanapally,Chittoor,Andhra Pradesh,13.5570309,78.5009113
APVVP District Hospital Blood Bank,"Ground Floor, Hospital Premises, Chenchupet",Tenali,Guntur,Andhra Pradesh,16.2447883,80.6377413
APVVP NT Rama Rao Vaidyalayam Blood Bank,Poolbagh Road,Anakapalle,Visakhapatnam,Andhra Pradesh,17.4092902,78.4851862
"APVVP, Area Hospital Blood Bank",NA,Nuzvid,Krishna,Andhra Pradesh,16.7849906,80.8488498
Area Hospital Blood Bank,"Near Black Bridge, Moberlipeta",Amalapuram,East Godavari,Andhra Pradesh,16.5895528,82.0089125
Arogyavaram Medical Centre Blood Bank,"Ground Floor, D.No. 16-1, Bartons Laboratory, AMC Sanitorium, Arogyavaram",Chittoor,Chittoor,Andhra Pradesh,13.5971989,78.5303757
AS Raja Voluntary Blood Bank,"AS Raja Voluntary Blood Bank, D.No. 10-50-11/7, 1st Floor, Virasi Centre, Waltair Main Road",Visakhapatnam,Visakhapatnam,Andhra Pradesh,17.7202724,83.3130487
ASN Raju Charitable Trust Blood Bank,"H.No. 15-5-4 and 16, I st and II nd Floor, Sri Satya Sai Complex, Bank Street",Palakollu,West Godavari,Andhra Pradesh,16.750981,81.684301
Aswini Hospital Blood Bank,"Ground Floor, Aswini Hospital Premises, TTD",Tirumala,Chittoor,Andhra Pradesh,13.6772962,79.3485389
Belif Blood Bank,"Sai Complex III Floor, Addanki Bus Stop Centre, Kurnool Road",Ongole,Prakasam,Andhra Pradesh,15.5101816,80.046313
Best Rotary Blood Bank,"D.No. 22-6-54, 1st Floor, Sarojininaidu Sreet, Kothapet",Tenali,Guntur,Andhra Pradesh,16.2372555,80.6472588
Bethesda Blood Bank (A Unit of Bethesda Homes Voluntary Organisation),"D.No. 29-10-2, Ground Floor, Narasimharao Naidu Street, Suryaraopet",Vijayawada,Krishna,Andhra Pradesh,38.984652,-77.0947092
Bhimavaram Hospitals Limited Blood Bank,"64/6A, 6B/7A & 7B, I st Floor, Opp. SRKR Eng. Col., Juvvalapalem Road",Bhimavaram,West Godavari,Andhra Pradesh,16.5431428,81.4964077
Blessed Blood Bank,"D.No. 5-1-45/1, 2nd Floor, Vijaya Hights Building, Palnadu Road",Narasaraopet,Guntur,Andhra Pradesh,16.2402368,80.036746
Blood Bank Aayush Hospital,"Aayush NRI LEPL Health Care Pvt. ., First Floor, D. No. 40-13-3 & 3A, Ring Road, Sri Ramachandra Nagar, Vijayawada",Vijayawada,Krishna,Andhra Pradesh,16.517483,80.675097
Boga Parvathamma Memorial Donation Service Organisation,"D.No. 7-137, Jayanagar Colony, Kadapa",Kadapa,Kadapa,Andhra Pradesh,14.4728338,78.8393953
Chaitanya Blood Bank,"D.No.40-9/1-26, Vasavya Complex, 1st floor, Vasavya Nagar, Benz circle",Vijayawada,Krishna,Andhra Pradesh,16.4987585,80.6553632
Dhanwantari Voluntary Blood Bank and Blood Components (A Division of Dhanwantari Charitable Trust),"D.No. 46-21-1, 2nd Floor & Part of 3rd Floor, Opp. Godavari Grameena Bank, Danavaipet",Rajahmundry,East Godavari district,Andhra Pradesh,17.0078706,81.7852119
District Head Quarters Hospital Blood Bank,"1 st Floor, APVVP District Head Quarters Hospital",Ongole,Prakasam,Andhra Pradesh,15.5257,80.0164999
District Co-ordinator of Hospital Services Blood Bank,"Ground Floor, District Hospital Premises",Machilipatnam,Krishna,Andhra Pradesh,16.1905457,81.1361543
District Head Quarter Hospital Blood Bank,"1st Floor, District Head Quarter Hospital Premises",Chittoor,Chittoor,Andhra Pradesh,13.217176,79.1003289
District Head Quarter Hospital Blood Bank,"Government District Hospital Premises, Ground Floor, Cantonment",Vizianagaram,Vizianagaram,Andhra Pradesh,18.1166905,83.3840286
District Hospital Blood Bank,"1st Floor, District Hospital Premises",Rajahmundry,East Godavari district,Andhra Pradesh,17.0005383,81.8040345
Dr. Anji Reddy Multispeciality Hospitals Pvt,D. No. 7-320,Piduguralla,Guntur,Andhra Pradesh,16.4787895,79.8936432
Dr. Pinnamaneni Siddartha Inst. of Medical Sci. and Res. Foundation Blood Bank,"Siddhartha Nagar Chinoutpalli (V), Gannavaram Mandal",Gannavaram Mandal,Krishna,Andhra Pradesh,16.5433135,80.7958259
DSR District Government Head Quarter Hospital Blood Bank,"Government Head Quarter Hospital Premises, Ist Floor, Nellore",Nellore,Nellore,Andhra Pradesh,14.4425987,79.986456
Fathima Institute of Medical Sciences Blood Bank,"Ramrajupally, Pulivendala Road, Kadapa",Kadapa,Kadapa,Andhra Pradesh,14.4823721,78.7897296
GMR Varalakhsmi Care Hospital Blood Bank,"GMR nagar, Rajam",Rajam,Srikakulam,Andhra Pradesh,18.4614918,83.6583284
Good Samaritan Blood Bank,"H. No. 13-1/1, Good Samaritan Cancer and General Hospital, Vangayagudem",Eluru,West Godavari,Andhra Pradesh,16.6964811,81.0941185
Government District Hospital Blood Bank,"First Floor, APVVP District Hospital Premises",Nandyal,Kurnool,Andhra Pradesh,15.8188146,78.0397689
Government Area Hospital Blood Bank,"Area Hospital Premises, Ist Floor",Gudivada,Krishna,Andhra Pradesh,16.4410255,80.9926327
Government General Hospital Blood Bank (Medical University General Hospital Blood Bank),"Ground Floor, Government General Hospital Premises, Vijayawada",Hanumanpet,Vijayawada,Andhra Pradesh,16.5133387,80.6189892
Government General Hospital Blood Bank,"First Floor, Government General Hospital Premises",Kurnool,Kurnool,Andhra Pradesh,15.8188146,78.0397689
Government General Hospital Blood Bank (Formerly District Head Quarter Hospital),"District Head quater hospital premises, Ground Floor, Anantapur",Anantapur,Anantapur,Andhra Pradesh,14.6818877,77.6005911
Government General Hospital Blood Bank,"First Floor, OP Block, Station Road",Guntur,Guntur,Andhra Pradesh,16.3318261,80.489049
Government General Hospital Blood Bank,"Government General Hospital Premises, Ground Floor, Kakinada, District",Kakinada,East Godavari,Andhra Pradesh,16.9556927,82.2274281
Government Head Quarters Hospital Blood Bank,"Government H.Q. Premises, Ground Floor, RR PET",Eluru,West Godavari,Andhra Pradesh,16.7133569,81.0943378
Government Maternity Hospital Blood Bank,"Government Maternity Hospital Premises, Ruia Hospital Road",Tirupathi,Chittoor,Andhra Pradesh,13.6397122,79.4092429
Government Victoria Hospital for Women and Children Blood Bank,"1st Floor, Victoria Hospital Premises, 1 Town",Visakhapatnam,Visakhapatnam,Andhra Pradesh,17.6954312,83.2934569
Government Area Hospital Blood Bank,East Godavari District,Tuni,East Godavari,Andhra Pradesh,17.3549368,82.5412421
Government Area Hospital Blood Bank,"APVVP Area Hospital, Ground Floor",Chirala,Prakasam,Andhra Pradesh,15.8254173,80.36139
Great Eastern Medical School and GEMS Hospital Blood Bank,"Ragolu, Srikakulam Mandal",Srikakulam,Srikakulam,Andhra Pradesh,18.3517809,83.902781
GSL Medical College and General Hospital Blood Bank,"Laxmipuram, NH.5, Rajanagaram Mandal, Rajhamundry",Rajahmundry,East Godavari,Andhra Pradesh,17.0665153,81.8828986
Indian Naval Hospital Ship Kalyani Blood Bank,Kalyani Gandhigram Post,Visakhapatnam,Visakhapatnam,Andhra Pradesh,17.6815466,83.2617452
Indian Red Cross Society B.S. Sastry Blood Bank,"D.No. 8-5-2/A, Besides DM & HO Office, Bapuji Kalamandir",Srikakulam,Srikakulam,Andhra Pradesh,18.2964229,83.8949959
Indian Red Cross Society Blood Bank,"10/971, Bellam mandy, Near Matipeddapuli, Trunk Road",Kadapa,Kadapa,Andhra Pradesh,14.4839364,78.8190454
Indian Red Cross Society Blood Bank,"20-119, 1st Floor, Red Cross Building, Prakasam High Road",Chittoor,Chittoor,Andhra Pradesh,13.2176225,79.1007294
Indian Red Cross Society Blood Bank,"57-1-29 to 31, Railway Station Road",Ongole,Prakasam,Andhra Pradesh,15.4980416,80.0514031
Indian Red Cross Society Blood Bank,"1st Floor, Government Area Hospital, Adhoni, Kurnool",Kurnool,Kurnool,Andhra Pradesh,15.6231584,77.2690931
Indian Red Cross Society Blood Bank,"Area Hospital Premises, Prakasam District",Markapur,Prakasam,Andhra Pradesh,15.4980416,80.0514031
Indian Red Cross Society Blood Bank,"Area Hospital Premises, First Floor, Palnadu Road -1",Narasaraopet,Guntur,Andhra Pradesh,16.2359516,80.0485888
Indian Red Cross Society Blood Bank,"Area Hospital, 1st Floor, ZP Compound, Guntur-4",Guntur,Guntur,Andhra Pradesh,16.2937799,80.432627
Indian Red Cross Society Blood Bank,"D.No.14-35-4, Red Cross Buildings, 1 Red Cross Avenue, Maharanipeta",Visakhapatnam,Visakhapatnam,Andhra Pradesh,17.7101319,83.3092615
Indian red cross society Blood Bank,District Area Hospital,Anantapur,Anantapur,Andhra Pradesh,14.6549344,77.6097597
Indian Red Cross Society Blood Bank,"District Branch, Government Medical College Hospital Building, Engineering College Road, Sarada Nagar",Anantapur,Anantapur,Andhra Pradesh,14.6587504,77.6131577
Indian Red Cross Society Blood Bank,Government General Hospital Premises,Eluru,West Godavari,Andhra Pradesh,16.7120015,81.0947653
Indian Red Cross Society Blood Bank,"H.No. 8-14-39, Red Cross Street, Gandhi Nagar",Kakinada,East Godavari,Andhra Pradesh,16.970059,82.2276616
Indian Red Cross Society Blood Bank,"Parvathipuarm Town Area Hospital Premises, 1st Floor, Belagam, Parvathipuram",Vizianagaram,Vizianagaram,Andhra Pradesh,18.7672041,83.4279549
Indian Red Cross Society Blood Bank,"Red Cross Road, adjacent to Government Maternity Hospital, Near Vegetable Market",Nellore,Nellore,Andhra Pradesh,14.4438902,79.9802662
Indian Red Cross Society Blood Bank,"Sy. No. 894 & 896/2, Ground and First Floor, DM & HO Campus",Kurnool,Kurnool,Andhra Pradesh,15.8281257,78.0372792
Indian Red Cross Society Blood Bank,"T.S.No. 7/1B, Near Ganesh Temple, Contonment, Vizianagaram",Vizianagaram,Vizianagaram,Andhra Pradesh,18.1166905,83.3840286
"Indian Red Cross Society, Dr Mullapudi Harischandra Prasad Red Cross Blood Bank","Indian Red Cross Society (IRCS) Building, D.No. 27-14-9, Doddipatlavari Street",Tanuku,West Godavari,Andhra Pradesh,16.7571731,81.6799629
Indian Red Cross Society Blood Bank,"Opp III Town Police Station, Court Complex, E.G.DT, Rajahmundry Branch",Rajahmundry,East Godavari,Andhra Pradesh,17.0091925,81.7697385
Indian Red Cross Society Blood Bank,"APVVP Government Area Hospital, Ground Floor, Kadiri",Anantapur,Anantapur,Andhra Pradesh,14.1129861,78.1573391
Indian Red Cross Society Blood Bank,Community Health Center,Narsapuram,West Godavari,Andhra Pradesh,16.4329833,81.6966198
Indian Red Cross Society Blood Bank,"Indian Red Cross Society (IRCS) Blood Bank, District Branch",Jangareddygudem,West Godavari,Andhra Pradesh,16.7120015,81.0947653
Indian Red Cross Society Blood Bank,Government Hospital Campus,Repalle,Guntur,Andhra Pradesh,16.0174248,80.8294747
Jagruti Charitable Trust Blood Bank,"D.No. 77-1-2, 1st Floor, Jagruthi Building, Gandhipuram",Rajamandry,East Godavari,Andhra Pradesh,17.0044605,81.786709
K.K Indian Red Cross Society Blood bank,"S. N0. 1083/3, RDO office Compound, Trunk Road",Kavali,Nellore,Andhra Pradesh,14.9060821,79.9913632
Kamineni Health care Pvt. . Blood Bank,"1-51, 100 ft New Auto nagar Road, Poranki",Vijayawada,Krishna,Andhra Pradesh,16.496579,80.7027928
Katuri Medical College and Hospital Blood Bank,"Katuri Nagar, Chinakondrapadu, Prathipadu(Mand)",Guntur,Guntur,Andhra Pradesh,16.2256199,80.3080419
King George Hospital Blood Bank,"King George Hospital Premises, Ground Floor",Visakhapatnam,Visakhapatnam,Andhra Pradesh,17.7087374,83.3060385
Konaseema Institute of Medical Sciences and Research Foundation Hospital Blood Bank,"Sy. No. 813 to 817, Kamanagaruvu, Vidyanagar, Near Red Bridges. No. 813 to 817, Kamanagaruvu, Vidyanagar, Near Red Bridge",Amalapuram,East Godavari,Andhra Pradesh,22.5476561,72.9251379
Life Line Voluntary Blood Bank,"Door No. 37-1-169/54, Second Floor, Whole Portion, Sundharaiah Bhavan Road",Ongole,Prakasam,Andhra Pradesh,15.5122937,80.040168
Lions Blood Bank (Lions Vijayawada Vision Multiservice Trust),"Door No. 29-19-85, First Floor, & Second Floor, Old Janata Hospital Building, Dornakol Road, Suryapet",Vijayawada,Vijayawada,Andhra Pradesh,16.5101141,80.6348141
Lions Club of Visakhapatnam Blood Bank Trust,"D.No. 10-54-7, Lions Community Hall, Ram Nagar",Visakhapatnam,Visakhapatnam,Andhra Pradesh,17.7190633,83.3112868
"Lions Vision Blood Bank, Lions Club International","Door No. 12-17-31, 1st Floor, Somuvari Street, Near Bose Statue, Old Club Road",Kothapet,Guntur,Andhra Pradesh,16.2992298,80.449384
Dr. Pattabhi Red Cross Society Blood Bank,"R.S. No. 261/8, Parasupet, S.P. Banglow Centre, Kennedy Road",Machilipatnam,Krishna,Andhra Pradesh,16.1887465,81.1446504
Gitam Institute of Medical Sciences Blood Bank,"Door No. 5-168, Ward No. 6, GITAM University, Rushikonda",Visakhapatnam,Visakhapatnam,Andhra Pradesh,17.7818217,83.3773536
Maharaja Institute of Medical Sciences Blood Bank,"31-15, MIMS General Hospital Premises",Nellimarla,Vizianagaram,Andhra Pradesh,18.1460163,83.4424491
Manipal Hospital Blood Bank,"Level 1, Soumya Nagar",Tadepalli,Guntur,Andhra Pradesh,16.479932,80.6174393
N. T. R. Memorial Trust Blood Bank,"D.No. 13-2-67, 1st Floor, Gunturuvari Thota",Kothapet,Guntur,Andhra Pradesh,16.2861218,80.4462117
Nagarjuna Hospitals Limited Blood Bank,"Second Floor, Kanuru, Vijayawada",Vijayawada,Krishna,Andhra Pradesh,16.48726,80.684152
Narayana Medical College and General Hospital Blood Bank,"1st Floor, A1 Wing, Chintareddypalem, Nellore",Nellore,Nellore,Andhra Pradesh,14.4259731,80.0136424
Needs Blood Bank (A Unit of Needs Society),"D.No. 12-28-56, 1st Floor (Part), Main Road",Kothapet,Guntur,Andhra Pradesh,16.298809,80.449246
"Nimra Institute of Medical Sciences (NIMS), Teaching Hospital and Research Centre","4-90, Nimra Nagar, Jupudi, Ibrahimpatnam",Vijayawada,Krishna,Andhra Pradesh,16.6061489,80.5037285
"NRI Academy of Sciences, NRI Medical College and General Hospital Blood Bank","E Block, First Floor, Medical College and GH Premises, Chinakakani",Mangalagiri,Krishna,Andhra Pradesh,16.4135701,80.5556765
"NRT Blood Bank, GBR Super Speciality Hospital","10-1-10/1, Opposite reddy college, Palnadu Road",Narasaraopet,Guntur,Andhra Pradesh,16.2370703,80.0453199
NTR Memorial Trust Blood Bank,"H.No 10-50-58/1, Raghavendra Towers, Plot No. 15B-3-1, Block No. 56, Ramnagar, Waltair road",Visakhapatnam,Visakhapatnam,Andhra Pradesh,17.718094,83.3107672
Ongole Blood Bank,"5-380, Sridhar Clinic Lane, Kurnool Road",Kurnool,Kurnool,Andhra Pradesh,15.5057232,80.049922
Padmavathi Day and Night Blood Bank,"12-22-39/10, Cellar Portion",Kothapet,Guntur,Andhra Pradesh,16.2861218,80.4462117
"Palakol Voluntary Blood Bank, (A division of Palakol Charitable Trust)","H. No. 11-1-13, Near Urban Bank, Palakol",Palakol,West Godavari,Andhra Pradesh,16.5197815,81.727525
Peoples Education Society Institute of Medical Sciences and Research Blood Bank,PES Institute of Medical Sciences Premises Chittoor,Kuppam,Chittoor,Andhra Pradesh,12.790709,78.364276
Project Hospital Blood Bank,"NSRS Project Hospital Premises, Srisailam Project (East), Sundipenta Village (PO)",Srisailam,Kurnool,Andhra Pradesh,16.0713386,78.9100923
R.R. Hospital Blood Bank,"D.No.30-304-10, Bhagyanagar, Kurnool",Bhagyanagar,Kurnool,Andhra Pradesh,15.8288042,78.0362936
Rajiv Gandhi Institute of Medical Sciences General Hospital Blood Bank,"Ground Floor, Old Family Planning Building, RIMS Hospital Premises",Srikakulam,Srikakulam,Andhra Pradesh,18.3148355,83.8946328
Rajiv Gandhi Institute of Medical Science blood bank,NA,Ongole,NA,Andhra Pradesh,15.4878817,80.0471437
Rajiv Gandhi Institute of Medical Sciences Blood Bank,"RIMS General Hospital, OP Block (K wing), Ground Floor",PutlamPalli,Kadapa,Andhra Pradesh,14.4333542,78.8644941
Rotary Blood Bank (Rotary Club Golden Jubilee Charitable Trust),"D.No. 15-8-10, 2nd Floor, Sambamurthinagar Road, Brahmarshi Road, Satyaprasanna Nagar, Kakinada",Kakinada,East Godavari,Andhra Pradesh,16.955721,82.2384023
"Rotary Blood Bank, (Visakha Portcity Charitable Trust)","D.No. 13-26-2/54, 3rd Floor, Apuroopa Archede, Jagadamaba Junction, Maharanipeta",Visakhapatnam,Visakhapatnam,Andhra Pradesh,17.7116757,83.3033122
Rotary Red Cross Blood Bank,"D.No. 26-5-5, GS Raju Street, Gandhi Nagar",Vijayawada,Krishna,Andhra Pradesh,16.518421,80.62469
Rudhira Voluntary Blood Bank,"H.No. 7-5-9, Ist Floor, Prakasam Road, Gangamapeta",Tenali,Guntur,Andhra Pradesh,16.2434294,80.6463982
Rural Development Trust Hospital Blood Bank,"RDT Hospital Campus, Ground Floor, Survey No. 153, Kadiri Road, Anathapuram",Anantapur,Villupuram,Andhra Pradesh,14.6524109,77.6183496
Sakthi Voluntary Blood Bank,"D.No. 3-5-9, Opp. Raithu Bazar, Lalam Satyanatayana Hospitla Street",Tuni,East Godavari,Andhra Pradesh,9.7549695,76.6816962
Santhiram Medical College and General Hospital Blood Bank,"SHAFA Educational Society, NH-18",Nandhyal,Kurnool,Andhra Pradesh,15.4922086,78.4189913
Seven Hills Hospitals Blood Bank,"D, Bi, 11-4-4/A, 5th Floor, Rockdale Layout, Visakhapatnam",Visakhapatnam,Visakhapatnam,Andhra Pradesh,17.6868159,83.2184815
Smt. Chigurupati Manjuvani Varaprasad Lions District 324-C4 Blood Bank,"D.No. 29-4-54 K, Canon Dhanvada Anantham Complex, Prakasam Road, Suryaraopet",Vijayawada,Krishna,Andhra Pradesh,16.5103085,80.6325107
Smt. Venkata Narasamma and Helapuri Lions Blood Bank,"H.No. 23A-7-13, Rangoon Meda, RR peta",Eluru,West Godavari,Andhra Pradesh,16.7134877,81.1001784
South Central Railway Hospital Blood Bank,"Ist Floor, South Centrl Railway Hospital Premises",Vijayawada,Krishna,Andhra Pradesh,16.5184836,80.6215435
South Central Railway Hospital Blood Bank,SC Railway Hospital Premises,Guntakal,Anantapur,Andhra Pradesh,17.4399295,78.4982741
Sri Buddala Narasimhamurty Blood Bank,"D.No. 34-4/5, Ground floor, Supriya Towers,Tanuku",West Godavari,West Godavari,Andhra Pradesh,16.7556421,81.6801519
Sri Lakshmi Maternity and Surgical Nursing Home,"D.No. 12-24-25, Beside Sivalayam, 4th Floor",Kothapet,Guntur,Andhra Pradesh,16.3002581,80.4498255
Sri Satya Sai Institute of Higher Medical Sciences Blood Bank,Prasanthigram,Puttaparthi,Anantapur,Andhra Pradesh,14.151889,77.77685
Sri Venkata Sai Charitable Trust Blood Bank,"H. No. 10-3-206, M4, First Floor, Reddy & Reddy Colony, Varadaraja Nagar",Tirupathi,Chittoor,Andhra Pradesh,13.6361446,79.4204532
Sri Venkateswara Institute of Medical Sciences Blood Bank,"Sri Venkateswara Institute of Medical Sciences Hospital Premises, T.T.D,Tirupati",Chittoor,Chittoor,Andhra Pradesh,13.6421041,79.4083187
Srinivasa Nursing Home Blood Bank,"Ground Floor, Plot No. 6, Arundati Nagar, Opp. Goods Shed Jn, Contonment",Vizianagaram,Vizianagaram,Andhra Pradesh,18.1173445,83.3956985
St. Anns Hospital Blood Bank,Bandar Road,Vijayawada,Krishna,Andhra Pradesh,16.504622,80.6311929
St. Josephs General Hospital Blood Bank,"First Floor, Hospital Premises",Guntur,Guntur,Andhra Pradesh,16.2975205,80.4411613
SVRR Government General Hospital Blood Bank,"1st Floor, Main Building, SSVR Hosital Permises,Tirupati",Chittoor,Chittoor,Andhra Pradesh,13.6447357,79.4057679
Swatanthra Hospital (Super Speciality Hospital) Pvt. . Blood Bank,"D.No. 19-5-21/6, 2nd Floor, Near KambalaTank,",Rajahmundry,East Godavari,Andhra Pradesh,17.0143886,81.7775143
TTD Central Hospital Blood Bank,"TTD Central Hospital Premises, First Floor, KT Road",Tirupathi,Chittoor,Andhra Pradesh,13.6423086,79.4209586
Uddaraju Anandaraju Foundation Blood Bank,"D.No. 27-8-21/2, Sivaraopet",Bhimavaram,West Godavari,Andhra Pradesh,16.5430135,81.515735
Vijaya Blood Bank,"D.No. 3/179, Sai Kuteer Road, Ground Floor",Proddutur,Kadapa,Andhra Pradesh,14.760899,78.5503672
Vijayasri Blood Bank (A Unit of Vijayasri Memorial Charitable Trust),"D.No. 29-4-30, Maheswari Plaza, Kodanda Rami Reddy Street, Governorpet",Vijaywada,Krishna,Andhra Pradesh,16.5139879,80.6361566
Visakha Steel General Hospital Blood Bank,"First Floor, Sector 6, Ukkunagaram",Visakhapatnam,Visakhapatnam,Andhra Pradesh,17.6623901,83.1424329
"Visakha Voluntary Blood Bank, (A Division of Visakha Charitable Trust)","D.No. 10-2-1/1, 1st Foor, 16-172, Krishna Arcade, Main Rd, Old Gajuwaka Jn.",Gajuwaka,Visakhapatnam,Andhra Pradesh,17.685156,83.2040371
"Viswa Bharathi General Hospital Blood Bank, R.T. Nagar, Near Penchikalapadu (V)",Kallur (M),Kallur,Kurnool,Andhra Pradesh,15.742862,77.880279
Viswa Bharathi Super Speciality Hospital Blood Bank,"50/760-A-127-13, 1st Floor, (O.P. Block), Gayathri Estates",Kurnool,Kurnool,Andhra Pradesh,15.8132734,78.0380988
"SVRR Hospital and Medical College, Tirupati",SVRRGG Hospital Campus,Tirupati,Chittoor,Andhra Pradesh,13.6447357,79.4057679
Government General Hospital,Ramavarapadu,Vijayawada,Krishna,Andhra Pradesh,16.5167042,80.670015
Government Blood Bank DH,NA,Eluru,West Godavari,Andhra Pradesh,16.7133569,81.0943378
"Blood Bank, Government Hospital",Room No:31 opposite Head post office,Amalapuram,East Godavari,Andhra Pradesh,16.5720904,82.0008548
Government Area Hospital,NA,Gudivada,Krishna,Andhra Pradesh,16.4345654,80.9915147
Area Hospital Blood Bank,NA,Tenali,Guntur,Andhra Pradesh,16.2434294,80.6463982
Community Hospital Blood Bank,NA,Proddutur,Cuddapah,Andhra Pradesh,14.7478907,78.5472478
Community Hospital Blood Bank,NA,Adoni,Kurnool,Andhra Pradesh,15.8288042,78.0362936
Community Hospital Blood Bank,NA,Visakhapatnam,Visakhapatnam,Andhra Pradesh,17.7101319,83.3092615
AH Blood Bank,NA,Pulivendula,Kadapa,Andhra Pradesh,14.4222318,78.2263388
AH Blood Bank,NA,Kadari,Anantapur,Andhra Pradesh,14.1130272,78.1605586
AH Blood Bank,NA,Hindupur,Anantapur,Andhra Pradesh,13.8185378,77.4988753
"Arunachal State Hospital, General Hospital","Arunachal State Hospital, Naharlagun Capital Complex District, Arunachal Pradesh",NA,Naharlagun,Arunachal Pradesh,27.0985774,93.6948869
General Hospital,"General Hospital, Pasighat, East Siang district",NA,East Siang,Arunachal Pradesh,28.0715448,95.3251129
Ramakrishna Mission Hospital,"RK Mission Hospital,Itanagar, Capital Complex District, Arunachal Pradesh",NA,Itanagar,Arunachal Pradesh,27.0856246,93.6090296
District Hospital Blood Bank,NA,NA,West Along,Arunachal Pradesh,28.1627836,94.8054142
District Hospital Blood Bank,NA,NA,Tezu,Arunachal Pradesh,27.9283665,96.1583326
District Hospital,"District Hospital, Changlang, Changlang district",NA,Changlang,Arunachal Pradesh,27.7421763,96.642433
District Hospital Blood Bank,NA,NA,Bomdiala,Arunachal Pradesh,28.2179994,94.7277528
District Hospital Blood Bank,NA,NA,Seppa,Arunachal Pradesh,27.3530677,93.0432826
District Hospital,"District Hospital,Tawang,Tawang district",NA,Tawang,Arunachal Pradesh,27.5889424,91.864897
District Hospital,NA,Ziro,Lower Subansiri,Arunachal Pradesh,27.5390107,93.8219742
District Hospital Blood Bank,NA,Daporijo,Upper Subansiri,Arunachal Pradesh,27.981328,94.2174304
District Hospital,NA,Yingkiong,Upper Siang,Arunachal Pradesh,28.6416618,95.0253493
"C.H.C. blood bank, Bongaigaon","Bongaigaon Civil Hospital, Bongaigaon",Bongaigaon,Bongaigaon,Assam,26.4311408,90.576916
Silchar Medical College and Hospital Blood Bank.,"Silchar Medical College Hospital,Ghungoor, Silchar","Ghungoor, Silchar",Cachar,Assam,24.7754169,92.793119
BRPL Hospital Blood Bank,Dhaligaon,NA,NA,Assam,26.5187143,90.5305087
Blood Bank Red Cross Children Hospital,"Indian Red Cross Children Hospital,Silchar",Silchar,Cachar,Assam,24.8266266,92.7953352
Mangaldoi Civil Hospital blood bank,"Mangaldoi Civil Hospital, Mangaldoi, Darrang",Mangaldoi,Darrang,Assam,26.4375495,92.0363975
Dhemaji Civil Hospital blood bank,"Dhemaji Civil Hospital,Lachit Nagar, Khubalia",Dhemaji,Dhemaji,Assam,27.4580238,94.5745332
"Assam Medical College & Hospital Blood Bank,State of the Art Model blood bank",Assam Medical College Hospital,Dibrugarh,Dibrugarh,Assam,27.4875825,94.9400886
Brahmaputra Valley Fertilizer Corporation Ltd,"Namrup, Parbatpur","Brahmaputra, Parbatpur",NA,Assam,27.1799844,95.3491881
Oil India Ltd. Hospital Blood Bank,Duliajan,Duliajan,NA,Assam,27.3591908,95.3236481
Goalpara Civil Hospital,"Civil Hospital, Golpara",Golpara,Goalpara,Assam,26.1416747,90.6100549
K.K. Civil Hospital blood bank,"K.K. Civil Hospital,Golaghat",Golaghat,Golaghat,Assam,26.5096114,93.9641705
Hailakandi Civil Hospital Blood Bank,Hailakandi,Hailakandi,Hailakandi,Assam,24.6717735,92.5633657
State of the Art Model blood bank,"Guwahati Medical College & Hospital,Bhangagarh,Guwahati-32",Guwahati,Kamrup (M),Assam,26.1542164,91.7700635
Dr. B. Barooah Cancer Institute Blood Bank,"Dr. B. Barooah Cancer Institute, Gopinath Nagar, Birubari, Guwahati",Birubari,Kamrup (M),Assam,26.165205,91.7468249
M.M.C. Hospital Blood Bank,"Panbazar, Guwahati",Guwahati,Guwahati,Assam,26.1855045,91.7404854
Diphu Civil Hospital Blood Bank,"Diphu,Karbi Anglong",Anglong,Karbi Anglong,Assam,25.8428767,93.4332627
Karimganj Civil Hospital Blood Bank,"Karimganj Civil Hospital, Karimganj",Karimganj,Karimganj,Assam,24.8675958,92.3618061
R.N.B. Civil Hospital Blood Bank,Keonjhar,Keonjhar,Keonjhar,Assam,21.628933,85.5816847
North Lakhimpur Civil Hospital,"North Lakhimpur Civil Hospital, North Lakhimpur",North Lakhimpur,Lakhimpur,Assam,27.2428615,94.106238
Marigaon Civil Hospital blood bank,Marigaon,NA,NA,Assam,26.2507547,92.3558378
B.P. Civil Hospital,"B.P. Civil Hospital, Nagaon",Nagaon,Nagaon,Assam,26.3449152,92.6894557
Civil Hospital blood bank,Nalbari,Nalbari,Nalbari,Assam,26.4479175,91.4353744
Civil Hospital Blood Bank,"Haflong Civil Hospital, Haflong",Haflong,Dima-Hasao,Assam,25.1834405,93.0111276
Civil Hospital blood bank,Sivsagar,Sivsagar,Sivsagar,Assam,26.9553033,94.6105527
O.N.G.C. Ltd. Hospital Blood Bank,Sivsagar,Sivsagar,Sivsagar,Assam,26.9807025,94.6519154
Kanaklata Civil Hospital Blood Bank,"Kanaklata Civil Hospital, Tezpur",Tezpur,Sonitpur,Assam,26.6307387,92.7972135
"Tinsukia Civil Hospital Blood Bank,(L.G.B.)","L.G.B. Civil Hospital, Bordoloi Nagar, Tinsukia",Bordoloi Nagar,Tinsukia,Assam,27.4988866,95.3587495
Indian Oil Corporation Ltd. Hospital Blood Bank,Digboi,Digboi,Tinsukia,Assam,27.3887675,95.6202149
Central Hospital North Eastern Coalfields,"Coal India Ltd., Marghetia",Marghetia,Marghetia,Assam,27.287762,95.671572
Lower Assam Hospital blood bank,Chapaguri,Chapaguri,Chapaguri,Assam,26.4928619,90.5514783
Barak Blood Bank & Clinical Research Centre,"N.S. Avenue, Silchar",Silchar,Silchar,Assam,24.8076944,92.7952178
Tata Tea Ltd. Referral Hospital & Research Centre blood bank,Chabua,Chabua,NA,Assam,27.4720189,95.1613715
Dr. Damani?s Nursing Home Blood Bank,Near Circuit House,NA,NA,Assam,27.4898286,94.9230561
Marwari Arogya Bhawan & Hospital Blood Bank,Jyoti Nagar,Jyoti Nagar,NA,Assam,27.4898453,94.929704
Aditya Diagnostic Hospital Blood Bank,NA,NA,NA,Assam,27.4914603,94.9312469
Blood bank of Srimanta Sankardeva Hospital & Research Centre,Mancotta Road,NA,NA,Assam,27.4883647,94.9421964
Dirial Central Hospital blood bank,NA,NA,NA,Assam,26.2006043,92.9375739
Blood bank of Solace Hospital & Research Centre (P) Ltd.,NA,NA,NA,Assam,26.1646236,90.6250174
Vivekananda Kendra NRL Hospital Blood Bank,"NRL Township, Numaligarh",Numaligarh,Golaghat,Assam,26.5913711,93.7495168
Aparajita Blood Bank,"A Unit of M/s Sanjivani Hospital, A.T. Road, Tarajan",Tarajan,NA,Assam,26.7496881,94.1949013
Jorhat Medical College Hospital Blood Bank,"Jorhat Medical College,Civil Hospital, Jorhat",Jorhat,Jorhat,Assam,26.7425738,94.1951087
Air Force Hospital Blood Bank,"5, C/O 99 APO",NA,NA,Assam,26.2006043,92.9375739
G.N.R.C Hospital Blood Bank,"Dispur, Guwahati",Dispur,Guwahati,Assam,26.1389556,91.7944378
Assam Gujarat Voluntary Blood Bank and Research Centre,"33, Anil Mazamill Road, Lane opp.:Apsara Cinema, Manipuri Basti",Guwahati,Guwahati,Assam,26.1782569,91.7546348
Blood Bank Down Town Hospital,"G.S. Road, Dispur",Guwahati,Guwahati,Assam,26.1391639,91.7993515
Ganga Blood Bank,"G.S. Road,Ulubari, Guwahati",Ulubari,Kamrup,Assam,26.1722589,91.7601852
Dispur blood bank,"Ganeshguri , Guwahati",Guwahati,Guwahati,Assam,26.1627425,91.7706643
Central Nursing Home Blood Bank,"Beltola, Guwahati",Guwahati,Guwahati,Assam,26.1301489,91.7952638
Saharias Blood Bank,"G.S. Road, Bhangagarh,",Bhangagarh,Guwahati,Assam,26.1627425,91.7706643
International Hospital blood bank,"Lotus Tower, G.S Road,Guwahati",Guwahati,Guwahati,Assam,26.153948,91.7808855
Surakhya blood bank,"A.M. Road, Rehabri,Guwahati",Rehabri,Guwahati,Assam,26.1766887,91.7537945
Marwari Hospital & Research Centre blood bank,"Athagaon, Guwahati.",Guwahati,Guwahati,Assam,26.1716036,91.7402702
"151, Base Hospital Blood Bank","Basistha, Guwahati",Guwahati,Guwahati,Assam,26.1042358,91.7961728
Central Hospital N.F. Railway,"Maligaon, Guwahati",Maligaon,Guwahati,Assam,26.1518707,91.6949015
Haji Abdul Memorial Hospital & Research Centre blood bank,Hojai,Hojai,NA,Assam,26.0016601,92.847737
North East blood bank & Research Centre,"N.H.-37, Haibargaon",Haibargaon,NA,Assam,24.809792,93.086822
Divisional Railway Hospital blood bank,Lumding,Lumding,NA,Assam,25.752555,93.1801682
Nalbari Maternity Hospital blood bank,Nalbari,Nalbari,Nalbari,Assam,26.4404558,91.4359035
Sharma Nursing Home,Tana Road,NA,NA,Assam,26.2006043,92.9375739
"Pragati Hospital & Research Centre, Blood Bank",NA,NA,NA,Assam,26.997865,94.619762
155 Base Hospital Blood Bank,Tezpur,Tezpur,Tezpur,Assam,26.652281,92.783854
Catholic Hospital Blood Bank,Borgang,Borgang,NA,Assam,26.8155393,93.320199
Tinsukia Blood Bank,Tinsukia,Tinsukia,NA,Assam,27.4904372,95.3630179
Sankar Madhab Medical College and Hospital,"Gandhinagar, Sankar Madhab Path, Panikhaiti",Panikhaiti,NA,Assam,26.2016412,91.8614487
Greater Jorhat Lions Blood Bank,"Lions Multiple Service Centre, Sonali Jayanti Nagar",Sonali Jayanti Nagar,NA,Assam,26.7530298,94.1859773
Hayat Hospital Blood Bank,Odalbakra,Odalbakra,NA,Assam,26.1394919,91.746597
Fakhruddin Ali Ahmed Medical College Hospital Blood Bank,"FAA Medical College Hospital,Barpeta",Barpeta,Barpeta,Assam,26.3233875,90.9856357
Rahman Hospital Pvt. Ltd.Blood Bank,"VIP Road, Sixmile, Khanapara, Ghy",Khanapara,NA,Assam,26.1350736,91.809477
Sanjevani Hospital Blood Bank,"Maligaon, Guwahati",Maligaon,Guwahati,Assam,26.161205,91.709411
St. Luke Hospital Blood Bank,"No. 1 Patia Pathar Village, Rongpuria",Rongpuria,NA,Assam,26.5001122,92.5420799
Sukhada Hospital & Diagnostic Centre BB,Tezpur,Tezpur,Tezpur,Assam,26.6494389,92.7907664
Satribari Christian Hospital blood bank,Guwahati,Guwahati,Guwahati,Assam,26.176975,91.7461206
Barpeta Civil Hospital,Barpeta,Barpeta,Barpeta,Assam,26.3556524,90.8679608
GNRC Institute of Medical Sciences,"Sila Grant, North Guwahati",Guwahati,Guwahati,Assam,26.2032049,91.6941583
"Narayana Hrudayalaya Pvt. Ltd, Blood Bank",NA,NA,NA,Assam,26.2077161,91.6776602
S. K. Roy Civil Hospital,Hailakandi,Hailakandi,Hailakandi,Assam,24.7626531,92.795766
Mahendra Mohan Chaudhury Hospital,"Panbazar, Guwahati",Panbazar,Kamrup (M),Assam,26.1855045,91.7404854
R.N.B. Civil Hospital,Kokrajhar,Kokrajhar,Kokrajhar,Assam,26.4480514,89.98423
Morigaon Civil Hospital,Morigaon,Morigaon,Morigaon,Assam,26.2507547,92.3558378
SMK Civil Hospital,Nalbari,Nalbari,Nalbari,Assam,26.4477257,91.4364242
Sivasagar Civil Hospital,Sivasagar,Sivasagar,Sivasagar,Assam,26.9553033,94.6105527
Maa Vindhyawasini Blood Bank,NA,NA,NA,Bihar,25.619114,85.1598789
A.N. Magadh Medical College Hospital Blood Bank,"ANMMCH GayaMagadh Medical CollegeRoad No-6, Magadh ColonyGaya",Gaya,Gaya,Bihar,24.7709945,84.9616306
Anupam Voluntary blood bank,"Opp Purani Jail Road,Nawada",Nawada,Nawada,Bihar,24.889583,85.5448789
Bharat Blood Bank,"Kadamkuan, Choori Bazar",Patna,Patna,Bihar,25.613888,85.152734
Blood bank Indian Red Cross Society,Line Bazar,Purnia,NA,Bihar,25.7842386,87.4886413
Blood Bank and Research Centre,"Ashoke Nagar, Pokharia",NA,NA,Bihar,27.1146853,84.4264574
Bose Clinic Blood Bank,"Dehral on Sone, Canal Road",Rohtas,Rohtas,Bihar,24.90813,84.177581
Sadar Hospital,Bhojpur,Bhojpur,Bhojpur,Bihar,25.5584954,84.6710981
Kurji Holy Family Hospital Blood Bank,P.O.-Sadaquat Ashram,Patna,Patna,Bihar,25.6357241,85.1120992
National blood bank and Research Centre,Kankar bagh,Patna,Patna,Bihar,25.600044,85.1540299
Nalanda Medical College and Hospital Blood Bank,NA,Patna,Patna,Bihar,25.6003076,85.1739583
Military Hospital Blood Bank,Danapur,Patna,Patna,Bihar,25.6046029,85.084542
Lions Mahavir Cancer Sansthan Blood Bank,Phulwari Sharif,Patna,Patna,Bihar,25.5768475,85.0776452
Tripolia Social Service Hospital and Blood Bank,Gulzarbarg,Patna,Patna,Bihar,25.6159554,85.1831335
Sadar Hospital Blood Bank,NA,Madhubani,Madhubani,Bihar,26.3377234,86.0721634
Sadar Hospital Blood Bank,"Sadar Hospital ,Sitamarhi",Sitamarhi,Sitamarhi,Bihar,26.5962626,85.4947498
Sadar Sub Divisional Hospital Blood Bank,NA,Kishanganj,Kishanganj,Bihar,26.1017901,87.948845
Sadar Hospital Blood Bank,NA,NA,NA,Bihar,25.2027187,85.5293999
Sadar Hospital Blood Bank,NA,NA,NA,Bihar,25.2027187,85.5293999
Sadar Hospital Blood Bank,NA,NA,NA,Bihar,25.2027187,85.5293999
Sadar Hospital Blood Bank,"Sadar Hospital, Munger",Munger,Munger,Bihar,25.3747561,86.473525
Shashi Blood Bank,Ashok Rajpath Muradpur,Patna,Patna,Bihar,25.619308,85.159459
"Rastra Kavi Dinkar Blood Bank ,Sadar Hospital","Rashrtra Kavi Dinkar Blood Bank, District Hospital",Begusarai,Begusarai,Bihar,24.0451098,84.0607594
Sri Krishna Medical College and Hospital Blood Bank,Umanagar,Umanagar,Umanagar,Bihar,26.1669211,85.3934566
"Regional blood bank,DMCH, Darbhanga","Darbhanga Medical College and Hospital ,DarbhangaSurgery Building, Ground Floor, DMCH Campus",Darbhanga,Laheriasarai,Bihar,26.1337743,85.9015883
Patliputra Blood Bank,Ashoke Rajpath,Patna,Patna,Bihar,25.619186,85.161053
"Bihar State blood bank,PMCH","Patna Medical College & Hospital (PMCH), Ashok Raj Path, Bankipur",Patna,Patna,Bihar,25.619186,85.161053
Sadar Hospital Blood Bank,Bihar Sharif,Nalanda,Nalanda,Bihar,25.2027187,85.5293999
Sadar Hospital Blood Bank,Chapra,Chapra,Chapra,Bihar,25.7817202,84.7306623
"Red Cross Blood Bank, Indian Red Cross Society","Indian Red Cross Bhawan, North Gandhi Maidan",Patna,Patna,Bihar,25.6195746,85.145199
Sadar Hospital Blood Bank,NA,NA,NA,Bihar,25.2027187,85.5293999
State of the Art Model Blood Bank,"Jay Prabha Hospital campus,Kankarbagh Colony",Patna,Patna,Bihar,25.6001218,85.152316
Palm View Hospital Blood Bank,NA,NA,NA,Bihar,25.6086704,85.0732952
Lion?s Jeevan Blood Bank,NA,NA,NA,Bihar,25.6046029,85.084542
Indira Gandhi Institute of Cardiology Blood Bank,NA,NA,NA,Bihar,25.6216053,85.1629294
Regional Blood Bank,Jawahar Lal Nehru Medical College and Hospital,Bhagalpur,Bhagalpur,Bihar,25.2570575,86.9937241
Rajendra Prasad Memorial Rotary Blood Bank,"Pokhariya, Kalisthan",Darbhanga,Darbhanga,Bihar,26.111868,85.896004
Sadar Hospital blood bank,NA,NA,NA,Bihar,25.2027187,85.5293999
Duncan Hospital,Raxaul,Raxaul,East Champaran,Bihar,26.9895674,84.8506073
Hai Medicare and Research Institute,"Rajabazar , Bailey Road",Patna,Patna,Bihar,25.6042026,85.0764825
"Indian Red Cross Blood Bank,IRCS Blood Bank, Motihari","Indian Red Cross Society Blood Bank, Red Cross SocietySadar Hospital road, Motihari, Red Cross Bhawan, Hospital Road",Motihari,East Champaran,Bihar,26.6473822,84.9102911
"IGIMS, Patna","Indira Gandhi Institute of Medical Sciences,Sheikhpur",Patna,Patna,Bihar,25.6113086,85.0892947
M.J.K. Hospital Blood Bank,Bettiah,Bettiah,NA,Bihar,26.7956792,84.4996986
Katihar Medical College Blood Bank,Katihar,Katihar,Katihar,Bihar,25.5827911,87.5498396
Life Line Blood Bank,Govind Mitra Road,Patna,Patna,Bihar,25.619114,85.1598789
Life Care Blood Bank and transfusion Services,NA,NA,NA,Bihar,22.5499483,88.3709215
Late Sajjan Kr. Agarwal Blood Bank,"Sadar Hospital Campus, Nawada",Nawada,Nawada,Bihar,24.8868483,85.5456885
Mata Gujri Memorial (M.G.M.),Medical College and Lions Seva Kendra Hospital Blood Bank,Kishanganj,Kishanganj,Bihar,26.105161,87.942059
R.B. Memorial Hospital,Benta Road,Laheriasarai,Laheriasarai,Bihar,26.1274886,85.9038728
Sadar Hospital Blood Bank,Hajipur,Vaisali,Hajipur,Bihar,25.6913915,85.2090466
Sadar Hospital Blood Bank,Red Cross Building,NA,NA,Bihar,26.5938603,85.4958367
Nazareth Hospital Blood Bank,Mokama,Patna,Patna,Bihar,25.3884972,85.9194064
Narayana Medical College and Hospital,"Jamuhar, Rohtas",Rohtas,Rohtas,Bihar,24.94295,84.102766
Mahavir Vaatsalya Blood Bank,East Sadaquat Asram,NA,NA,Bihar,25.630566,85.1176876
Sadar Hospital,Sheikhpura,Sheikhpura,Sheikhpura,Bihar,25.1331953,85.8414253
Sadar Hospital,Nawada,Nawada,Nawada,Bihar,24.8868483,85.5456885
Sadar Hospital,"Sadar Hospital, Saharsa",Saharsa,Saharsa,Bihar,25.8874694,86.5894854
"Micro Blood Bank, Raj Colony",Sasaram,Rohtas,Sasaram,Bihar,24.9548265,84.0071577
Sadar Hospital Blood Bank,Siwan,Siwan,Siwan,Bihar,26.2266874,84.3586728
Red Cross Society,"M.P. Singh Red Cross Bhawan, Samastipur",Samastipur,Samastipur,Bihar,25.8548979,85.7750383
"Indian Red Cross Blood Bank,IRCS Blood Bank, Ara","Indian Red Cross Society Blood Bank, Red Cross Society, ,South Ramna Road, Bhojpur, Ara",Ara,Bhojpur,Bihar,25.5593011,84.6620412
Sadar Hospital,"Sadar Hospital, Aurangabad, Old G.P.Road",Aurangabad,Aurangabad,Bihar,24.752353,84.3751995
Sadar Hospital,"Sadar Hospital, Second, Floor, Lakhisarai",Lakhisarai,Lakhisarai,Bihar,25.145574,86.092213
Sadar Hospital,"Sadar Hospital, Samastipur Blood Bank,SH",Samastipur,Samastipur,Bihar,25.8567704,85.7787988
Nalanda Blood Bank,"(A Unit of Janata Karah Kalyan Samaj), Quamruddinganj, Bihar Sharif",Bihar Sharif,Nalanda,Bihar,25.1982147,85.5148735
Sadar Hospital,Rohtas,Rohtas,Rohtas,Bihar,24.9513556,84.0122138
Sadar Hospital,"Sadar Hospital, Bhabua, Kachahari Road ,Kaimur",Bhabua,Kaimur,Bihar,25.0385704,83.6085558
Sadar Hospital,"Sadar Hospital, Jamui",Jamui,Jamui,Bihar,24.9243926,86.2238923
Sadar Hospital,Amar Shahid Jagdeo Prasad Sadar Hospital Jehanabad Premises,Jehanabad,Jehanabad,Bihar,25.209887,84.985363
Sadar Hospital,Medhepura,Madhepura,Madhepura,Bihar,25.9229145,86.7922148
Sadar Hospital,Supaul,Supaul,Supaul,Bihar,26.1144405,86.5965909
Hi-Tech Emergency Hospital Blood Bank,"A unit of Keshav Hospital, Danapur, Khagoul Road",Patna,Patna,Bihar,25.6210222,85.0407608
Sinha Blood Bank,"(A unit of dr. A.K. Sinha Nursing Home), Imlichatti",Muzaffarpur,Muzaffarpur,Bihar,26.1262222,85.3749537
Patna City Blood Bank,"(A Unit of Kanchan Sahay Memorial Mahila Prashikhan Kendra), Dhanki More, Agamkuan",Patna,Patna,Bihar,25.5998149,85.1925181
Bhagwan Mahabir blood bank,Pilgrim Hospital Compound,NA,NA,Bihar,25.0960742,85.3131194
Blood Bank P.N.H.,"Siwan Mahatma Budh Educational and Research Centre, situated at Popular Nursing Home, East of Gandhi Maidan",Siwan,Siwan,Bihar,26.2266874,84.3586728
Paras Hmri Hospital,"Baily Road, Raja bazaar",Patna,Patna,Bihar,25.6056461,85.082587
Ruban Memorial Hospital,"Ratan Stone Clinic, 19 Patliputra Colony",Patna,Patna,Bihar,25.6277173,85.111875
Lord Buddha Koshi Medical College and Hospital,Saharsa,Saharsa,Saharsa,Bihar,25.8939736,86.6643721
S.K.D.K.M. Hospital,"Sri Krishna Medical College Hospital, Emergency Ward, SKMCHUma nagar, Ahiapur,Road No. 2, Juran Chapra",Muzaffarpur,Muzaffarpur,Bihar,26.1669211,85.3934566
Shrishti Blood Bank,"( An unit of Sugam Jagriti), Meera Hospital, Opp - Kumbhar Park, Kankarbagh",Patna,Patna,Bihar,25.6007675,85.1845467
Jeevan Rekha Blood Bank,"( A unit of Sanjiwini Medicare Charitable Trust), Getwel Hospital, Rajabazar, Bailey Road",Patna,Patna,Bihar,25.6046029,85.084542
Lord Budhdha Koshi Medical College,NA,NA,NA,Bihar,25.8939736,86.6643721
Krishna Devi Devi Prasad Kejriwal Maternity Hospital,NA,NA,NA,Bihar,26.1295115,85.3761646
"NMCH, Patna",Nalanda Medical College and HospitalAgamkua,Patna,Patna,Bihar,25.6009156,85.1983471
"Sadar Hospital, Ara","Sadar Hospital Ara, Shivganj",Ara,Bhojpur,Bihar,25.5584954,84.6710981
"Sadar Hospital, Buxar","Old campus of Sadar Hospital, Civil line ,Central Jail, Malachakiya",Buxar,Buxar,Bihar,25.5791491,83.9804388
"Sadar Hospital, Gopalganj","Sadar Hospital, Gopalganj",Gopalganj,Gopalganj,Bihar,26.4607779,84.440996
"Sadar Hospital , Katihar",Katihar,Katihar,Katihar,Bihar,25.5397321,87.5676631
"Sadar Hospital, Khagaria","Sadar Hospital Campus, Khagaria",Khagaria,Khagaria,Bihar,25.5088611,86.4755093
"Sadar Hospital, Kishanganj","Sadar Hospital Campus, Kishangaj",Kishanganj,Kishanganj,Bihar,26.1017901,87.948845
Sadar Hospital,"Sadar Hospital, Madhepura",Madhepura,Madhepura,Bihar,25.9208647,86.790356
Sadar Hospital,"Sadar Hospital, Madhubani",Madhubani,Madhubani,Bihar,26.3377234,86.0721634
Sadar Hospital Muzaffarpur,"Near Muzaffarpur Railway Station, Hospital Road",Muzaffarpur,Muzaffarpur,Bihar,26.1221815,85.3824185
Sadar Hospital,Bihar Sharif,Bihar Sharif,Nalanda,Bihar,25.2052296,85.5145516
MJK Hospital,Betia,Betiah,West Champaran,Bihar,26.7966777,84.5009157
Sadar Hospital,"Sadar Hospital Sasaram, Rauza Road, Near Head Post office, Sasaram",Rohtas,Rohtas,Bihar,24.9513556,84.0122138
Sadar Hospital,Chapra,Chapra,Chapra,Bihar,25.7817202,84.7306623
Sadar Hospital,"Sadar Hospital, Ballu Chauk, Sheikhpura",Sheikhpura,Sheikhpura,Bihar,25.1331953,85.8414253
Sadar Hospital Hajipur,Hajipur,Hajipur,Hajipur,Bihar,25.6913915,85.2090466
"Department of Transfusion Medicine, PGIMER",NA,Chandigarh,Chandigarh,Chandigarh,30.7649646,76.7750066
Rotary & Blood Bank Society Resource Centre,"Sector-37,",Chandigarh,Chandigarh,Chandigarh,30.7422717,76.755097
"Department of Transfusion Medicine,","Government Medical College & Hospital, Sec-32, Chandigarh.",Chandigarh,Chandigarh,Chandigarh,30.708827,76.7804878
"Government Multispecialty Hospital, .","Sec-16, Chandigarh",Chandigarh,Chandigarh,Chandigarh,30.7515025,76.780409
Dhamtari Christian Hospital,"Raipur Road, Dhamtari",Dhamtari,NA,Chhattisgarh,20.718751,81.551536
B.S.R. Cancer Hospital,"Smriti Nagar, Bhilai.",Bhilai,NA,Chhattisgarh,21.2163126,81.3226217
"Thawait Blood Bank, Rajiv Gandhi Complex","Kuchery Chowk, Raipur",Raipur,Raipur,Chhattisgarh,21.2468356,81.6413976
City Blood Bank,"Ramakrishna Ashram, G.E. Road",Raipur,Raipur,Chhattisgarh,21.240906,81.620689
Holy Cross Hospital Ambikapur,Ambikapur,Ambikapur,Ambikapur,Chhattisgarh,23.1341752,83.1935353
Sai Sahara Blood Bank,"Garcha Complex, Jail Road",Raipur,Raipur,Chhattisgarh,21.2517979,81.6407957
Apollo Hospital Blood Bank,Vill. Lingiadih,Blaspur,Blaspur,Chhattisgarh,22.0837945,82.1771611
Modern Medical Institute Lalpur,Dhamtari Road,Raipur,Raipur,Chhattisgarh,21.213112,81.658116
United Blood Bank,Raja Talab,Raipur,Raipur,Chhattisgarh,21.2490434,81.6487683
SSD Blood Bank,"Katoratalab, Raipur",Raipur,Raipur,Chhattisgarh,21.2361596,81.6516328
Chandulal Chandrakar Memorial Hospital Blood Bank,"Nehru Nagar, Bhilai",Bhilai,NA,Chhattisgarh,21.2002468,81.3226646
"Chhattisgarh Blood Bank, Agrawal Hospital Parisar","Agrawal Institute of Medical Sciences Pvt Ltd., G.E.Road",Raipur,Raipur,Chhattisgarh,21.2464739,81.6053613
Bilasa Blood Bank,Bilaspur,Bilaspur,Bilaspur,Chhattisgarh,22.0867499,82.1525163
Bilasa Blood Bank,Shankar Nagar,Raipur,Raipur,Chhattisgarh,21.2542334,81.6633138
Bilasa Blood Bank,"Ghanta Ghar Chowk, Korba",Korba,Korba,Chhattisgarh,22.358714,82.7201454
Tej Blood Bank,"Main Road, Ambikapur",Ambikapur,NA,Chhattisgarh,23.117573,83.1912744
Gayatri Blood Bank,Om Parisar,Durg,Durg,Chhattisgarh,21.1994576,81.285863
Ramkrishna Ashram Blood Bank,Narayanpur,Narayanpur,Narayanpur,Chhattisgarh,19.7177777,81.229827
Chritian Hospital Blood Bank,"Mungeli, Bilaspur",Bilaspur,Bilaspur,Chhattisgarh,22.070985,81.687635
Shrishti Blood Bank,"Dhillan Complex, Jawahar Nagar",Rajpur,NA,Chhattisgarh,21.2462173,81.6308729
OPJHRC Blood Bank,OP Jindal Hospital Inn Raigarh,Raigarh,Raigarh,Chhattisgarh,21.9272784,83.3591482
Shree Narayana Hospital Blood Bank,"Health Tech Chhattisgarh (P) Ltd.,Shree Narayana Hospital, Devendra Nagar",Raipur,Raipur,Chhattisgarh,21.2634866,81.6497995
Rajdhani Blood Bank,"Main Road, Badhaipara",Raipur,Raipur,Chhattisgarh,21.244961,81.63013
Evangelical Mission Hospital Blood Bank,"Evangelical Mission Hospital Campus, At Tilda, P.O. Neora",Raipur,Raipur (C.G.),Chhattisgarh,21.553982,81.790531
Ekta Blood Bank,"Near Abhiyanta Bhawan, Magarpara",Bilaspur,Bilaspur,Chhattisgarh,22.078658,82.14507
Raipur Institute of Medical Science Blood Bank,"At Bhansoj Road, Off NH-6, Vill. Godhi",Raipur,Raipur (C.G.),Chhattisgarh,21.2420046,81.8368166
CM Medical College & Hospital Blood Bank,Vill. Kachandur,Durg,Durg (C.G.),Chhattisgarh,21.2507395,81.3372341
Sewa Blood Bank,"Sawadia Complex, Opp of Kirodimal, District Hospital",Raigarh,Raigarh (C.G.),Chhattisgarh,21.8925518,83.4015858
Ashirwad Blood Bank,"H. No.S-5, Rajiv Nagar, Shankar Nagar",Raipur,Raipur (C.G.),Chhattisgarh,21.2593803,81.6623006
NMDC Apollo Hospital Blood Bank,"Bailadila Iron Ore Mines, Bacheli, Dantewada",Dantewada,Dantewada,Chhattisgarh,18.7036935,81.2486136
Nehru Centenary Hospital Blood Bank,Korba,Korba,Korba,Chhattisgarh,22.358714,82.7201454
J.N.L. Hospital & Research Center Blood Bank,Bhilai,Bhilai,Bhilai,Chhattisgarh,21.1889844,81.3146123
NMDC Project Hospital Blood Bank,"Bailadila Iron Ore Mines, Kirandul Complex",Dantewada,Dantewada,Chhattisgarh,18.6937815,81.22159
Red Cross Blood Bank (BCSU),"Indian Red Cross Blood Bank, Raipur",Raipur,Raipur,Chhattisgarh,21.2514361,81.6388762
B.R.A. Hospital Blood Bank,Raipur,Raipur,Raipur,Chhattisgarh,21.244961,81.63013
District Hospital Blood Bank Durg (BCSU),"Civil Surgeon, District Hospital, Durg",Durg,Durg,Chhattisgarh,21.18724,81.2792892
Civil Surgeon,"District Hospital, Rajnandgaon",Rajnandgaon,Rajnandgaon,Chhattisgarh,21.100827,80.9983175
CIMS Blood Bank(BCSU),"CIMS Hospital , Bilsapur",Bilaspur,Bilsapur,Chhattisgarh,22.088264,82.1519743
Civil Surgeon,"District Hospital, Raigarh",Raigarh,Raigarh,Chhattisgarh,21.8922679,83.3958603
Civil Surgeon,"District Hospital, Ambikapur",Ambikapur,Ambikapur,Chhattisgarh,23.1116855,83.1838387
District Hospital Blood Bank,"Civil Surgeon, District Hospital, Korba",Korba,Korba,Chhattisgarh,22.3645419,82.7437438
District Hospital Blood Bank,"Civil Surgeon, District Hospital, Mahasamund",Mahasamund,Mahasamund,Chhattisgarh,21.1198894,82.0736774
District Hospital Blood Bank,"Civil Surgeon, District Hospital, Kanker",Kanker,Kanker,Chhattisgarh,20.2647234,81.4951551
Maharani Hospital (BCSU),"Maharani Hospital, Jagdalpur",Jagdalpur,Jagdalpur,Chhattisgarh,19.0848387,82.0239399
District Hospital Blood Bank,"Civil Surgeon, District Hospital , Kawardha",Kawardha,Kawardha,Chhattisgarh,22.0084057,81.2176304
District Hospital Blood Bank,"Civil Surgeon,District Hospital, Dantewada",Dantewada,Dantewada,Chhattisgarh,18.8930529,81.3505979
District Hospital Blood Bank Dhamtari,"Civil Surgeon, District Hospital, Dhamtari",Dhanbad,Dhanbad,Chhattisgarh,20.7076708,81.5394478
Civil Surgeon Dist. Hospital Blood Bank,Korea,Koria,Koria,Chhattisgarh,22.358714,82.7201454
District Hospital Blood Bank,"Civil Surgeon, District Hospital, Bilaspur",Bilaspur,Bilaspur,Chhattisgarh,22.0742265,82.158401
Model Blood Bank (BCSU),Raipur,Raipur,Raipur,Chhattisgarh,21.250283,81.640255
District Hospital Blood Bank (BCSU),Durg,Durg,Durg,Chhattisgarh,21.18724,81.2792892
District Hospital Blood Bank Rajnanadagaon,Rajnanadagaon,Rajnanadagaon,NA,Chhattisgarh,21.2786567,81.8661442
District Hospital Blood Bank,Raigarh,Raigarh,Raigarh,Chhattisgarh,21.8925518,83.4015858
District Hospital Blood Bank,Sarguja,Sarguja,Sarguja,Chhattisgarh,23.1095959,83.1947073
"Indian Red Cross Society, Red Cross House",Red Cross House,Silvassa,Silvassa,Dadra and Nagar Haveli,20.2691707,73.0036223
"Daman Raktdan Kendra, Marwad Hospital Campus","Government Hospital Marwad Campus, Nani Daman Daman",Marwad,Daman,Daman and Diu,20.433247,72.8312788
"Diu Blood Bank, Government Hospital",NA,Diu,Diu,Daman and Diu,20.7154188,70.9782376
All India Institute of Medical Sciences (AIIMS),"AIIMS, Main Blood Bank, Ansari Nagar, Ring Road",New Delhi,South Delhi,Delhi,28.567896,77.209533
Armed Forces Transfusion Centre,"Delhi Cantonment, Area Sadar Bazar, Army Public School",Delhi,South West Delhi,Delhi,28.6016883,77.12539
Dr. Ram Manohar Lohia Hospital,"Baba Kharak Singh Marg, near Gurudwara Bangla Sahib, Connaught Place",New Delhi,Central Delhi,Delhi,28.6257235,77.2027212
E.S.I. Hospital,"ESI Hospital, Basai Darapur, Ring Road",New Delhi,West Delhi,Delhi,28.6577662,77.1300657
Safdarjung Hospital,"Safdarjung Hospital, Ansari Nagar, Ring Road",New Delhi,South Delhi,Delhi,28.5671633,77.2075551
Sucheta Kriplani Hospital,"C-604, Shaheed Bhagat Singh Road, DIZ Area",New Delhi,Central Delhi,Delhi,28.6353772,77.2132875
Govind Ballabh Pant Hospital,"G.B. Pant Hospital,Jawahar Lal Nehru Marg, Delhi Gate",New Delhi,Central Delhi,Delhi,28.6387337,77.2347274
Guru Tegh Bahadur Hospital,"G T B Hospital, Shahadara",Delhi,Shahdara,Delhi,28.6839693,77.3094382
Regional Blood tranfusion Center of Central zone,"2 Jawarlal Nehru Marg, Delhi Gate",New Delhi,Central Delhi,Delhi,28.6401435,77.2415581
Sushrut Trauma Centre,"Civil Lines, 9, Metcalf Road",Delhi,North West Delhi,Delhi,28.6797793,77.2283788
Dr. Baba Sahab Ambedkar Hospital,"Sector-6, Rohini",New Delhi,North West Delhi,Delhi,28.7149329,77.1138374
Institute of Liver and Biliary Sciences,"D-1, Vasant Kunj",New Delhi,South West Delhi,Delhi,28.5066395,77.16614
Lal Bahadur Shastri Hospital,"Near Kalyanvas Colony/Mayur Vihar Phase -II, GNCTD Kichdipur",Delhi,East Delhi,Delhi,28.6177208,77.3112419
Hindu Rao Hospital,"DR. J.S. Kkaranwal Memorial Road, Near Malka Ganj, Sabji Mandi, Malka Ganj",Delhi,North Delhi,Delhi,28.6759898,77.2122237
Kasturba Gandhi Hospital,"Near Jama Masjid, Daryaganj",Delhi,Central Delhi,Delhi,28.6492735,77.2373025
Swami Dayanand Hospital,Dilshad Garden,Delhi,North East Delhi,Delhi,28.6784236,77.3031364
Holy Family Hospital,Okhla Road,Delhi,South Delhi,Delhi,28.5618161,77.2751113
Mata Chanan Devi Hospital,C-1 JANAKPURI NEW DELHI,New Delhi,South West Delhi,Delhi,28.6189502,77.0782474
Shri Moolchand Khariti-ram Hospital and Ayurvedic Research Institute,"Mool Chand Hospital, Lajpat Nagar-III",New Delhi,South Delhi,Delhi,28.5664245,77.2351427
National Heart Institute,"49, Community Center, East of Kailash",New Delhi,South Delhi,Delhi,28.5573376,77.2455439
Sunder Lal Jain Charitable Hospital,"Ashok Vihar, Phase-III",Delhi,North West Delhi,Delhi,28.6917859,77.1814428
St. Stephens Hospital,"St. Stephen Hospital, Tis Hazari",Delhi,North Delhi,Delhi,28.6667971,77.2146145
"Pushpawati Singhania Research Institute (For Liver, Renal and Digestive Disease)","Press Enclave Marg, Sheikh Sarai, Phase II",New Delhi,South Delhi,Delhi,28.5332976,77.2253854
Maharaja Agrasen Hospital,West Punjabi bagh,New Delhi,West Delhi,Delhi,28.673955,77.1340206
Delhi Heart and Lung Institute,"3 MM-11, Panchkuian Road",New Delhi,North West Delhi,Delhi,28.6416479,77.2052431
Shree Balaji Action Medical Institute,"FC-34, A-4, Paschim Vihar",New Delhi,West Delhi,Delhi,28.6737837,77.1102673
"Max Super Specialty Hospital, Heart and Vascular Institute( A Unit of Devki Devi Foundation Institute)","2, Press Enclave Road, Saket",New Delhi,South Delhi,Delhi,28.527476,77.2120291
Dr. BL Kapoor Memorial Hospital,"B.L.K. Memorial Hospital, 5 Pusa Road",New Delhi,West Delhi,Delhi,28.6433034,77.1797051
Kalra Hospital and Shri Ram Cardiothoracic and Neurosciences Center (SRCNC),"Kalra Hospital SRNCNC, A-4, Kirti Nagar",New Delhi,West Delhi,Delhi,28.6552017,77.138551
Park Hospital,"Keshopur Sabzi Mandi, New Chaukhandi, Vishnu Garden",New Delhi,North West Delhi,Delhi,28.6517864,77.0931663
Fortis Hospital,"A- Block, Shalimar Bagh",New Delhi,North West Delhi,Delhi,28.7095885,77.1701142
Bhagat Chandra Hospital,"RZF-1/1, Mahavir Enclave, Palam",New Delhi,South West Delhi,Delhi,28.593451,77.0812229
Indian Spinal Injuries Centre,"C-8, Vasant Kunj",New Delhi,South West Delhi,Delhi,28.5331214,77.1421843
Saket City Hospital,"Mandir Marg, Press Enclave Road, Saket",New Delhi,South Delhi,Delhi,28.5274189,77.2140115
Bensups Hospital,"Bansups Avenue, Sector ? 12, Dwarka",New Delhi,South West Delhi,Delhi,28.5928868,77.0444517
Indian Red Cross Society,"1, Red Cross Road, Opposite Parliament House-New Delhi",New Delhi,Central Delhi,Delhi,28.6185482,77.2108003
Rockland Hospital Qutab,"B, 33-34, Qutab Institutional Area",New Delhi,South Delhi,Delhi,28.5374046,77.1810422
Primus Ortho and Spine Hospital,"Primus Super Speciality Hospital,02, Chandragupta Marg, Lower Ground Floor, Chanakyapuri",New Delhi,South Delhi,Delhi,28.5929448,77.1812159
Max Super Specialty Hospital (A Unit of Max Health Care Institute Ltd),"FC-50, Block C and D, Shalimar Bagh",Delhi,North West Delhi,Delhi,28.7278704,77.1527903
Hakeem Abdul Hameed Centenary Hospital,"Jamia Hamdard, Hamdard Nagar",New Delhi,South East Delhi,Delhi,28.5153068,77.2503217
White Cross Blood Bank,"A-60, East Of Kailash",New Delhi,South Delhi,Delhi,28.5606754,77.2536023
Mission Jan Jagriti,"MGS Hospital, Rohtak road, 35/37 West Punjabi Bagh",Delhi,North East Delhi,Delhi,28.6737106,77.1346295
Pitampura Blood Bank,"B-294, Saraswati Vihar, Outer Ring Road, Pitampura",New Delhi,North West Delhi,Delhi,28.699201,77.1235571
Lions Blood Bank,"A.K.-100, Shalimar Bagh",Delhi,North West Delhi,Delhi,28.7040602,77.162387
Batra Hospital and Medical Research Centre,"1,Tuglakabad Institutional Area, Mehrauli Badarpur Road, Tughlakabad",Delhi,South Delhi,Delhi,28.5130972,77.2457897
Blood Bank Organisation,"11/6B Shanti Chamber, Opposite Telephone Exchange, Pusa Road",Delhi,West Delhi,Delhi,28.642523,77.181571
Rotary Blood Bank,"56-57,Institutional Area, Tughlakabad , next to batra hospital",New Delhi,South Delhi,Delhi,28.5134342,77.2426911
"Mission Jan Jagriti Blood Bank, Altius Sonia Hospital","1, Altius Sonia Hospital, Basement, 1, Gulshan Park, Rohtak Road, Nangloi metro station, Metro Piller Number 444",Delhi,North West Delhi,Delhi,28.6824925,77.0523454
Dharamshila Cancer Foundation and Research Centre,"Vasundhara Enclave, Mayur Vihar.",New Delhi,East Delhi,Delhi,28.6025216,77.3141282
Sir Ganga Ram Hospital,"Sir Ganga Ram Road, Old Rajendra NagarNew Delhi- 110060",New Delhi,Central Delhi,Delhi,28.6385138,77.1897854
Sant Parmanand Hospital,"18, Shyamnath Marg, Civil Lines",Delhi,North Delhi,Delhi,28.6777209,77.2241993
"R. B. T. C (wz),Deen Dayal Upadhyay Hospital","Hari Nagar, Near clock tower",New Delhi,West Delhi,Delhi,28.6280122,77.1120923
Jai Prakash Narayan Apex Trauma Centre,"Jai Prakash Narayen Apex Trauma Centre, AIIMS, Raj Nagar,Ring Road",New Delhi,South Delhi,Delhi,28.5681895,77.2006879
Brahm Shakti Hospital and Research Centre,"Brahma Shakti Hospital, U-1/78, Budh Vihar",New Delhi,North West Delhi,Delhi,28.7123705,77.0812466
Max Super Specialty Hospital (Max Balaji Hospital),"A unit of Balaji Medical and Diagnostic Research Centre, 108-A, Indraprastha Extension, Opposite Sanchar Apartment, Patparganj",New Delhi,East Delhi,Delhi,28.6334324,77.3088907
Saroj Hospital and Heart Institute Run by Ganesh Das Chowla Charitable Trust (Regd.),"Saroj Hospital and Heart Institute, Sector-14, Rohini, Madhuban Chowk",Delhi,North West Delhi,Delhi,28.705344,77.131956
Fortis Flt. Lt. Rajan Dhall Hospital (A unit of Flt. Lt. Ranjan Dhall Charitable Trust Regd.),"Sector-B, Pocket-1, Aruna Asaf Ali Marg, Vasant Kunj",Delhi,South West Delhi,Delhi,28.51921,77.160403
Rajiv Gandhi Cancer Institute and Research Center,"Rajiv Gandhi Cancer Institute, Sector-V Rohini",Delhi,North West Delhi,Delhi,28.7166817,77.1114172
Apollo Hospital,"Indraprastha Medical Corporation, Sarita Vihar",New Delhi,South East Delhi,Delhi,28.5427145,77.2841617
Fortis Escort Heart Institute,"Fortis Escort Heart Institute, Okhla Road",New Delhi,South Delhi,Delhi,28.5606583,77.2739036
Northern Railway Central Hospital,"Northern Railway Hospital, Basant Lane",New Delhi,New Delhi,Delhi,28.6365182,77.2174596
Jaipur Golden Hospital,"2, Industrial Area, Rohini, Sector-III",New Delhi,West Delhi,Delhi,28.6976327,77.1095627
Dr.Hedgewar ArogayaSansthan,"Dr. Hedgewar Arogya Sansthan, F-18, Karkardooma",New Delhi,East Delhi,Delhi,28.6558748,77.2934899
Central Poly Clinic Blood Bank,"3, Gangan Vihar, Shahdara Road",New Delhi,North East Delhi,Delhi,28.636457,77.296522
Lions Blood Bank,"369, II Floor, FIE, Near M.C.D. Office, Patparganj Industrial Area,",New Delhi,East Delhi,Delhi,28.6411895,77.3094598
Pushpavati Shinghania Research Institute for Liver,"Reneals and Digestive Diseases, Press Enclave Marg, Sheikh Sarai, Phase-II",New Delhi,New Delhi,Delhi,28.5332976,77.2253854
"Cardio Neuro Centre, AIIMS","AIIMS, Ansari Nagar",New Delhi,New Delhi,Delhi,28.5666058,77.211224
Jan Jagriti Blood bank,"Mission Jan Jagriti, Blood Bank. C/o Jeevan Anmol Hospital Mayur Vihar Phase I",New Delhi,West Delhi,Delhi,28.6394666,77.2367298
"Goa Medical college, Bambolim-Goa",NA,Bambolim,North Goa,Goa,15.4647522,73.8624893
Hospicio Hospital Blood Bank,NA,Margao,South Goa,Goa,15.2787552,73.9606063
Apollo Victor Hospital Blood Bank,Malbhat,Margao,South Goa,Goa,15.2688354,73.965606
Vivus SMRC Heart Centre Blood Bank,NA,Chicalim,South Goa,Goa,15.3946637,73.8366699
District Hospital,"Mapusa Goa , Pedem",Mapusa,North Goa,Goa,15.5968924,73.8201766
Sheth V.S. General Hospital and Shree NHL Municipal Medical College,Ellisbridge,Ahmedabad,Ahmedabad,Gujarat,23.0203682,72.5704842
Smt. Laxmiben Chimanlal Lalbhai Blood Bank,Smt. Shardaben Chimanlal Municipal General Hospital. Saraspur,Ahmedabad,Ahmedabad,Gujarat,23.0317383,72.6113038
Sheth L.G. General Hospital and Blood Bank,"Sheth L.G. General Hospital, Maninagar",Ahmedabad,Ahmedabad,Gujarat,22.9994656,72.6045825
Civil Hospital,Asarwa,Ahmedabad,Ahmedabad,Gujarat,23.0524255,72.6041854
Civil Hospital,"GandhinagarSarkhej Highway, Sola",Ahmedabad,Ahmedabad,Gujarat,23.0826295,72.5248373
Military Hospital Blood Bank,"24, M.H. Complex",Ahmedabad,Ahmedabad,Gujarat,23.0569632,72.6120215
Indian Red Cross Society Blood Bank,"Ahmedabad District Branch, 18-Gujarat Brahmkshatriya Society, Behind Suvidha Market, Paldi",Ahmedabad,Ahmedabad,Gujarat,23.0122878,72.557922
Gujarat Cancer Research Institute,"M.P. Shah Cancer Hospital, Civil Hospital Campus",Ahmedabad,Ahmedabad,Gujarat,23.0509556,72.6072205
Smt. G R Doshi and Smt. K M Mehta Institute of Kidney Disease and Research Centre,"Civil Hospital Compound, Asarwa",Ahmedabad,Ahmedabad,Gujarat,23.0501327,72.6018214
Dr. Jivraj Mehta Smarak Health FoundationBakeri Medical Research Centre,"Ratubhai Adani Arogyadham,Near Ayojan Nagar",Ahmedabad,Ahmedabad,Gujarat,23.0085727,72.5432168
Prathma Blood Center,"Dr.C.V.Raman Marg,B/H.Jivraj Mehta Hospital, Near Lavanya Society, Vasana",Ahmedabad,Ahmedabad,Gujarat,23.0061822,72.5417939
White Cross Blood Bank,"2d Floor, Kandhari Bldg.,Opp:-S.T.Work shop, Naroda Road Patia",Ahmedabad,Ahmedabad,Gujarat,23.0647623,72.6424884
Adarsh Voluntary Blood Bank,Adarsh Voluntary Blood Bank,Ahmedabad,Ahmedabad,Gujarat,23.0375761,72.6301324
Ami Pathology Laboratory and Blood Bank,"14,15 Baronate Tower, Tolnaka Highwey ,Sabarmati Laxmi Chamber, Nr. Ramji Mandir, Ramnagar",Surat,Surat,Gujarat,23.0870503,72.5922275
Gujarat Blood Bank (Voluntary) and Pathology Laboratory and R.I.A. Unit,"1-2, Subhlaxmi Complex",Ahmedabad,Ahmedabad,Gujarat,23.0293598,72.5870826
Karnavati Blood Bank (Voluntary) and Pathology Laboratory,"36, Subhlaxmi Complex, Opp. Sanghavi Highschool",Ahmedabad,Ahmedabad,Gujarat,23.0553912,72.5596945
"Gujarat Blood Bank (Trust), Pathology Laboratory","101,Span Trade Centre,Opp.Kochrab Ashram,Nr.Paldi Char Rasta",Ahmedabad,Ahmedabad,Gujarat,23.0165171,72.5664343
Cross + World Blood bank (Voluntary) and Sankalp Diagnostics,"Chandraprabhu Complex 1ST Floor, Stadium Road, Naranpura, Sardar Patel Colony Char Rasta",Ahmedabad,Ahmedabad,Gujarat,23.0474582,72.5621659
Maha Gujarat Blood Bank (Vol) and Pathology Laboratory,"21/22 Parth Empire Rambaug, Nr Fire Station, Maninagar",Ahmedabad,Ahmedabad,Gujarat,22.997487,72.602332
Supratch Voluntary Blood Bank,"First Floor, Mild stone, Near Drive in Road, Opp:- T. V. Tower",Ahmedabad,Ahmedabad,Gujarat,23.0480206,72.5274189
Help Voluntary Blood Bank (Sanchalit Help Charitable Trust),"4 & 7,Kotyark Complex, Opp. L.G. Hospital, Maninagar",Ahmedabad,Ahmedabad,Gujarat,23.0001021,72.6048372
Sterling Addlife India Limited,"Sterling Hospital Road,Memnagar",Ahmedabad,Ahmedabad,Gujarat,23.048672,72.5311702
"The Gujarat Cancer Society, Medical College Hospital and Research Centre","OPP:- D.R.M.Office, Swadeshi Mill Compound, Nr.Chamunda Bridge, Naroda Road",Ahmedabad,Ahmedabad,Gujarat,23.0391203,72.6105412
"Indian Red Cross Society, Amreli","Mahatma Muldas Red Cross Bhavan, Civil Hospital Campus",Amreli,Amreli,Gujarat,21.6069937,71.22186
Indu Voluntary Blood Bank (Managed by Charotar Health Research Foundation Trust),"3d floor Jems Plaza Nr.D.N.High School, Station Road",Anand,Anand,Gujarat,22.5553775,72.9613118
A.D.Gorwala Blood BankPramukhswami Medical College and Shree krishna Hospital,"H.M.Patel Centre for Medical care and Education, Medical College Campus, Gokulnagar, Karamsad",Karamsad,Anand,Gujarat,22.5390591,72.8947528
Indian Red Cross Society,"Sardar Bhavan, Opp. Municipal Building",Anand,Anand,Gujarat,22.5545875,72.9603358
Indian Red Cross Society,"Opp.Ranchhodji Temple, Petlad",Petlad,Anand,Gujarat,22.4762808,72.8036505
Shree Ghanshyam Pathology Laboratory and Blood Bank,"Krishna Road, B/H Mayfair Hotel",Anand,Anand,Gujarat,22.556549,72.963993
Blood BankBaradpura,"Near Delhi Gate, Banaskantha",Banaskantha,Banaskantha,Gujarat,24.1721621,72.4372801
Gayatri Voluntary Blood Bank and Computerised Pathology Laboratory,"Kirti Chamber, Kirti Stambh Road, Banaskantha",Banaskantha,Banaskantha,Gujarat,24.1717343,72.4349891
Bhoomi Voluntary Blood Bank,"Paulomi House, Nr.Bridge, Banaskantha",Banaskantha,Banaskantha,Gujarat,24.3454739,71.7622481
Bhansali Trust Sanchalit Gandhi Lincoln (Vol) Blood Bank,"Near Municipal Garden, Banaskantha",Banaskantha,Banaskantha,Gujarat,24.2563198,72.1843728
"Vikas Voluntary Blood Bank, Computerised Pathology Laboratory","Kirti Harsh, Complex,Nr. Gayatri Mandir, Highway Road, Banaskantha",Banaskantha,Banaskantha,Gujarat,24.2653073,72.182695
Dharti Voluntary Blood Bank,"1st floor, Super Market, Banaskantha",Banaskantha,Banaskantha,Gujarat,24.3070289,72.3514618
Saraswati Voluntary Blood Bank,"Saraswati Hospital, Opp. Petrol Pump, Banaskantha",Banaskantha,Banaskantha,Gujarat,24.4998098,72.0324642
Gayatri Voluntary Blood Bank,"Plot No.22, C.C.No.4784 Paiki, R.S.No.93,1st Floor, Gayatri Temple, Banaskantha",Banaskantha,Banaskantha,Gujarat,24.3454739,71.7622481
Adarsh Voluntary Blood Bank,"Adarsh Complex, 2d Floor, Amkianagar, Tharad, Dist, BanaskanthaAdarsh Comple,2d Floor, Ambikanagar",Tharad,Banaskantha,Gujarat,24.396687,71.6271514
Red Cross Blood Bank,Sevashram Hospital Compound,Bharuch,Bharuch,Gujarat,21.7019023,72.9871957
Healthcare Society Sanchalit Kumarpal Gandhi Blood Bank,""" B "" Block,1st Floor, Nr Palika Shopping Centre, Nr.Gujarat Gas Circle",Bharuch,Bharuch,Gujarat,21.7051358,72.9958748
Sir T. General Hospital and Medical College,"Dr.H.L.Vaidhya Marg, Kalanala",Bhavnagar,Bhavnagar,Gujarat,21.7675193,72.1418125
Bhavnagar Blood Bank,"Plot No.1686, Office No.1,2 & 3, ""B-wing"" Sardar Municipal Shopping Center, Sardarnagar",Bhavnagar,Bhavnagar,Gujarat,21.763992,72.1658803
Bambhaniya Voluntary Blood Bank,"4,Trade Centre, Third Floor, Kala Nala Circle. Managed by Bhavnagar Blood Bank Trust",Bhavnagar,Bhavnagar,Gujarat,21.7697259,72.1447569
Smt.Sonaliben A.Shah Blood Bank,"2d floor, Patel Chamber,Opp.Haveli-Paliad Road",Bhavnagar,Bhavnagar,Gujarat,22.3044947,73.1730362
Navkar Charitable Trust,"Above Ishwar Printing Press, 2d Floor, Opp.Nagric Bank, Vasi Talav",Bhavnagar,Bhavnagar,Gujarat,21.7760502,72.1442029
Tulsi Pathology Laboratory and Blood Bank,Bhairav Para,Bhavnagar,Bhavnagar,Gujarat,21.5333308,71.8222958
Mayur Blood Bank,"Azad Chowk, Mandvi, Kutch",Kutch,Kutch,Gujarat,22.8333022,69.354199
G.K. General Hospital and Adani Medical College,Bhuj,Bhuj,Kutch,Gujarat,23.2419997,69.6669324
Jivanjyot Blood Bank,"JIvandeep Hospital, 63-A/ B Vijay Nagar, New Hospital Road, Kutch",Kutch,Kutch,Gujarat,23.2417478,69.6718115
Shri Rajabhai Patel Blood Bank,"Indian Medical Association Gandhidhan TrustPlot No.CC-1, Ward No. 7-B, Nr. Gurukul Road, Gandhidham, Kutch",Gandhidham,Kutch,Gujarat,23.0796719,70.0986716
Purna Blood Bank,"Purna Nurshing Home, Ganga Naka",Kutch,Kutch,Gujarat,23.1160171,70.0320313
Matrushri Meghbai Premji Jetha Hospital and Research Centre,"Bhuj Mundra Road, Kutch",Kutch,Kutch,Gujarat,23.2332378,69.6627124
Samarth Raktdan Kendra,"House No.5123,1st Floor, Soniwad, Dahod",Dahod,Dahod,Gujarat,22.8310425,74.2621206
Kiran Voluntary Blood,"Near Hotel Vrundavan Station Road, Dahod",Dahod,Dahod,Gujarat,22.842509,74.2514634
Indian Red Cross Society,"Dahod Dr.Harilal C.Seth Red Cross Bhavan, Police Line road, Dahod",Dahod,Dahod,Gujarat,22.8379314,74.2531465
Shraddhadeep Pathology Lab and Blood Bank,"Shiv Complex, Plot No.329,1st Floor, Sector-16, Gandhinagar",Gandhinagar,Gandhinagar,Gujarat,23.2268827,72.6467789
Apollo Hospitals International Ltd,"Block No.1/A,G.I.D.C.,Bhat, Gandhinagar",Gandhinagar,Gandhinagar,Gujarat,23.1099457,72.6258087
Patel Narayanbhai Narsinhbhai (Gulabpurawala) Voluntary Blood Bank.,"Vijay complex, Opp:-Annapurna Party Plot, Mansa-Gandhinagar Highway, Gandhinagar",Mansa,Gandhinagar,Gujarat,23.4237911,72.6502393
Indian Red Cross Society,"Sheth C.S.Municipal Hospital, Gandhinagar",Gandhinagar,Gandhinagar,Gujarat,23.2156354,72.6369415
Guru Govindsingh Hospital,Jamnagar,Jamnagar,Jamnagar,Gujarat,22.4783552,70.0639115
Jamnagar Voluntary Blood Bank,"First Floor,Shankuntal Apartment Hawai Chowk, Jamnagar",Jamnagar,Jamnagar,Gujarat,22.4615697,70.0722013
General Hospital,Jamnagar,Jamnagar,Jamnagar,Gujarat,22.4670844,70.078258
Mithapur Hospital Tata Chemical Ltd.,Jamnagar,Jamnagar,Jamnagar,Gujarat,22.4058584,69.0312124
Divyajyoti Voluntary Blood,"Varsing pur road, B/H Jalaramvadi, Una",Una,Gir Somnath,Gujarat,20.8234992,71.0408624
General and CMZ Hospital Blood Bank,"M.G.Road, Junagadh",Junagadh,Junagadh,Gujarat,21.5216383,70.4600847
Sardar Patel Voluntary Blood Bank,"""Shital "", Ramnagar, Nr.Shital Book Store, Station Road, Keshod, Junagadh",Keshod,Junagadh,Gujarat,29.3947643,79.1264997
Shri Jivanprakash Foundation Voluntary Blood Bank,"Vikram Commercial Complex, Sardar Baug Road, Junagadh",Junagadh,Junagadh,Gujarat,21.5198418,70.4490981
Navjeevan Blood Bank and Clinical Laboratory,"Lilashah Shopping Centre, Nr.Bus Station, Junagadh",Junagadh,Junagadh,Gujarat,21.522671,70.4548126
Navdeep Voluntary Blood Bank,"1st Floor, Sankalp Complex, S.T. Road, Opp:-Chikhaliyas Hospital, Junagadh",Junagadh,Junagadh,Gujarat,21.5207456,70.454019
Lions Medical Centre,"Pith Bazar, Kambhat, Anand",Kambhat,Anand,Gujarat,22.5560283,72.9556068
Chhotalal Ranchhoddas Parikh Blood Bank,"Indian Red Cross Society Building, Station Road, Kapadwanj",Kapadwanj,Kheda,Gujarat,23.0200163,73.0700421
Indian Red Cross Society Blood Bank (Shri H.V.Desai Blood Bank),"Red Cross Building, Santram road, Nadiad, Santram Road, Kheda",Nadiad,Kheda,Gujarat,22.6910863,72.8622726
Muljibhai Patel Urological Hospital,"Dr.V.V.Desai Marg, Kheda",Kheda,Kheda,Gujarat,22.6832874,72.8722162
"Gujarat Methodist Church Cardiac Care and Research Society, Dharamsinh Desai Memorial Methodist Institute of Cardiology and cardiovascular surgery","Mission Road, Nadiad",Nadiad,Kheda,Gujarat,22.701205,72.844444
General Hospital,"Nr. Bus Stand, Rajmahal road, Mehsana",Mehsana,Mehsana,Gujarat,23.608106,72.391539
Mehsana Jaycees Charitable Trust Sanchalit Sarvodaya Commercial Co.op Voluntary Blood Bank,"Pinky Super Bazar,Dairy Road, Mehsana",Mehsana,Mehsana,Gujarat,23.6059362,72.3857493
"Sardar Seva Trust Sanchalit Unjha Nagrik Sahkari Bank Ltd.,Voluntary Blood Bank","1st Floor, Poonam Complex, Unjha, Mehsana",Unjha,Mehsana,Gujarat,23.804024,72.389715
"Visnagar Voluntary Blood Bank, Visnagar","Jivanjyot Charitable Trust, Sanchalit, Station Road, Visnagar, Mehsana",Visnagar,Mehsana,Gujarat,23.6977038,72.5382293
Indian Red Cross Society,"B.K.Shah Red Cross Bhavan, Station Road, Navsari",Navsari,Navsari,Gujarat,20.9498649,72.918376
Nanubhai Mavljibhai Patel Blood Bank,"1st Floor, Shroof Complex, Nr.Dr.Gupta Hospital, Lions Club Bilimora Cheritibal Foundation Trust. Panchmahal",Bilimora,Panchmahal,Gujarat,20.7719588,72.973028
General Hospital,"Godhra, Panchmahal",Godhra,Panchmahal,Gujarat,22.7725,73.6209
Indian Red Cross Society,"Panchmahal District Branch, Civil Lines, Godhra, Panchmahal",Godhra,Panchmahal,Gujarat,22.7700902,73.6199909
Raktdan Kendra (Voluntary Blood Bank),"Panjra Pole Road, Nr.Church, Godhra, Pnchmahal",Godhra,Panchmahal,Gujarat,21.1728932,72.830067
Seventilal Kantilal Blood Bank,"Rotary Club of Patan Charitable Trust SanchlitRotary Bhavan, Khetarvasi",Patan,Patan,Gujarat,23.8504122,72.1340438
Bhansali Trust Raktadan Kendra,"Highway, Patan",Patan,Patan,Gujarat,23.8235393,71.6161394
Government Medical and General Hospital,Siddhpur,Siddhpur,Patan,Gujarat,23.9161573,72.3729773
G.M.E.R.S. Medical College and Hospital,Patan,Patan,Patan,Gujarat,23.8042129,72.375153
General Hospital,Porbandar,Porbandar,Porbandar,Gujarat,21.6377108,69.6091417
Asha Children Hospital and Blood Bank,"Near New Fountain, Shri Ashivan Bharanik Charity foundation , Porbandar",Porbandar,Porbandar,Gujarat,21.6339334,69.6156927
Shri Ram Voluntary Blood Bank ( Shree Ram Education Medical and charitable Trust-Junagadh),"Star Complex, Ground Floor, Opp.Khijadi Plot, M.G.Road, Porbandar",Porbandar,Porbandar,Gujarat,21.522184,70.4578768
General Hospital,"P.D.U. Hospital, Civil Hospital Campus, Rajkot",Rajkot,Rajkot,Gujarat,22.3049715,70.7984304
Rajkot Voluntary Blood Bank and Research Centre,"Ajay Mansion, Malaviya Road, Rajkot",Rajkot,Rajkot,Gujarat,22.2685076,70.7966921
Smt.S.C. Patel Field Marshal Blood Bank,"104, Rajeshwari Commercial Complex, Opp. Ramkrishna Ashram, Dr.Yagnik Road. Rajkot",Rajkot,Rajkot,Gujarat,33.836081,-81.1637245
Nathani Voluntary Blood Bank and Blood Transfusion Centre,"11,Tejas Building,20/22,New Jagnath Plot, Rajkot",Rajkot,Rajkot,Gujarat,31.9685988,-99.9018131
Red Cross Blood Bank,"Rajkot Red Cross Building, 1st floor, Suchak Road, Nr.Kundaliya Collage, Rajkot",Rajkot,Rajkot,Gujarat,22.295381,70.796956
Saurashtra Voluntary Blood Bank and Research CentreKathiyawad Medical and Education Charitable Trust.,"Opp:- Gurukul hospital, Satkar Complex, Gondal Road,Nr. Railway Crossing, Rajkot",Rajkot,Rajkot,Gujarat,22.2749838,70.7993494
Shiv Voluntary Blood BankLate Shri Mansukhbhai Ganeshbhai Marvania Charitable Trust Organised,"2d Floor Pavan Complex, Sanala Road, Rajkot",Rajkot,Rajkot,Gujarat,22.3263696,70.8541506
Jetpur Medical Foundation,"Kanakiya Plot, Rajkot",Rajkot,Rajkot,Gujarat,21.7615246,70.6276279
Jagruti Charitable Trust Blood Bank,"Azad Chowk, Three Gate, Rajkot",Rajkot,Rajkot,Gujarat,22.2990381,70.7817822
Astha Voluntary Blood Bank,"Jetpur Road, Gondal, Opp:- Hava Mahel Nr.GIDC Gate, Gondal, Ashta Medical and Charitable Trust, Rajkot",Gondal,Rajkot,Gujarat,21.9514855,70.7938365
General Hospital,Sabarkantha,Sabarkantha,Sabarkantha,Gujarat,23.2528809,72.8995764
Indian Red Cross Society,"Nr.G.P.O.,State Highway, Himmatnagar",Himmatnagar,Sabarkantha,Gujarat,23.597389,72.958777
"Patel Voluntary Blood Bank, Patel Foundation Trust Sanchalit","Siddhivinayak Complex, Shamlaji Road, Sabarkantha",Sabarkantha,Sabarkantha,Gujarat,23.0235018,72.5289864
Trimurti Hospital Vol. Blood bank (Shrimati Dahiben Ratilal Charitable Trust Sanchalit),"Shrinagar, B/H, Bus Stand, Sabarkantha",Sabarkantha,Sabarkantha,Gujarat,34.0836708,74.7972825
New Civil Hospital,"Majur Gate Hospital, Surat",Surat,Surat,Gujarat,21.1792147,72.8218776
Maskati Charitable Municipal Hospital Surat Municipal Corporation Blood Bank,"209, 2nd Floor, New Building, Tower Road, Surat",Surat,Surat,Gujarat,21.1983712,72.8347947
"Surat Raktdan Kendra and Research Centre , Regional Blood Transfusion CentreKhatodara health Centre","F.P.No.127,T.P.No.1,Udhana Majura, Hanuman Industrial Estate, Khatodara, Surat",Surat,Surat,Gujarat,21.1660367,72.8179586
"Loksamarpan Trust, Blood Bank","Block 678,Shri Krupa Society,Varachha Road`, Surat",Surat,Surat,Gujarat,21.2130593,72.8512822
Aminaben Gangat and Aheshaben Patel Blood Bank,"Surat Healthcare Foundation C/o Lokhat Hospital Rampura, Surat",Surat,Surat,Gujarat,21.2073846,72.8272419
Shree mahavir Health and Medical Relief Society Shri B.D.Mehta Mahavir Cardiac Institute.,"Shree Mahavir Health campus Athwa Gate, Ring Road, Surat",Surat,Surat,Gujarat,21.1984764,72.8430247
Shri Sardar Smarak Hospital,"Sardar Baug, Station Road, Surat",Surat,Surat,Gujarat,21.1304655,73.108138
Government Hospital,Surendranagar,Surendranagar,Surendranagar,Gujarat,22.7100702,71.6721097
C.U.Shah Medical College and Hospital (Prop. Of Saurashtra Medical Centre),"Dudhrej Road, Surendranagar",Surendranagar,Surendranagar,Gujarat,22.7419748,71.6221878
Shree Rang Voluntary Blood Bank,Dudhrej Road,Surendranagar,Surendranagar,Gujarat,22.5659893,71.8076991
Shraddha Voluntary Blood Bank and Pathology Laboratory,"Halani Chamber, Zhala Road. Opp. Jay Saurashtra Cinema, Surendranagar",Surendranagar,Surendranagar,Gujarat,22.7251204,71.6369542
Laxmiben Khushalbhai Patel Blood Bank,"1st Floor, Janak Smarak Hospital, Kanpura, Tapi",Tapi,Tapi,Gujarat,21.1129752,73.4033375
Maliba Raktadan Kendra,"Bhaikaka Red Cross Bhavan, Vilasini K.Desai Arogya Sankul, Nr.Vanchetna Kakrapar By pass, Tadkuva (Vyara)",Vyara,Tapi,Gujarat,21.2996029,73.3664487
S.S.G.Hospital,"The Government Medical College and S.S.G. Hospital, Vadodara",Vadodara,Vadodara,Gujarat,22.3063874,73.1908466
Jamnabai General Hospital,Vadodara,Vadodara,Vadodara,Gujarat,22.300055,73.212295
"Medical Care Centre Trust, Shri Jalaram Blood Bank, Kashiben Gordhandas Patel Children Hospital","Jalaram Marg, Karelibaug, Vadodara",Vadodara,Vadodara,Gujarat,22.3107405,73.1977199
Suraktam Blood Bank (Run by Vadodara District AIDS Control Society),"G-7, Blue Chip, Nr.Stock Exchange, Sayajiganj, Vadodara",Vadodara,Vadodara,Gujarat,22.3094529,73.186587
Indu Voluntary Blood BankManage Indu Health Research Foundation Trust,"Vinraj Plaza, Third Floor, Opp:-Government Press Kothi, Vadodara",Vadodara,Vadodara,Gujarat,22.3040926,73.1935036
Bhailal Amin General Hospital Blood Bank,"Alembic Road, Vadodara",Vadodara,Vadodara,Gujarat,22.3250211,73.1631011
Dhiraj Blood BankDhiraj Hospital Managed By K. M. Shah Charitable Trust.,Vadodara,Vadodara,Vadodara,Gujarat,22.30731,73.181098
Kailash Cancer Hospital and Research Centre,"Muni. Seva Ashram, Goraj, Vadodara",Vadodara,Vadodara,Gujarat,22.293194,73.3472902
GMERS General Hospital,"Gotri Road, Valsad",Valsad,Valsad,Gujarat,20.6009595,72.9174497
"Shree Narhari Manav Kalyan Trust "" Narhari Hospital""",Narayan Bhavan,NA,NA,Gujarat,22.3182418,73.1883749
Lions Medical Research and Educational Charitable Trust Blood Bank,"Opp. Referral Hospital, Navsari",Navsari,Navsari,Gujarat,20.9467019,72.9520348
Valsad Raktdan Kendra,"R.N.C. Free Eye Hospital Compound , Opp:-Mamlatdar Office, Valsad",Navsari,Valsad,Gujarat,20.6095666,72.92912
Sardar Billadwala Pardi Peoples (S.B.P.P.) Co.op. Bank Foundation Blood Bank (Trustee of Manav Arogya Seva Kendra),"Jesal Co.op.Housing Society, Near Pardi Hospital, N.H. No.8, Killa-Pardi, Valsad",Pardi,Valsad,Gujarat,20.5168634,72.9512143
Smt.Puriben Popat Lakha Blood Bank(Jamnagar-Nana Mandha),"Lions Club Of Vapi Udyognagar Charitable Trust Sanchali Plot No.366/A, Prashant Park, Near Jain Temple, G.I.D.C. Vapi, Valsad",Vapi,Valsad,Gujarat,22.455075,70.0447288
"Nukem Blood Bank Haria L.G.Rotary Hospital, Rotary Charitable Trust Vapi","Plot No.363/1 & 364, Housing Sector,G.I.D.C. Valsad",Valsad,Valsad,Gujarat,20.3817201,72.9208105
"Surat Municipal Institute for Medical Education and Research, (SMIMER)",Umarwada,Surat,Surat,Gujarat,21.1957772,72.8458045
"Mafatben Uttamlal Pethani Voluntary Blood Bank, Bhagwan Mahavir Seva Samiti Sanchalit","Near Delhi Gate, Palanpur",Banaskantha,Banaskantha,Gujarat,24.1721621,72.4372801
Indian Medical Association (IMA),"Manasa Charitable Trust sanchalit C.M.K. & P.N.N. Voluntary Blood Bank, 1st floor, Vijay Complex, Mansa-Gandhinagar Highway, Manasa",Gandhinagar,Gandhinagar,Gujarat,23.4238803,72.6504187
General Hospital (ESIS) Blood Bank,Bapunagar,Ahmedabad,Ahmedabad,Gujarat,23.0271751,72.6253758
General Hospital Blood Bank,Palanpur,Banaskantha,Banaskantha,Gujarat,24.181036,72.433622
General Hospital,Ahwa,Ahwa,Dang,Gujarat,20.7615263,73.6892536
General Hospital,Morbi,Rajkot,Rajkot,Gujarat,22.331087,70.819874
General Hospital,Ambala City,Ambala,Ambala,Haryana,30.365932,76.792781
General Hospital,Narnaul,Narnaul,NA,Haryana,28.0455366,76.1153423
General Hospital,Gurgaon,Gurgaon,Gurgaon,Haryana,28.4436416,77.0127274
"General Hospital Blood Bank, Regional Blood Transfusion Centre","General Hospital, Karnal",Karnal,Karnal,Haryana,29.6953565,76.9938383
General Hospital Blood Bank,Sonipat,Sonipat,Sonipat,Haryana,28.9915213,77.0345491
General Hospital Blood Bank,Sirsa,Sirsa,Sirsa,Haryana,29.5365591,75.0221163
General Hospital Blood Bank,Bhiwani,Bhiwani,Bhiwani,Haryana,28.7985174,76.1334902
General Hospital Blood Bank Transfusion Center,"LNJP Hospital, Near Kurukshetra University",Kurukshetra,Kurukshetra,Haryana,29.9656034,76.8200695
General Hospital Blood Bank,"RBTC, B.K Hospital, Faridabad",Faridabad,Faridabad,Haryana,28.3926292,77.2986762
"Red Cross Blood Bank, Indian Red Cross Society","Red Cross Blood Bank, Blood Transfusion Services, G.T. Road",Panipat,Panipat,Haryana,29.3931277,76.9692603
Regional Blood Transfusion Service,"General Hospital, Hisar",Hisar,Hisar,Haryana,29.1491875,75.7216527
General Hospital Blood Bank,Jind,Jind,Jind,Haryana,29.3132886,76.3378287
Trauma Centre Blood Bank,"1st Floor, Trauma Centre, Mukund Lal General Hospital",Yamunanagar,Yamunanagar,Haryana,30.1400701,77.2999881
Nalwa Pathology and Microbiology Laboratory,"SCF-83, Commercial UE-1, Red Square market",Hisar,Hisar,Haryana,29.1571067,75.7223962
Command Hospital,"Chandi Mandir, Panchkula",Panchkula,Panchkula,Haryana,30.74174,76.883626
District Hospital,"Smt. Indira Gandhi Government Multispecilality,Sector-18, Kaithal",Kaithal,Kaithal,Haryana,29.7918923,76.4172594
Military Hospital,"Ambala Cantt, Ambala",Ambala,Ambala,Haryana,30.3560995,76.8355472
Escort Hospital,Faridabad,Faridabad,Faridabad,Haryana,28.3914917,77.3067935
General Hospital,"Sector-6, Panchkula",Panchkula,Panchkula,Haryana,30.7049758,76.8545986
Central Medical Centre,"Delhi Road, Hisar",Hisar,Hisar,Haryana,29.1408879,75.7341024
Nirmal Institute of Medical Science Blood Bank,"Opp. Civil Hospital, Karnal",Karnal,Karnal,Haryana,29.6856929,76.9904825
Sunflag Hospital and Research Centre,"Sector-16A, Faridabad",Faridabad,Faridabad,Haryana,28.4061525,77.3178968
Maharaja Agrasen Institute of Medical Research and Education,Agroha,Agroha,Hisar,Haryana,29.3367051,75.6226273
"Haryana Blood Bank, Near Jindal Hospital","Model Town, Hisar",Hisar,Hisar,Haryana,29.1318909,75.7448406
Shiv Shakti Blood Bank,"Shiv Shakti Rakta data Samiti Circular Road, Balmiki Chowk, Sirsa.",Sirsa,Sirsa,Haryana,29.5365591,75.0221163
Prem Blood Bank,"A unit of Lala Harbhagwan Dass Memorial & Dr. Prem Hospital Pvt. Ltd., Bishan Saroop Colony, Opposite Bus Stand, Panipat.",Panipat,Panipat,Haryana,29.398644,76.966315
Kapisthal Blood Bank,"Plot No. 11, Rishi Nagar, Kaithal",Kaithal,Kaithal,Haryana,29.8134046,76.3971046
Diamond Blood bank,"LLP C/o Om Spero Hospital, 56 KM Stone, NH-2, Delhi Mathura Road, Palwal",Palwal,Palwal,Haryana,28.1195474,77.3318584
"Blood Bank, Pandit Ram Prakash Hospital and Kidney Centre","Civil Hospital Road, Karnal",Karnal,Karnal,Haryana,29.6957972,76.9925908
"National Blood Bank, Situated at Basement of Prem Munjal Hospital","Near Bus Stand, Rishi Nagar, Hisar",Hisar,Hisar,Haryana,29.1634448,75.7179243
Manglam Blood Bank,"N-139, Model Town, Jindal Hospital Road, Hisar",Hisar,Hisar,Haryana,29.1318909,75.7448406
"Gurgaon Blood Bank, Gurgaon",Gurgaon,Gurgaon,Gurgaon,Haryana,28.4520847,77.0077423
Save Life Blood Bank,"16, Jarnaily Colony, Opp.- General Hospital, Karnal",Karnal,Karnal,Haryana,29.6856929,76.9904825
Hisar Blood Bank,Hisar,Hisar,Hisar,Haryana,29.1310301,75.7655215
Pt. B. D. Sharma Post Graduate Institute of Medical Sciences (PGIMS),Rohtak,Rohtak,Rohtak,Haryana,28.8801261,76.6055682
Kurukshetra Blood Bank,"SCO-55-56, 1st Floor, Sector-17, Kurukshetra",Kurukshetra,Kurukshetra,Haryana,29.970016,76.838528
"Jagdambe Blood Bank, at Aggarwal Hospital","Kali Mandir Road, Bhatia Nagar,Tohana",Tohana,Fatehabad,Haryana,29.7155358,75.9008892
"Rewari Blood Bank, Rewari","Shree Krishna Medical and Social Welfare Society, 53-RL, Model Town, Rewari",Rewari,Rewari,Haryana,28.1877105,76.6169672
"Dr. Anant Ram Janta Hospital Blood Bank, Sciences","Barwala, Hisar",Hisar,Hisar,Haryana,29.3631962,75.9018185
City Blood Bank,Circular Road,Bhiwani,Bhiwani,Haryana,28.7927849,76.1458902
Shree MAA Blood Bank,"Jagadhri, Yamunanagar",Yamunanagar,Yamunanagar,Haryana,30.1476962,77.3043386
MM Institute of Medical Sciences and Research,Mulana,Ambala,Ambala,Haryana,30.2514059,77.0444609
"National Blood Bank, Kharab Hospital",Gohana Road,Jind,Jind,Haryana,29.3132886,76.3378287
Philadelphina Mission Hospital,NA,NA,NA,Haryana,30.3819345,76.7828573
Bharat Blood Bank,"467, D/4 Hotel West Colony, (A Project of Panipat Royal Jacees)",Panipat,Panipat,Haryana,29.3909464,76.9635023
Panipat Blood Bank,332-R Model Town,Panipat,Panipat,Haryana,29.3931277,76.9692603
Sanjeevani Blood Bank,"111, Near Railway Road, Sadar bazar, Ambala Cantt.",Ambala,Ambala,Haryana,30.3427233,76.8360536
Sonepat Blood Bank,Sonipat,Sonipat,Sonipat,Haryana,28.9915213,77.0345491
Sarvodaya Hospital,"Sector-19, Gopi Colony",Faridabad,Faridabad,Haryana,28.4222361,77.3167904
Cryo Banks,"International (India) Pvt. Ltd., 129, Pace City, Sector-37",Gurgaon,Gurgaon,Haryana,28.4377756,77.0095895
Kaisar Hospital,"Limited (New Name Alchemist Hospital Ltd., Sector-21",Panchkula,Panchkula,Haryana,30.6745927,76.8647413
Tohana Blood Bank,Tohana,Tohana,Tohana,Haryana,29.7154955,75.9008798
"Blood Bank, Bapu Maghar Singh Ji International, Blood Bank","Shah Satnam Singh Ji Speciality Hospital, Near Shah Satnam Singh Ji Dham",Sirsa,Sirsa,Haryana,29.4679136,75.0688665
QRG Central Hospital and Research Centre,"Plot No. 69, Sector-20 A, Near Neelam Fly Over, Ajronda Mathura Road",Faridabad,Faridabad,Haryana,28.3934789,77.3101664
Paras Health Care Pvt. Ltd.,"C-1, Sushant Lok City, Phase I",Gurgaon,Gurgaon,Haryana,28.450552,77.087571
"Sant Bhagat Ji, Maharaj Charitable Hospital",Faridabad,Faridabad,Faridabad,Haryana,28.3831128,77.302219
Artemis Medicare Services Ltd.,"Sector-51, Gurgaon",Gurgaon,Gurgaon,Haryana,28.4316377,77.0725389
General Hospital,Jhajjar,Jhajjhar,Jhajjhar,Haryana,28.60745,76.642927
General Hospital Blood Bank,"Room No. 16 Civil Hospital Blood Bank, Rewari",Rewari,Rewari,Haryana,28.2022162,76.6197902
Sarvodaya Hospital and Research Centre,"YMCA Road, Sector-8",Faridabad,Faridabad,Haryana,28.3678334,77.335979
The Medanta Blood Bank,Gurgaon,Gurgaon,Gurgaon,Haryana,28.4397339,77.0414433
Asian Institute of Medical Sciences,"Badkhal Flyover Road, Sector 21-A",Faridabad,Faridabad,Haryana,28.4262029,77.2998549
Metro Heart Institute with Multispecialty,"(A Unit of Metro Specialty Hospitals Pvt. Ltd.,) Sector-16A",Faridabad,Faridabad,Haryana,28.4060327,77.3180343
Alchemist Institute of Medical Sciences,"(A Unit of Alchemist Hospitals Ltd.,) Sector-53, Saraswati Kunj",Gurgaon,Gurgaon,Haryana,28.439229,77.102161
"SGT Medical College, Hospital and Research Institute","Budhera, Near Sultanpur Lake, Farukhnagar Road",Gurgaon,Gurgaon,Haryana,28.47841,76.902714
General Hospital,Fatehabad,Fatehabad,Fatehabad,Haryana,29.5090016,75.4463372
Unistem Biosciences Pvt. Ltd.,"Plot No. 62, Udyog Vihar, Phase-I",Gurgaon,Gurgaon,Haryana,28.514566,77.081688
Park Hospital,"( Unit of Park Medicentre & Institution Pvt. Ltd.) Q-I Block, South City-II, Phase-I",Gurgaon,Gurgaon,Haryana,28.4200022,77.0483791
Fortis Memorial Research Institute,"A unit of Fortis Health Management (North) Limited, Sector-44, Institutional Area",Gurgaon,Gurgaon,Haryana,28.4566496,77.072755
General Hospital,"Mandikhera,Mewat",Mewat,Mewat,Haryana,27.9001526,76.993775
Life Cell International Private Ltd.,"Plot No. 26, Sector-4, IMT",Manesar,Gurgaon,Haryana,28.368817,76.911348
"SHKM, Medical College","Shaheed Hasan Khan Mewati Government Medical College,Nalhar, Tehsil Nuh,Mewat",Mewat,Mewat,Haryana,28.0905482,76.9732531
"HIMS Blood Bank, HIMS Hospital","NH-152, Village-Ujhana, Ambala Road",Kaithal,Kaithal,Haryana,29.8447278,76.441366
General Hospital,"General Hospital, New Sohana Road, Palwal",Palwal,Palwal,Haryana,28.136086,77.3270238
Bhagat Phool Singh Medical College for Women,Khanpur Kalan,Khanpur Kalan,Sonipat,Haryana,29.1515865,76.8045633
"Gold Field Blood bank, Gold Field Hospital and Research Centre","Vill.- Chhainsa, Ballabgarh",Ballabgarh,Faridabad,Haryana,28.277082,77.454949
N.C. Medical College and Hospital,Panipat-Rohtak Road,Israna,Panipat,Haryana,29.2865992,76.8789762
Gangaputra Hospital and Research Centre Blood Bank,"Kaithal Road, Kandela",Kandela,Jind,Haryana,29.3781521,76.3366298
TotipotentRX Cell Therapy Pvt. Ltd.,"Fortis Memorial Research Institute, Sector-44",Gurgaon,Gurgaon,Haryana,28.4084502,77.070611
Medical College Blood Bank,PGIMS,Rohtak,Rohtak,Haryana,28.8801261,76.6055682
District Hospital Blood Bank,"E.S.I Hospital Blood Bank, Jagadhari",Yamunanagar,Yamunanagar,Haryana,30.1442003,77.3035435
General Hospital Blood Bank (Plateletapheresis),"General Hospital Blood Bank, Gurgaon",Gurgaon,Gurgaon,Haryana,28.4397339,77.0414433
District Hospital Blood Bank(Plateletapheresis),District Hospital Blood Bank,Panchkula,Panchkula,Haryana,30.6942091,76.860565
"Blood Bank, Hisar","MAMC, Agroha",Hisar,Agroha,Haryana,29.3366385,75.6224947
General Hospital Blood Bank,S.M.O RBTC General Hospital Blood Bank,Hisar,Hisar,Haryana,29.1491875,75.7216527
District Hospital Blood Bank,Mahendergarh,Mahendergarh,Mahendergarh,Haryana,28.2710192,76.1493891
Medicity Hospital Blood Bank,"Sector ? 38, Gurgaon, Haryana",Gurgaon,Gurgaon,Haryana,28.439053,77.040961
Dr RPGMC Tanda,Dr. Rajendra Prasad Medical College Tanda,Kangra,Kangra,Himachal Pradesh,32.0992042,76.2990403
IGMC Shimla,"Deptt. of BT & IH, IGMC Shimla,",Shimla,Shimla,Himachal Pradesh,31.1064901,77.1822518
CHC,"BMO-Block Medical Officer , Haroli, Una",Una,Una,Himachal Pradesh,31.4233852,76.2310463
Civil Hospital,"Rohru, Shimla",Shimla,Shimla,Himachal Pradesh,31.2012678,77.752342
District Hospital,Bilaspur,Bilaspur,Bilaspur,Himachal Pradesh,22.0742265,82.158401
District Hospital,Kullu.,Kullu,Kullu,Himachal Pradesh,31.9566725,77.1115458
District Hospital,Chamba,Chamba,Chamba,Himachal Pradesh,32.568119,76.1206821
District Hospital,Nahan,Nahan,Nahan,Himachal Pradesh,30.5626823,77.2930613
District Hospital,Solan.,Solan,Solan,Himachal Pradesh,30.9100633,77.0969773
District Hospital,Una,Una,Una,Himachal Pradesh,31.474426,76.271698
Deen Dayal Updhayay Hospital,DDU Complex,Shimla,Shimla,Himachal Pradesh,31.1037055,77.171295
Zonal Hospital,Z.H.Dharamshala,Kangra,Kangra,Himachal Pradesh,32.2131749,76.3194043
Kamla Nehru Hospital,Kamla Nehru Hospital,Shimla,Shimla,Himachal Pradesh,31.0966289,77.1752519
Zonal Hospital,Hamirpur,Hamirpur,Hamirpur,Himachal Pradesh,31.6799383,76.5273184
Netaji Subhash Chander Bose Zonal Hospital,"Z.H.Mandi,",Mandi,Mandi,Himachal Pradesh,31.7114564,76.9270145
Sub-Divisional Hospital,"Palanpur, District Kangra",Kangra,Kangra,Himachal Pradesh,32.1108599,76.5362526
Bhota Charitable Hospital,"Bhota, District Hamirpur",Hamirpur,Hamirpur,Himachal Pradesh,31.6092982,76.5697743
Mahatama Gandhi Medical Services,Shimla,Shimla,Shimla,Himachal Pradesh,31.0988587,77.1755873
Regional Hospital,RH.R/PeoKinnaur,Kinnaur,Kinnaur,Himachal Pradesh,31.539316,78.2670361
Military Hospital,Yol. Kangra,Kangra,Kangra,Himachal Pradesh,32.164762,76.195863
The Registrar Maharshi Markandeshwar University Maharshi Markendeshwar Medical College and Hospital,"LADO, Sultanpur Road, Kumarhatti, Solan",Solan,Solan,Himachal Pradesh,30.818098,77.0794706
Malhotra Super Speciality Hospital Blood Bank (A Unit of Malhotra Clinics Pvt Ltd,"SCO No. 8, Himuda Bhatoli Kalan, Opp.- Mahavir Spinning Mills, Baddi",Solan,Solan,Himachal Pradesh,30.948369,76.8323801
R.H. Bilaspur,R.H. Bilaspur,Bilaspur,Bilaspur,Himachal Pradesh,31.3357121,76.7652422
R.H. Chamba,R.H. Chamba,Chamba,Chamba,Himachal Pradesh,32.5533633,76.1258083
R.H. Hamirpur,R.H. Hamirpur,Hamirpur,Hamirpur,Himachal Pradesh,31.6861745,76.5213092
R.H. Kullu,R.H. Kullu,Kullu,Kullu,Himachal Pradesh,31.957851,77.1094597
R.H. Sirmour,R.H. Nahan,Sirmour,Sirmour,Himachal Pradesh,30.5599327,77.295483
R .H. Solan,R. H. Solan,Solan,Solan,Himachal Pradesh,30.9100633,77.0969773
R.H. Una,R.H. Una,Una,Una,Himachal Pradesh,31.4785791,76.2741605
"General Hospital, Blood Bank","150, General Hospital, Rajouri",NA,NA,Jammu and Kashmir,33.3716143,74.315191
Sainik Asptal Blood Bank,"166, Military Hospital, C/o 56 APO",NA,NA,Jammu and Kashmir,32.6951007,74.8413348
"SKIMS, Blood Bank","SKIMS, Soura, Srinagar",NA,NA,Jammu and Kashmir,34.1361402,74.8001468
SMHS Hospital Blood Bank,"SMHS Hospital, Karan Nagar, Srinagar",NA,NA,Jammu and Kashmir,34.08543,74.796705
Government Medical College & Hospital Blood Bank,"Government Medical College & Hospital, Mahesh Pura, Bakshi Nagar, Jammu",NA,NA,Jammu and Kashmir,32.7358776,74.8539324
SMGS Hospital,"Shalamar Road, Jammu",NA,NA,Jammu and Kashmir,32.7328647,74.8613726
Bee Enn General Hospital Blood Bank,"Bee Enn General Hospital, Talab Tillo, Jammu",NA,NA,Jammu and Kashmir,32.7300336,74.8409147
"District Hospital, Command Hospital Blood Bank","Command Hospital, Uttari Kaman, C/o Uttari Kaman, Udhampur",NA,NA,Jammu and Kashmir,32.9199212,75.1328319
92 Base Hospital Blood Bank,"92 Base Hospital, C/o 56 APO, Badami Bagh, Srinagar",NA,NA,Jammu and Kashmir,34.0659054,74.8561958
District Hospital Blood Bank,"District Hospital, Kathua",NA,Kathua,Jammu and Kashmir,32.3908155,75.5252016
District Hospital Blood Bank,"District Hospital, Udhampur",NA,NA,Jammu and Kashmir,32.9199212,75.1328319
District Hospital Blood Bank,"District Hospital, Doda",NA,Doda,Jammu and Kashmir,33.1457497,75.5480491
Acharya Shri Chander College of Medical Sciences and Hospital Blood Bank,"Acharya Shri Chander College of Medical Sciences and Hospital, Sidhra, Jammu",NA,NA,Jammu and Kashmir,32.7238262,74.739368
General Hospital Blood Bank,"153, General Hospital, C/o 56 APO, Leh Ladakh",NA,NA,Jammu and Kashmir,34.1525864,77.5770535
Government Hospital Blood Bank,"Government Hospital, Gandhi Nagar, Jammu",NA,NA,Jammu and Kashmir,32.705216,74.860034
Government Hospital Blood Bank,"Government Hospital, Rajouri",NA,NA,Jammu and Kashmir,33.3716143,74.315191
SNM Hospital Blood Bank,"SNM Hospital, Leh",NA,NA,Jammu and Kashmir,34.1537938,77.5802103
Emergency Hospital Blood Bank,"Emergency Hospital, Ramban",NA,NA,Jammu and Kashmir,33.2427243,75.2391588
Lal Ded Hospital Blood Bank,"Srinagar Gpo, Srinagar",NA,Srinagar,Jammu and Kashmir,34.0671261,74.8054992
District Hospital Blood Bank,"District Hospital, Budgam",NA,NA,Jammu and Kashmir,33.9348549,74.6400432
District Hospital Blood Bank,"District Hospital, Baramulla",NA,NA,Jammu and Kashmir,34.0643183,74.4273959
District Hospital Blood Bank,"District Hospital, Pulwama",NA,NA,Jammu and Kashmir,33.8784148,74.899898
"District Hospital, Kargil Ladakh Kashmir Division","District Hospital, Kargil Ladakh Kashmir Division, Jammu & Kashmir",NA,Kargil,Jammu and Kashmir,34.5592513,76.1248738
District Hospital,"District Hospital, Poonch",NA,Poonch,Jammu and Kashmir,33.7722938,74.0980625
District Hospital Blood Bank,"District- Hospital, Anantnag",NA,Anantnag,Jammu and Kashmir,33.7253569,75.153155
Sub-District Hospital Blood Bank,"Sub-District Hospital, Chadoora, District- Budgam",NA,NA,Jammu and Kashmir,33.9451416,74.7966079
District Hospital Blood Bank,"District Hospital, Handwara, Kupwara",NA,Kupwara,Jammu and Kashmir,34.3969591,74.2843641
District Hospital Blood bank,"District Hospital, Kulgam",NA,NA,Jammu and Kashmir,33.6453047,75.0267184
Government Bone & Joint Surgery Hospital Blood Bank,"Government Bone & Joint Surgery Hospital, Barzulla, Srinagar",NA,NA,Jammu and Kashmir,34.0520405,74.7973393
Jawahar Lal Nehru Memorial Hospital,"Jawahar Lal Nehru Memorial Hospital Blood Bank, Rainwari, Srinagar",NA,NA,Jammu and Kashmir,34.0977591,74.821652
District Hospital,Kishtwar,NA,NA,Jammu and Kashmir,33.3151243,75.7694114
District Hospital,"Leh, Ladakh",NA,Ladakh,Jammu and Kashmir,34.1534817,77.5806212
District Hospital,Ramban,NA,NA,Jammu and Kashmir,33.2420569,75.2392611
District Hospital,Rajouri,NA,Rajouri,Jammu and Kashmir,33.3878401,74.3156175
District Hospital,Samba,NA,NA,Jammu and Kashmir,32.5605136,75.1209122
District Hospital,Shopian,NA,NA,Jammu and Kashmir,33.7207345,74.8350799
District Hospital,Ganderbal,NA,NA,Jammu and Kashmir,34.2099212,74.7769189
Ispat Hospital,"Mecon (I) Ltd., Shyamli Colony, Doranda, Ranchi",Ranchi,Ranchi,Jharkhand,23.3384107,85.3069732
Indian Red Cross Society Blood Bank,"Red Cross Building, Morabadi maidan",NA,NA,Jharkhand,23.3883108,85.3280314
Plant Hospital,"Heavy Engineering Corporation Ltd., Dhurwa",Ranchi,Ranchi,Jharkhand,23.333996,85.300802
CCL Hospital,"C.C.L. Hospital, Gandhi Nagar, Kanke Road",Ranchi,Ranchi,Jharkhand,23.4083538,85.3210131
Central Hospital,"Naisarai,C.C.L.",Ramgarh,Ramgarh Cantonment,Jharkhand,23.6478955,85.5108344
Bokaro General Hospital Blood Bank,"Bokaro General Hospital, Sector -4,Bokaro Steel City",Bokaro,Bokaro,Jharkhand,23.674305,86.1456569
Birsha Blood Bank,"Dr. P.N. Jaiswal Road, Bariatu",Bariatu,Bariatu,Jharkhand,23.3972234,85.357311
Abdur Razzaque Ansari,Memorial Weaver?s Hospital (Apollo Hospital Group)Blood banl,Irba,Irba,Jharkhand,23.4499865,85.4391605
Sadar Hospital,"Sadar Hospital Simdega, Simdega",Simdega,Simdega,Jharkhand,22.6149779,84.5028825
Guru Nanak Hospital and Research Centre Blood Bank Unit,Station Road,NA,NA,Jharkhand,23.34985,85.3300189
Sadar Hospital,"Sadar Hospital Campus, Gumla",Gumla,Gumla,Jharkhand,23.0441295,84.5379455
Sadar Hospital,NA,NA,NA,Jharkhand,23.3688935,85.3258143
Sadar Hospital,Near Town Hall,Dumka,Dumka,Jharkhand,24.2771391,87.2742678
Sadar Hospital Blood Bank,NA,NA,NA,Jharkhand,22.5505044,85.8048171
Sadar Hospital Blood Bank,"Sadar Hospital Campus, Palamau",Palamau,Daltonganj,Jharkhand,24.0451098,84.0607594
Central Hospital Blood Bank,"BCCL, Jagjiwan Nagar",NA,NA,Jharkhand,23.8055965,86.4501695
Sadar Hospital,NA,NA,NA,Jharkhand,23.3688935,85.3258143
M.G.M. Medical College and Hospital,Jamshedpur,Jamshedpur,Jamshedpur,Jharkhand,22.843664,86.232396
Sub-Divisional Hospital Blood Bank,"Sadar Hospital Campus, Latehar",Latehar,Latehar,Jharkhand,23.7432145,84.5081355
Patliputra Medical College Hospital,Saraidhela campus,Saraidhela,Saraidhela,Jharkhand,23.8086527,86.4624047
SAI Hospital Blood Bank,"Sector-IV,Bokaro Steel City",Bokaro,Bokaro,Jharkhand,23.6663851,86.1464676
Military Hospital,Ramgarh Cantt,Ramgarh,Ramgarh,Jharkhand,23.6252115,85.5161727
Gua Hospital,"IISCO, Gua",Gua,Gua,Jharkhand,22.2107979,85.3830546
Blood Transfusion Unit,"TISCO Hospital, Noamundi",East Singhbhum,Noamundi,Jharkhand,22.1470842,85.4939334
Archi Jharkhand Blood Bank,"Buxi Compound, Avenue Road, Near Dr. J. Sharan",Bariatu,Bariatu,Jharkhand,23.390438,85.346721
Sadar Hospital,"Sadar Hospital Campus, Chaibasa",West Singhbhum,Chaibasa,Jharkhand,22.5505168,85.8054811
Sadar Hospital Blood Bank,NA,NA,NA,Jharkhand,22.5505044,85.8048171
Sadar Hospital Blood Bank,NA,NA,NA,Jharkhand,22.5505044,85.8048171
Kiriburu General Hospital,Kiriburu,West Singhbhum,West Singhbhum,Jharkhand,22.1071,85.2941263
Seventh Day Adventist Hospital Blood Bank,Bariatu Road,Ranchi,Ranchi,Jharkhand,23.395757,85.351652
State- of- Art Model Blood Bank,"Rajendra Institute of Medical Sciences, Bariatu Road",Ranchi,Bariatu,Jharkhand,23.390344,85.348552
Nagarmal Modi Seva Sadan Hospital,Upper Bajar Lake Road,NA,NA,Jharkhand,23.3709147,85.3173013
Military Hospital Blood Bank,Namkum,Ranchi,Ranchi,Jharkhand,23.349933,85.3804773
K. M. Memorial Hospital Blood Bank,"Chas, Bokaro Steel City",Bokaro,Bokaro,Jharkhand,23.6330541,86.1734452
Jharkhand Blood Bank,"Bariatu, Ranchi",Ranchi,Ranchi,Jharkhand,23.395757,85.351652
Jamshedpur Blood Bank,"Jamshedpur Blood Bank, Stocking Road, Northern Town. Bistupur",Jamshedpur,Jamshedpur,Jharkhand,22.8042546,86.1812552
Kidney Hospital and Urology Centre,Radium Road,Ranchi,Ranchi,Jharkhand,23.379746,85.324735
Dhanbad S.N. Chokrabarty Memorial Nursing Home,"Debraj Complex, 3rd Floor",Dhanbad,Dhanbad,Jharkhand,23.781238,86.413028
Rinchi Trust Hospital Blood bank,"Kathal More, Itki Road",Ranchi,Ranchi,Jharkhand,23.3635403,85.2491131
Indian Red Cross Society Blood Bank,"Indian Red Cross Society (IRCS), Blood bank, Pandit Jawahar lal Nehru Marg, Near Airport, Near Circuit House, Sector 1 B,Bokaro Steel City",Bokaro,Bokaro,Jharkhand,23.645651,86.1517857
Apurva Hospital and Research Centre,"Sweta, Ranchi Road, P.O.-Marar, Ramgarh, Canttt.",Ramgarh,Ramgarh,Jharkhand,23.6715965,85.5071604
Sadar Hospital,Sahebganj,Sahebganj,Sahebganj,Jharkhand,25.2358322,87.6342162
Sartaj Blood Bank,"508/C, Sudarshan Building, P.P. Compound",NA,NA,Jharkhand,23.3540634,85.3233346
Indian Red Cross Society,"Sadar Hospital Campus, Chatra",Chatra,Chaibasa,Jharkhand,22.5505168,85.8054811
Sadar Hospital,"Sadar Hospital, Koderma",Koderma,Koderma,Jharkhand,24.4748268,85.596689
Devkamal Hospital and Research Centre,"Bajra, Itki Road, Post. - Hehal, Ranchi",Ranchi,Ranchi,Jharkhand,23.3732249,85.2720997
Sadar Hospital Blood Bank,"Sadar Hospital Campus, Pakur",Pakur,Pakur,Jharkhand,24.63741,87.836915
Sadar Hospital,Seraikella- Kharsawan,Seraikella,Seraikella,Jharkhand,22.7023346,85.9278993
Tata Iron and Steel Company (TISCO),"West Bokaro Hospital Blood Bank, Ghatotand",Ramgarh,Ramgarh,Jharkhand,23.7876513,85.5550204
Tata Central Hospital,"Jamadoba, P.O.- Bhaga",Dhanbad,Dhanbad,Jharkhand,23.8451074,86.4832676
Blood Bank Bokaro,"City Care Hospital and Research Centre, Check Post, Chas",Bokaro,Chas,Jharkhand,23.6376071,86.1618702
Dhanbad Blood Bank,Jora Pathak,Dhanbad,Dhanbad,Jharkhand,23.7804939,86.4138771
Anand Rotary Blood Bank,Anand Hospital,NA,NA,Jharkhand,23.6101808,85.2799354
"RIMS, Ranchi","Blood Bank, RIMS, Ranchi",Ranchi,Ranchi,Jharkhand,23.390344,85.348552
PMCH,"PMCH, Saraidhela, BCCL",Dhanbad,Dhanbad,Jharkhand,23.8159778,86.4603883
MGMMCH,"MGM Medical College and Hospital, Jamshedpur, Sakchi",Jamshedpur,Jamshedpur,Jharkhand,22.843664,86.232396
Sadar Hospital Campus,Deoghar,Deoghar,Deoghar,Jharkhand,24.4871885,86.7077074
Sadar Hospital Campus,Garhwa,Garhwa,Garhwa,Jharkhand,24.1599062,83.8088511
Sadar Hospital Campus,Sadar Hospital Giridih,Giridih,Giridih,Jharkhand,24.1879903,86.3064543
Sadar Hospital Campus,Sadar Hospital Hazaribag,Hazaribag,Hazaribag,Jharkhand,23.9974822,85.356311
Sadar Hospital Campus,Sadar Hospital Lohardagga,Lohardaga,Lohardaga,Jharkhand,23.4419164,84.6851713
Indian Red Cross Society (IRCS),"Indian Red Cross Society, Morabadi",Ranchi,Ranchi,Jharkhand,23.3883108,85.3280314
Sadar Hospital,"Sadar Hospital, Sahebganj",Sahebganj,Sahebganj,Jharkhand,25.2358322,87.6342162
Bengaluru Blood Bank and Diagnostic Laboratory,NA,Bengaluru,Malleshwaram,Karnataka,12.9993431,77.5694115
"City Transfusion ex-servicemen, Blood bank and Laboratory",Jayaynagar,Mysore,Mysore,Karnataka,12.31615,76.6509448
HKES Blood Bank Organisation,"M.R. Medical College, Basave shwara Teaching and General Hospital, No.7-52 Sadam Road",Gulbarga,Kalaburagi,Karnataka,17.329731,76.8342957
Bengaluru Rotary TTK Blood Bank Medical Service Trust,"New Thippasandra Main Road, HAL III Stage",Bengaluru,Bengaluru,Karnataka,12.9717981,77.656687
KIMS Hospital,"K.R.Road, Visveswarapuram",Bengaluru,Bengaluru,Karnataka,12.9554082,77.5745711
Indian Medical Association Blood Bank,"3.9.58, Old Government Hospital Compound, Beron Quilla",Raichur,Raichur,Karnataka,16.2120031,77.3439283
Bangalore Baptist Hospital,"Bellary Road, Hebbal",Bengaluru,Bangalore,Karnataka,13.0358406,77.5895705
Sanjaya Gandhi Accident Hospital and Research Institute,"Jayanagar East, Byrasandra",Bengaluru,Bengaluru,Karnataka,12.935768,77.593859
Victoria Hospital Blood Bank,"Fort road, Bengaluru",Bengaluru,Bengaluru,Karnataka,12.9631369,77.5729816
K.R.Hospital Blood Bank,Sayyaji Rao Road,Mysore,Mysore,Karnataka,12.3125416,76.649595
K.L.E.Societys Hospital and Medical Research Centre,Nehru Nagar,Belgaum,Belgaum,Karnataka,15.8817882,74.5165247
Fr.Mullers Charitable Institutions,"Post Box No.501, Kankanady",Mangalore,Dakshina Kannada,Karnataka,12.8658029,74.8598521
M.S. Ramaiah Medical Teaching Hospital,Gokul Extension,Bengaluru,Bengaluru,Karnataka,13.008563,77.7058598
St. Marthas Hospital,Nrupatunga Road,Bangalore,Bengaluru,Karnataka,12.9713162,77.5863592
Belgaum Blood Bank and Diagnostic Laboratory,"3137, Huns Talkies Road, (opp. To Central High School)",Belgaum,Belgaum,Karnataka,15.860383,74.511914
Kidwai Memorial Institute of Oncology Blood Bank,Dr M.H.Marigowda Road,Bengaluru,Bengaluru,Karnataka,12.9368265,77.5978629
Transfusion Medicine Centre,(NIMHANS)Hosur Road,Bengaluru,Bengaluru,Karnataka,12.941434,77.594605
St. Johns Medical College Hospital,"Sarjapur Road, Bengaluru",Bengaluru,Bengaluru,Karnataka,12.930812,77.6199209
Mallya Hospital No.2,Vittal Mallya Road,Bengaluru,Bengaluru,Karnataka,12.9680654,77.5950695
District Hospital,NA,Bidar,Bidar,Karnataka,17.9018663,77.5162294
"The District Surgeon, District Hospital",Athani Road,Bijapur,Bijapur,Karnataka,16.826615,75.6930998
Medical College Hospital Blood Bank,"Vijayanagara Institute of Medical Science (VIMS), Bellary",Bellary,Bellary,Karnataka,15.1556993,76.8980228
District Hospital Blood Bank,NA,Gulbarga,Kalaburagi,Karnataka,17.3362804,76.837022
"General Hospital, Robertson Peth",Kolar Gold Fields(K.G.F),NA,NA,Karnataka,12.9533862,78.2712848
S.N.R. District Hospital Blood Bank,NA,Kolar,Kolar,Karnataka,13.1292451,78.1343507
District Hospital Blood Bank,NA,Belgaum,Belgaum,Karnataka,15.8553049,74.5112636
Hindustan Aeronautics Limited (HAL Hospital Blood Bank),Bengaluru Complex,Bengaluru,Bengaluru,Karnataka,12.9626948,77.665716
St.Philomenas Hospital Blood Bank,"No.1, Nilsandra Road",Bengaluru,Bengaluru,Karnataka,12.965443,77.6107905
K.C.General Hospital Blood Bank,NA,Bengaluru,Malleshwaram,Karnataka,12.9960244,77.5693714
Command Hospital Blood Bank Air Force,Air Force Road,Bengaluru,Bengaluru,Karnataka,12.9646503,77.6281362
Sri Sidhartha Medical College Blood Bank,"Agalakote, B.H.Road",Tumkur,Tumkur,Karnataka,13.3453931,77.0584302
Sushruta Voluntary Blood Bank,"Adarsha Bhavan 151, 15th Cross",Bengaluru,Malleshwaram,Karnataka,13.0058932,77.5644271
B.L.D.E. Associations Medical College Hospital and Research Centre,Ashram Road,Bijapur,Bijapur,Karnataka,16.8450853,75.7104932
Unique Blood Bank and Diagnostic Centre,"S.L.N.Complex, City Market Square",Bengaluru,Bengaluru,Karnataka,12.9658365,77.5762617
Mc.Gann Hospital Blood Bank,Sagar Road,Shimoga,Shimoga,Karnataka,13.9352315,75.5628568
E.S.I.Hoaspital Blood Bank,Rajajinagar,Bengaluru,Bengaluru,Karnataka,12.9898516,77.5528067
Rashtrotthana Blood Bank,93/2 Keshava Shilpa Ist Mn Rd Kempegowda Nagar,Bengaluru,Bengaluru,Karnataka,12.95468,77.5654178
"The District Surgeon, District Hospital Blood Bank",NA,Tumkur,Tumkur,Karnataka,13.3377782,77.1168103
District Hospital Blood Bank,NA,Bellary,Bellary,Karnataka,15.1524155,76.9247396
"The District Surgeon, Mallegowda District Hospital Blood Bank",Chikkamagalurue,Chikkamagaluru,Chikkamagaluru,Karnataka,13.3142205,75.774592
Karnataka Medical College Hospital Blood Bank,IIIrd Floor #306,Hubli,Hubli,Karnataka,15.3669181,75.1281999
Adichunchanagiri Hospital and research centre,NA,NA,Mandya,Karnataka,12.9661166,76.7210376
Lions Blood Bank,"Bandikaman Road, Ward No.6, CTS No.168, Basement Ground and First Floor",Bijapur,Bijapur,Karnataka,16.8301708,75.710031
Hutti Gold Hospital,"Hutti Gold Mines Ltd., Raichur",Hutti,Raichur,Karnataka,16.1963979,76.6530275
Sri. Chamarajendra District Hospital Blood Bank,Hospital Road,Hassan,Hassan,Karnataka,13.0047884,76.1046134
Bapuji Hospital Blood Bank,C.C. Hospital Road,Davangere,Davangere,Karnataka,14.4553881,75.9157516
Rotary Campco Blood Bank,"Radhakrishna Building, Shree Radhadrishna Mandir Road",Puttur,Dakshina Kannada,Karnataka,12.7607063,75.1989484
M.R.Diagnostic Research Centre and Blood bank,"Sureka Towers, Traffic Island",Hubli,Hubli,Karnataka,15.3647083,75.1239548
The Karnataka Cancer Therapy and Research Institute Smt. Valbai N. Dharamsey Blood Bank,Navanagar,Hubli,Hubli,Karnataka,15.3647083,75.1239547
Holdsworth Memorial Mission Hospital Blood bank,Mandimohalla,Mysore,Mysore,Karnataka,12.3205957,76.6502381
District Surgeon District Hospital Blood Bank,District Hospital Premises,Mandya,Mandya,Karnataka,12.5221567,76.9009191
District Hospital Blood Bank,Chitradurga,Chitradurga,Chitradurga,Karnataka,14.2294663,76.4094652
Sharada Dhanavantari Charitable Hospital Blood Bank,S.D.C. Hospital,Sringeri,Chikkamagaluru,Karnataka,13.4289482,75.2542866
Jeeva Raksha Blood Bank,"Vokkaligara Hostel Building, Ist Floor, B.M.Road",Hassan,Hassan,Karnataka,13.0028433,76.1061723
VISL Hospital Blood Bank,NA,Bhadravati,Shimoga,Karnataka,13.8303397,75.6902754
City Hospital Research and Diagnostic Centre,"Pound Garden, Kadri",Mangalore,Dakshina Kannada,Karnataka,12.8796087,74.8531634
Shimoga Mid Town Rotary Charity Foundation,"Opposite Usha Nursing Home, 100 Ft.Road",Shimoga,Shimoga,Karnataka,13.9464099,75.5782214
Jeevanavars Blood Bank,"CTS No.104,11/15-B, Municipal No.20922/17-A, K.H.Jituri Hospital, Complex, II Floor, Gokul Road",Hubli,Hubli,Karnataka,15.3535867,75.1307085
"Rotary Club Dharwad Mid Town Charitable Trust, The Rotary Blood Bank","Lourdes Hospital, Kalageri Road",Dharwad,Dharwad,Karnataka,15.463547,75.000491
Dr.B.R.Ambedkar Medical College Hospital,"K.G.Halli, Bengaluru",Bengaluru,Bengaluru,Karnataka,13.0249126,77.6139634
"The District Surgeon, Wenlock District Hospital",Hampanakata,Mangalore,Dakshina Kannada,Karnataka,12.867383,74.843131
Hosmat Hospital Unit of Phisicare Services Pvt.Ltd,"No.45, Magrath Road, Off. Richmond Road",Bengaluru,Bengaluru,Karnataka,12.9691234,77.6133045
Holy Cross Hospital,Jyothi Nagar,Chikkamagaluru,Chikkamagaluru,Karnataka,13.338613,75.803534
District Hospital,NA,Karwar,Uttara Kannada,Karnataka,14.8171813,74.1294524
District Hospital,NA,Dharwad,Dharwad,Karnataka,15.4643027,75.0100769
District Hospital Blood Bank,NA,Udupi,Udupi,Karnataka,13.3340464,74.7421059
Grace Blood Bank and Laboratory,"2, 10th Cross, Ganganagar, Bengaluru",Bengaluru,Bengaluru,Karnataka,13.0229503,77.5848231
Sri Sathya Sai Institute of Higher Medical Sciences,"EPIP Area, Whitefield",Bengaluru,Bengaluru,Karnataka,12.9827661,77.7294999
Dr.B.N.M. Rural Ayurvedic Medical College and Hospital Blood Bank,"Smt.Sushiladevi Nagur Colony, College Road",Bijapur,Bijapur,Karnataka,16.8390727,75.7188382
Bassappa Memorial Hospital,"22/B, Vinoba Road, Jayalakshmipura",Mysore,Mysore,Karnataka,12.3208026,76.6200283
District Hospital,Madikeri,Madikeri,Kodagu,Karnataka,12.4185734,75.7426385
Bagalkot Blood Bank,"Hanagal Shree Kumareshwar Hospital and Research Centre, Ilkal Road",Bagalkot,Bagalkot,Karnataka,16.1861307,75.7065297
Navarang Blood Bank,"No.2953, Ist Floor, Near Navarang Circle, M.K.K.Road, Rajaginagar,",Bengaluru,Bengaluru,Karnataka,12.9985141,77.5539158
Smt. Vasantidevi Baldota Blood Bank,"Baldota Colony, Dam Road, Hospet",Hospet,Bellary,Karnataka,15.2597825,76.379402
Hubli Lions Blood Bank,"CTS No. 440, Ward No.1, Grand Floor, Vivekananda General Hospital Compound, Deshpande Nagar, Hubli",Hubli,NA,Karnataka,15.3551569,75.1404004
"Bangalore Lions Service Trust, Lions Blood Bank","Bhagwan Mahaveer Jain Hospital, Millers Road, Vasantha Nagar",Bengaluru,Bijapur,Karnataka,12.9915302,77.5956557
MDC Voluntary Blood Bank,"Khatha No. D5/1045/187, Alahalli Extension, General Hospital Road, Nehrunagar",Mandya,Mandya,Karnataka,12.5201597,76.8992007
B.G.S.Apollo Hospital,"Kantharaj Urs Road, Kuvempunagar",Mysore,Mysore,Karnataka,12.2956272,76.631999
Sri.Jayadeva Institute of Cardiology,"Gurappanapaly Post, Banneraghatta Road",Bengaluru,Bengaluru,Karnataka,12.9180165,77.5989637
The Uttara Kannada Blood Bank and Health Services Society,"London Mahal, Gujjar Galli",Kumta,North Kanara,Karnataka,14.4275482,74.4190929
Vydehi Institute of Medical Science Hospital,Bengaluru,Bengaluru,Bengaluru,Karnataka,12.9765897,77.7302684
Akshay Voluntary Blood Bank,"No. 968, 2nd Floor, 41st Cross, 3rd Block. Opp. E.S.I. Hospital, Rajajinagar",Bengaluru,Bengaluru,Karnataka,12.9898516,77.5528067
Davangere Blood Bank,"358, Mahaveera Complex, II Floor, 8th Main, 8th Cross, P.J. Extension",Davangere,Davangere,Karnataka,14.4592646,75.9151807
IMA Blood BANK,"Zendha Circle, Station Road",Gadag,Gadag,Karnataka,15.4361516,75.6376183
Yenapoya Medical College Blood Bank,"Nithyananda Nagar, Deralakatte",Mangalore,Mangalore,Karnataka,12.8122283,74.8805336
Vikram Hospital and Heart Centre,"346, Vivekananda Road, Yadagiri",Mysore,Mysore,Karnataka,12.3235121,76.6381533
Bowring and Lady Curzon Hospitals,"Shivaji Nagar, Bengaluru",Bengaluru,Bengaluru,Karnataka,12.9824441,77.6042906
Health Care Blood Bank,"3-400/401 A, Ist Floor, Taj Complex, Gazipura",Gulbarga,Kalaburagi,Karnataka,17.3362804,76.837022
"Kempegowda Medical Service Trust, Millennium Blood Bank","No.1082/9, Sreenivasa Prasanna Complex, Triveni Road, Yeshwanthpur, Bengaluru-",Bengaluru,Bengaluru,Karnataka,13.0195165,77.5578494
S.K. Voluntary Blood Bank,"14/1,I Floor , MESA Complex, Old Tolgate Bus Stop, Magadi Main Road",Bengaluru,Bengaluru,Karnataka,12.9742788,77.549463
Navodaya Medical College Hospital and Research Centre Blood Bank,Mantralaya Road,Raichur,Raichur,Karnataka,16.1856225,77.3672545
K.V.G Medical College Hospital Blood Bank,Kurinji Bag,Sullia,Dakshina Kannada,Karnataka,12.553408,75.38438
J.C. Voluntary Blood Bank,"Plot No. 5421, II Floor, Narasimha Building, Nisarga Layout, B.H. Road",Tumkur,Tumkur,Karnataka,13.3377782,77.1168103
Al-Ameen Medical College Hospital Blood Bank,NA,Bijapur,Bijapur,Karnataka,16.825044,75.6691587
Jeevadhara Blood Bank,"17, Meena Nursing Home, Madhava Nagar",Bhadravathi,Shimoga,Karnataka,13.8447366,75.7100326
GMET?S Dr. Goudars Blood Bank,"852, A1 & A2 Ward IX Ist Floor, Dr.Karigoudars Complex Godbolemala",Bijapur,Bijapur,Karnataka,16.8280803,75.7100342
Indira Gandhi Child Institute of Health,"South Hospital Complex, Dharamaram College Post",Bengaluru,Bengaluru,Karnataka,12.9373826,77.5920578
SDM College of Medical Sciences and Hospital Blood Bank,"First Floor B Wing Building, Sattur",Dharwad,Dharwad,Karnataka,15.41808,75.049197
Rajiv Gandhi Super Speciality Hospital Blood Bank,Hyderabad Road,Raichur,Raichur,Karnataka,16.2345379,77.3586175
B.V.V.Sanghas HSK Hospital Blood Bank,"Navanagar, Bagalkot",Bagalkot,Bagalkot,Karnataka,16.1861307,75.7065297
Rajarajeshwari Medical College Hospital,NA,Bengaluru,Bengaluru,Karnataka,12.8961554,77.4618516
Bapuji Educational Association S.S. Institute of Medical Sciences and Research Hospital,Bapuji Educational Association S.S. Institute of Medical Sciences and Research Hospital,Davangere,Davangere,Karnataka,14.4630074,75.9183218
Sri Shirdi Parthi Sai Charitable Hospital Blood Bank,"Sri Shirdi Parthi Sai Charitable Hospital Blood Bank, Bellary # K.H.B Colony, Gandhinagar Main Road",Bellary,Bellary,Karnataka,19.7668633,74.4772614
Sanjeevini Trust ? Jayanagar Voluntary Blood Bank,"1897/A, Cellar Floor, Gulora, 26th Main Road, Sount End ?C? Cross Road, 9th Block, Jayanagar",Bengaluru,Bengaluru,Karnataka,12.9163194,77.5949426
BEML Medical Centre Bharat Earth Movers Limited,Kolar Gold Fields,Kolar,Kolar,Karnataka,12.9728947,78.2427733
SJM Blood Bank Basaveshwara Medical College Hospital and Research Centre,"NH-4, By Pass, Near KHB Colony",Chitradurga,Chitradurga,Karnataka,14.2232362,76.4143669
Railway Hospital Blood Bank,Yadigiri,Yadigiri,Mysore,Karnataka,12.31615,76.6509448
Sri Vinayaka Charitable Trust? Jeeva Voluntary Blood Bank,"No. 23 and 84, Sharoff Basappa Commercial Complex, 2nd Main, Ist Cross, New Tharugpet",Bengaluru,Bengaluru,Karnataka,12.9626067,77.5726884
MVJ Medical College and Research Hospital,"Dandupalya, Kolathur Post, NH-4",Hosakote,Bangalore Rural,Karnataka,13.0760103,77.8099984
District Hospital Blood Bank,NA,Haveri,Haveri,Karnataka,14.7865271,75.4048069
"Indian Red Cross Society, Karnataka Red Cross Blood Bank","Red Cross Bhavan, 326, Ist Floor, Race Course Road, Bengaluru",Bengaluru,Bengaluru,Karnataka,12.9841932,77.5786364
Apollo Hospitals a unit of Imperial Cancer Hospital and Research Centre Limited,"154/11, Opp.I.I.M Bannerghatta Road",Bengaluru,Bengaluru,Karnataka,12.8962518,77.598289
Vijaya Hospitals Sanjeevini Blood Bank,"10054/A, 4511/A, 3rd Main Road",Tumkur,Tumkur,Karnataka,13.3344802,77.1178348
Vijayanagar Hospital Blood Bank,"No. 27, 17th Cross, M.C. Layout, Vijayanagar",Bengaluru,Bengaluru,Karnataka,12.9697634,77.5367248
"Harsha Hospital Blood Bank, Harsha Hospital","No. 193/4, Byraveshwaranagar, Sondekoppa Circle, N.H.4, Bangalore",Nelamangala,Bangalore Rural,Karnataka,13.0907159,77.3961664
Rotary Charitable Trust Blood Bank,"New Extension Area, Nippani",Chikkodi,Belgaum,Karnataka,16.4070152,74.3763415
Bangalore Institute of Oncology,"No. 8, P. Kalinga Rao Road, Sampangiram Nagar",Bengaluru,Bengaluru,Karnataka,12.963575,77.5895097
Swamy Vivekananda Charitable Blood Bank,"D.No.130, Near TVS Show Room, Parvathinagar Main Road",Bellary,Bellary,Karnataka,15.1524155,76.9247396
Ocean Blood Bank,"No. 133-134, K.P. Broadway Road, Shivajinagar",Bengaluru,Bengaluru,Karnataka,12.9886671,77.6026782
Mounesh Hospitals The Jamkhandi Blood Bank,"Near P.B. High School, Uma Rameshwar Road",Jamkhandi,Bagalkot,Karnataka,16.5061788,75.2886978
District Hospital,Navanagar,Bagalkot,Bagalkot,Karnataka,16.1648681,75.661113
Vasavi Blood Bank,"Khata No. 4895/4720, Assessment No. 11479/13, B.L. Gowda Layout, Thurunur Road",Chitradurga,Chitradurga,Karnataka,14.2294663,76.4094652
Rotary Seva Sanghs Dr. B.C. Ajari Memorial The Rotary Blood Bank,"R.S.No. 211/B, Plot No. 14C, Yogikolla Road",Gokak,Belgaum,Karnataka,16.1533678,74.7903192
Rotary K.R. Hospital Blood Bank,"No. 75, Hanumanthanagar, 50 Ft. Road, Bengaluru",Bengaluru,Bengaluru,Karnataka,12.9717981,77.656687
Mahaveer Blood Bank,"4th floor, Radio Complex, CTS No. 116/1A, Shivaji Road",Belgaum,Belgaum,Karnataka,15.8553049,74.5112636
Blood Bank,"Jyothi Hospital, Laila",Belthangady,Dakshina Kannada,Karnataka,12.9913681,75.2883965
Rotary Tumkur Central Belli Blood Bank,"Khata No. 308/A, 321/A & 303/A/321, Ward No. 13, Gandhinagar",Tumkur,Tumkur,Karnataka,13.3381368,77.0984751
Veerayoga Institute of Medical Sciences Speciality Hospitals,"No. 88, Marathhalli, Outer Ring Road",Bengaluru,Bengaluru,Karnataka,12.9483018,77.6994652
Rotary Mysore Chandrakala Hospital Blood Bank,"Chandrakala Hospital and Institute of Medical Research, Plot A, Kalidasa Road, Jayalakshmipuram",Mysore,Mysore,Karnataka,12.3257038,76.6196686
BGS Global Hospitals,"No. 67, Uttarahalli Road",Kengeri,Bengaluru,Karnataka,12.902994,77.4974865
Sri Shakti Blood Bank,"Badarli Venkat Rao Gouda Health Care Association, Venkateshwara Tourist Home, Sukalapeta Road",Sindhanur,Raichur,Karnataka,15.7741117,76.9045215
"Shripad Hegde Kadave Institute of Medical Sciences, T.S.S. Hospital",NA,Sirsi,Uttara Kannada,Karnataka,14.6322475,74.8484578
Indian Red Cross Soceity Blood Bank,Devraj Urs Layout,Davangere,Davangere,Karnataka,13.9384793,75.5775006
"K.L.E.Societys , Dr. Kamal hospital and Medical Research Centre",Dr. B.R. Ambedkar Circle,Mangalore,Mangalore,Karnataka,13.0374171,77.6927978
Narayana Hrudayalaya,"University Medical Centre, (KMC) Hospital",Anekal Taluk,Bengaluru,Karnataka,12.8069375,77.6948538
Gopi Blood Bank,Dr. B.R. Ambedkar Circle,Koppal,Koppal,Karnataka,15.3430678,76.1551979
A.J.Hsopital and Research centre,Kuntikana,Mangalore,Dakshina Kannada,Karnataka,12.899478,74.8459759
Holy Cross Hospital,"Kamagere , Kolegala Taluk, Chamaraja Nagara",Shimoga,Shimoga,Karnataka,12.1293793,77.2335864
Columbia Asia referral Hospital,Yeshwanthpur,Bangalore,Bangalore,Karnataka,13.0141759,77.5559485
Sha Damji Jadavji Chheda Memorial Rashtrotthana Blood Bank,"2nd floor Dee Jay building, Neeligin Road",Hubli,Hubli,Karnataka,15.3547264,75.1363335
"Sagar Blood bank, Sagar Hospitals, (Unit of sagr Health care and Diagnostic Services Pvt. Ltd.)","Sy. No.53, Shavige Malleshwara Hills, Kumar Swmay Layout, Banashankari",Bangalore,Bangalore,Karnataka,12.9281256,77.5996958
Kasturba Hospital Blood Bank,"Site.No.55/2, Shivalli Village, Manipal- Udupi",Manipal,Udupi,Karnataka,13.3538286,74.7900922
Fortis Hospital Pvt. Ltd.,Bannerghatta Road,Bangalore,Bangalore,Karnataka,12.8948227,77.5986196
Life Line 24x7 Blood bank,Hubli,Hubli,Hubli,Karnataka,15.351203,75.1167666
Fortis Hospital Pvt. Ltd.,Cunningham Road,Bangalore,Bangalore,Karnataka,12.9883322,77.5943986
"KMC, University Medical Centre",Dr.B.R.Ambedkar Circle,Mangalore,Dakshina Kannada,Karnataka,12.8721648,74.848842
Red Cross Sanjeevini Blood Bank,"Ist Floor, ?Kshiti Complex? JPN Road",Shivamogga,Shimoga,Karnataka,13.9338914,75.5718961
Sagar Hospital,"44/54, 30th Cross, Tilak Nagar, Jayangar Extension",Bangalore,Bangalore,Karnataka,12.9281256,77.5996958
Manipal Hospital Transfusion Services,"No.98, Rustombagh Airport Road",Bangalore,Bangalore,Karnataka,12.9590146,77.6491638
Yashomathi Medicare and Research Centre (P) Ltd.,"2371/3, HAL Airport, Varthur Main Road, Munne Kolala, Marathahalli Post",Bangalore,Bangalore,Karnataka,12.9556823,77.7112521
Srinivasa Institute of Medical Sciences and Research Centre,"Mukka,Surathkal",Mangalore,Dakshina Kannada,Karnataka,13.0221614,74.7931161
"Tejasvini Hospital, Lions Blood Bank, Tejasvini Hospital",Kadri Temple Road,Mangalore,Dakshina Kannada,Karnataka,12.8802774,74.8537239
Manjunath Orthoaedic and Trauma Centre Hospital Blood bank,K.R.Puram,NA,NA,Karnataka,13.0040167,77.6877765
Indian Red Cross Society,"District Family Welfare Office, 2nd floor, B.B.Road",Chikkaballapur,Chikkaballapur,Karnataka,13.438042,77.7292921
Subbaiah Medical College Blood bank,"NH-13, Purle, Hjolehonnur, Road",Shimoga,Shimoga,Karnataka,13.932933,75.617172
Life Care Voluntary Blood Bank,"No.126, 7th Block, Jayanagar, Opp.Jayanagar, Police Station",Bangalore,Bangalore,Karnataka,12.9163194,77.5949426
Vikarm Hospital Blood Bank,"Vikarm Hospital, No.D5/271/219B &D5/272/1220, 3rd cross, Ashoka Nagar",Mandya,Mandya,Karnataka,12.9881919,77.5921691
Jeevadhara Voluntary Blood Bank (Aunit of Cauvery Social Services Trust),"No.1475, 2nd floor & 3rd floor mission Hospital Road, Mandhi Mohalla",Mysore,Mysore,Karnataka,12.31615,76.6509448
"Karnataka Hemophillia Society, Life Line Blood Bank","No.1138, Ring Road, S.Nijalingappa Layout, Behind KSFC Building",Davangere,Davangere,Karnataka,14.457877,75.9028116
Hajji Sir Ismail Sati Gosh Hospital,Shivaji Nagar,Bangalore,Bangalore,Karnataka,12.9840257,77.5991672
"Nuveen Medical Relief and research Foundation, St.Josephs Hospital Blood Bank","331/1, L176/2, Bannimantap",Mysore,Mysore,Karnataka,12.3125416,76.649595
R.L.Jalappa Hospital and Research Centre,Tamaka,Kolar,Kolar,Karnataka,13.1325673,78.1730173
Cauvery Hospital Blood Bank,"No.42/2B, 2C, Trresoam College Circle, Siddarth Nagar",Mysore,Mysore,Karnataka,12.30509,76.6958148
Indian Red Cross Society,"Dakshina Kannada District Branch, &#34;Red Cross Bhavan, Lady Goshen Hospital, Behind D.C. Office",Mangalore,Mangalore,Karnataka,12.8563032,74.8360918
The Oxford Medical College Hospital Blood Bank and Research Centre,"Yadavanahalli, Attibele (Hobli), Anekal Taluk",Bangalore,Bangalore,Karnataka,12.7873635,77.7576135
"Ramanagoudar Hospital Blood Bank, Ramanaouda Hospital","2nd floor, CTS, No.4042/B17, Near Kathi Kalyan Mantap",Mudhol,NA,Karnataka,16.3333105,75.2858208
Kamakshi Hospital Blood Bank,"1st floor, New Building of Kamakshi Hospital premises, Kuvempnagar Mysore",Mysore,Mysore,Karnataka,12.2998285,76.6237351
Nitte University Blood Bank,"Justice K.S. Hegde Charitable Hospital, Deraalatte",Mangalore,Mangalore,Karnataka,12.8096253,74.8835528
Sakra worl Hospital (A Unit of Takshasila Hospitals Operating Private Limited),"S.No. 52/2 & 52/3, Devarabeesanahalli, Varthur Hobli, Bellandur Post",Bangalore,Bangalore,Karnataka,12.9323275,77.6851886
Chiranjeevi Blood Bank,"Near Vijayanagara Colony, 100 Bed Hospital Road, Amaravathi",Hospet,Bellary,Karnataka,15.2734817,76.3783569
"Sri Shridevi Charitable Trust ?, Research Hospital","NH-4, Tumkur",Tumkur,Tumkur,Karnataka,13.3760208,77.0947079
Dr.Rajkumar (Appaji) Blood Bank,"No.18, Krishi Bhavan, 2nd floor, Hudson Circle",Bangalore,Bangalore,Karnataka,12.9679983,77.5879718
Sri. Shankara Cancer Hospital and Research Centre,"Shankara Math premises, 1st cross, shankarapuram, Basavanagudi",Bangalore,Bangalore,Karnataka,12.9541428,77.5716157
"Narayana Hrudayalaya, Surgical Hospital Pvt. Ltd","CAH-1, 3rd Phase, Devanur",Mysore,Mysore,Karnataka,12.3452406,76.6730408
Raichur Institute of Medical Sciences Teaching Hospital (RIMS),NA,Raichur,Raichur,Karnataka,16.2300437,77.3590412
Mediscope Blood Bank,"Mediscope Hospital, No.11, Pillanna Garden, 3rd stage",Bangalore,Bangalore,Karnataka,13.0111753,77.6162312
Akash Institute of Medical Sciences and Research Centre Blood Bank,"Akash Institute of Medical Sciences and Research Centre, Sy. No. 70/1, Prasannahalli, Devanahalli Taluk",Taluk,Bangalore Rural,Karnataka,13.2328842,77.7098782
"J.S.S. Hospital Blood Bank, JSS Hospital",NA,Mysore,Mysore,Karnataka,12.2959407,76.6558629
"Indian Red Cross Koppal District, Branch","1st floor, New District Hospital Hospital Road, Koppal",Koppal,Koppal,Karnataka,15.3477134,76.1780338
"B. Shivaji Raes Blood Bank, (A Unit of Sri Marathi Charitable and Educational Trust ( R)","No.26, 3rd floor, SGRR Complex, 1st cross, Rajaram Mohan Roy Road, Sampangirama Nagar, Bangalore",Bangalore,Bengaluru,Karnataka,12.9678108,77.5933041
"Rastrothana Parishath Blood Bank, Bangalore","Rashtrothana Blood Bank, No 93 /2, Kempegowda nagar, Keshava Silpa",Bangalore,Bangalore,Karnataka,12.95468,77.5654178
"K. R. Hospital, Blood Bank",Sayyaji Rao Road,Mysore,Mysore,Karnataka,12.3125416,76.649595
"District Hospital, Blood Bank",NA,Raichur,Raichur,Karnataka,16.211261,77.35088
"District Hospital, Blood Bank",NA,Madikeri,Kodagu,Karnataka,12.4244205,75.7381856
Sharada Dhanvantari Charitabable Hospital Blood Bank,NA,Chikkamagaluru,Sringeri,Karnataka,13.4289482,75.2542866
"General Hospital, Blood Bank",NA,Puttur,Dakshina Kannada,Karnataka,12.7607063,75.1989484
Davangere Blood Bank,"Mahaveera Complex, II Floor, Behind Mothi Verappa College, 8th Main, 8th Cross, P.J.Extension",Davangere,Davangere,Karnataka,14.4587519,75.9143988
Pandit General Hospital Blood Bank,NA,Karwar,Uttara Kannada,Karnataka,14.6154546,74.8300032
Khaja Banda Nawaz Teaching and General Hospital,"Khaja Nagri, Station Main Road",Gulbarga,Gulbarga,Karnataka,17.326047,76.8338151
Pandit General Hospital,Mangalore,Uttara Kannada,Uttara Kannada,Karnataka,14.6154546,74.8300032
Sapthagiri Hospital Blood Bank,"No.15, Chikkasandra, Hesaraghatta Main Road",Bangalore,Bangalore,Karnataka,13.0706389,77.5024795
Kerala State Co-operative Hospital Complex and Centre for Advanced Medical Services Ltd.,No 4386,Pariyaram,Kannur,Kerala,12.0731501,75.291653
Cannannore Co-Op Hospital Society,Talap,Kannur,Kannur,Kerala,11.8851516,75.3730455
Tellichery Co-Op Hospital,NA,Thalassery,Kannur,Kerala,11.7639271,75.4796375
The Payyannur Co-operative Hospital Society Ltd.,No.C.1487 South Bazar,Payyannur,Kannur,Kerala,12.1060209,75.2100101
Badagara sahakarana Asupathri Ltd.,NA,Vatakara,Kozhikode,Kerala,11.5895026,75.5953424
Kozhikode District Co - Operative Hospital,Eranhipalam,Eranhipalam,Kozhikode,Kerala,11.2769449,75.7849829
District Hospital,NA,Alappuzha,Alappuzha,Kerala,9.4907121,76.3402018
"Medical College Hospital Blood Bank, Alappuzha (T D Medical College",Vandanam,Vandanam,Alappuzha,Kerala,9.4081174,76.347421
General Hospital,NA,Ernakulam,Ernakulam,Kerala,9.9720244,76.2815409
INHS Sanjeevini Naval Base,NA,Ernakulam,Ernakulam,Kerala,9.9468411,76.2826624
"Regional Blood Transfusion Centre, District Hospital",NA,Alwaye,Ernakulam,Kerala,10.1051674,76.3549671
District Hospital Blood Bank,NA,Pynavu,Idukki,Kerala,9.8583987,76.9527836
District Hospital,NA,Kannur,Kannur,Kerala,11.8607699,75.3717581
General Hospital,NA,Thalassery,Kannur,Kerala,11.7475648,75.4873129
"Community Health Centre (T.H.Q) ,General Hospital Blood Bank",NA,Kasaragod,Kasaragod,Kerala,12.5031927,74.9912757
District Hospital Blood Bank,NA,Kanhangad,Kasaragod,Kerala,12.3148509,75.1052018
District Hospital,NA,Kollam,Kollam,Kerala,8.8877988,76.5847394
Govt Hospital,NA,Punalur,Kollam,Kerala,9.0191721,76.9247166
Head Quarters Hospital,NA,Kottakkara,Kollam,Kerala,9.0042848,76.7755801
District Hospital,NA,Kottayam,Kottayam,Kerala,9.5900634,76.5260191
Medical College Hospital Blood Bank,NA,Kottayam,Kottayam,Kerala,9.590075,76.5256733
Government General Hospital,NA,Kozhikode,Kozhikode,Kerala,11.2651883,75.7756796
Government Woman and child Hospital,NA,Kottapparamba,Kozhikode,Kerala,11.2506314,75.782995
Medical College Hospital Blood Bank,NA,Kozhikode,Kozhikode,Kerala,11.272211,75.8371979
District Hospital Blood Bank,NA,Manjeri,Malappuram,Kerala,11.1163243,76.1206174
"Govt Hospital, (Taluk Head Quarters Hospital)",NA,Perinthanmanna,Malappuram,Kerala,10.9742556,76.2319422
Taluk Head Quarters Hospital,NA,Thirur,Malappuram,Kerala,10.9117447,75.9220974
District Hospital,NA,Palakkad,Palakkad,Kerala,10.7683413,76.6579919
General Hospital,NA,Pathananthitta,Pathananthitta,Kerala,9.2661427,76.7816955
General Hospital,NA,Thiruvananthapuram,Thiruvananthapuram,Kerala,8.4954444,76.9412413
"Medical College Hospital, Blood Bank",NA,Thiruvananthapuram,Thiruvananthapuram,Kerala,8.5214231,76.9261827
"Regional Cancer Centre, Medical College Campus","Regional Cancer Center, Medical College Campus",Thiruvananthapuram,Thiruvananthapuram,Kerala,8.5208616,76.9247594
Sri ChithiraThirunal Institute of Medical Science & Technology,NA,Thiruvananthapuram,Thiruvananthapuram,Kerala,8.5216655,76.9264027
Taluk Head Quarter Hospital,NA,Chiryinkil,Thiruvananthapuram,Kerala,8.4862646,76.9408406
"Women & Children Hospital, Thycaud",NA,Thiruvananthapuram,Thiruvananthapuram,Kerala,8.487383,76.956906
"District Hospital, Round Easr, Thrissur",NA,Thrissur,Thrissur,Kerala,10.5240674,76.2168131
"Medical College Hospital, Mulangunnathukavu,Thrissur",NA,Peringandoor,Thrissur,Kerala,10.6141042,76.1955946
District Hospital,NA,Manathavadi,Wayanad,Kerala,11.8006338,76.0019246
Government T.H.Q. Hospital,NA,Sulthan Bathery,Wayanad,Kerala,11.6625433,76.2574163
Kannur Medical college and Hospital (Prestige edu Trust),NA,Anjarakandy,Kannur,Kerala,11.8758311,75.499217
Centuary Hospital,NA,"Chenganoor,",Alappuzha,Kerala,9.3048957,76.6354511
"K.V.M.Hospital,Cherthala",NA,Alappuzha,Alappuzha,Kerala,9.6670429,76.339428
Sacred Heart Hospital,Green Garden,Cherthala,Alappuzha,Kerala,9.6617877,76.3389238
V S M Hospital Blood Bank,"Building No XIV/368, Thattarambalam","Mavelikkara,",Alappuzha,Kerala,9.2479095,76.5207366
Central Travancore Specialist Ltd.,NA,Cehgannur,Alappuzha,Kerala,9.3183275,76.6110845
Devamatha Hospital,NA,Koothattukulam,Alappuzha,Kerala,9.8660338,76.5950536
IMA Voluntary Donor BB,T.D Road,Ernakulam,Alappuzha,Kerala,9.9706252,76.2830533
Lakeshore Hospital&Research Centre Ltd,NA,Maradu,Alappuzha,Kerala,9.919089,76.319084
Lisie Hospital,Lisie Medical Institution,Ernakulam,Alappuzha,Kerala,9.9881388,76.2877992
Little Flower Hospital,M.G.Road,Angamaly,Alappuzha,Kerala,10.1910111,76.3893681
Lourdes Hospital,"Pachalam,",Pachalam,Alappuzha,Kerala,10.0067421,76.2773679
Malankara Orthodox Syrian Church Medical Mission Hospital,NA,Ernakulam,Alappuzha,Kerala,9.9820731,76.4761
Mar Baselius Medical Mission Hospital,NA,Kothamangalam,Alappuzha,Kerala,10.0645629,76.6223424
"Medical Trust Hospital, M.G.Road",NA,Kakkanad,Alappuzha,Kerala,9.964171,76.28792
Nirmala Medical Center,NA,Moovattupuzha,Alappuzha,Kerala,9.9819371,76.5849423
P.V.S. Memorial Hospital Ltd,NA,Kallor,Alappuzha,Kerala,9.993364,76.291374
Samaritan Hospital,NA,Kizhakkambalam,Alappuzha,Kerala,10.0442859,76.3972404
Sanjoe Hospital,NA,Perumbavoor,Alappuzha,Kerala,10.1149652,76.4814187
St Joseph Hospital,NA,Kothamangalam,Alappuzha,Kerala,10.0649695,76.6267404
Sree Narayana Institute of Medical Sciences,Chalakka,North Kuthyathode,Alappuzha,Kerala,10.1563404,76.2821922
"Amritha Institute of Medical Sciences, Research Centre",NA,Ernakulam,Alappuzha,Kerala,10.0328923,76.293442
Carmel Hospital,Ashokapuram,Alwaye,Alappuzha,Kerala,10.0904883,76.3619146
Sunrise Institute of Medical Sciences( P) Ltd.,"Sea Port Air Port Road,",Kochi,Alappuzha,Kerala,10.02554,76.338871
"Aster Medicity, Aster DM Healthcare Private Limited","IX/475 L, Kuttysahib Road, Near Kothad Bridge, South Chittoor","Cheranalloor,",Alappuzha,Kerala,10.0434923,76.2780195
Alphonsa Hospital,NA,Murikkassery,Alappuzha,Kerala,9.9134661,77.0092152
Holy Family Hospital,Muthalakodam,Thodupuzha,Idduki,Kerala,9.9123074,76.7334338
I.M.A.Blood Bank Society,NA,Thodupuzha,Idduki,Kerala,9.8941133,76.7089462
"M.M.T.Hospital, , (Mundakkayam Medical Trust Hospital)",NA,Mundakayam,Alappuzha,Kerala,9.5353268,76.9089401
Morning Star Medical Centre,NA,Adimali,Alappuzha,Kerala,10.0118522,76.9582442
St Johns Hospital,NA,Kattappana,Alappuzha,Kerala,9.7469722,77.1097935
"Tata Tea Limited, General Hospital",NA,NA,NA,Kerala,10.0885113,77.0565068
Malabar Cancer Centre Society,NA,Moozhikkara,Kannur,Kerala,11.8773122,75.3727482
Sara Memorial Medical laboratory & Blood Bank,Fort Road,NA,NA,Kerala,11.8659288,75.3670947
St.Martin De Porres Hospital,NA,Cherukunnu,Kannur,Kerala,11.9946022,75.3132182
Medical diagnostic Centre,NA,Kanhangad,Kasaragod,Kerala,12.3194505,75.0859067
Bishop Benziger Hospital,Beach Road,Kollam,Kollam,Kerala,8.8813749,76.5930356
Holy Cross Hospital,NA,Kottiyam,Kollam,Kerala,8.8616392,76.6734037
I.M.A.Blood Bank,"Ist Floor,IMA Centre, Ashramam",Kollam,Kollam,Kerala,8.8959396,76.5931861
S.N.Trust Medical Mission Sankar Memorial Hospital,NA,Kollam,Kollam,Kerala,8.8892024,76.5982141
St Joseph Hospital,NA,Anchal.,Kollam,Kerala,8.928999,76.9180329
St Joseph Hospital,Anchal.P.O,Pathanapuram,Kollam,Kerala,8.928999,76.9180329
"Quilon Medical Trust, Kollam",NA,Mylapore,Kollam,Kerala,8.8758389,76.6439536
Upasana Hospital,"Cantonment, North Ward",Kollam,Kollam,Kerala,8.8883153,76.5967253
"Azeezia Medical College, Blood Bank",NA,Meeyannoor,Kollam,Kerala,8.889581,76.7370357
Benziger Hospital Blood Bank,"Bishop Benziger Hospital, Beach Road",Kollam,Kollam,Kerala,8.8813749,76.5930356
Padmavathy Medical Foundation,NA,Manakkara,Kollam,Kerala,9.0531676,76.6335316
Caritas Hospital,NA,Thellakom,Kottayam,Kerala,9.6451947,76.5502024
Carmel Medical Centre,NA,Pala,Kottayam,Kerala,9.7137531,76.6829278
Holy Ghost Mission Hospital,NA,Muttuchira,Kottayam,Kerala,9.7572188,76.4997282
"Indo American Hospital, Brain&Spine Centre",Chemmanakari,Vaikom,Kottayam,Kerala,9.791175,76.377085
Little Lourde Mission Hospital,NA,Kidangoor,Kottayam,Kerala,9.683589,76.61222
Mar Gee Varghese Dionysius Memorial Muthoot Hospital,NA,NA,NA,Kerala,10.8505159,76.2710833
Mar Gregorious Diocese Memorial Muthoot Hospital,NA,Devagiri,Kozhikode,Kerala,11.2656401,75.8366908
Marian Medical Centre,Arunapuram,Palai,Kottayam,Kerala,9.7065051,76.6626091
Mary Queens Mission Hospital,NA,Kanjirappally,Kottayam,Kerala,9.5580678,76.8137857
MUM Hospital Blood Bank,NA,Monippally,Kottayam,Kerala,9.8106451,76.5768471
Rotary Blood Bank,Mangad Building,NA,Kottayam,Kerala,9.593202,76.521811
S.H.Medical Centre,NA,Nagampadam,Kottayam,Kerala,9.5943064,76.5294945
Immaculate Heart of Mary Hospital Blood Bank,"Bharanganam, Palai",Bharanganam,Kottayam,Kerala,9.7034638,76.7203877
St Thomas Hospital,Chettipuzha,Kurisumudu,Kottayam,Kerala,9.4623138,76.5520725
Baby Memorial Hospital,Indira Gandhi Road,Kozhikode,Kozhikode,Kerala,11.2594954,75.7922728
Fathima Hospital,Bank road,Kozhikode,Kozhikode,Kerala,11.2619364,75.7801598
IQRAA Hospital Blood Bank,NA,Malaparamba,Kozhikode,Kerala,11.2862644,75.7973336
K M C T Hospital Blood Bank,NA,Kozhikode,Kozhikode,Kerala,11.326152,75.9709097
Malabar Institute Of Medical Sciences,NA,Kozhikode,Kozhikode,Kerala,11.245785,75.798546
MMC Hospital Blood Bank,Modakkallur,Atholi,Kozhikode,Kerala,11.4334478,75.7750658
National Hospital,NA,Kozhikode,Kozhikode,Kerala,11.2595096,75.7812429
Nirmala Hospital,NA,Marrikunnu,Kozhikode,Kerala,11.2921508,75.8243878
P.V.S.Hospital (P) Ltd,NA,NA,NA,Kerala,11.2435823,75.7823727
St. Joseph Hospital Blood Bank,Agastianmoozhi,Mukkom,Kozhikode,Kerala,11.330995,75.9858629
Santhi Hospital Blood Bank,NA,Omassery,Kozhikode,Kerala,11.3626701,75.9646121
Metro International Caqrdiac Centre,"Building No. 03/1020 A-M, Basement Floor (B1), Thondayad Bypass Road, Guruvayoor Appan College",Calicut,Kozhikode,Kerala,11.254661,75.7919986
Al-Shifa Hospital pvt Ltd.,NA,Perintalmanna,Malappuram,Kerala,10.9847854,76.2239767
Edappal Hospital (P) Ltd,NA,Edappal,Malappuram,Kerala,10.7823799,76.0108476
Korambayil Hospital Blood Bank,NA,Manjeri,Malappuram,Kerala,11.122846,76.125814
Orchid Institute of Health Care & Research Pvt. Ltd,Down Hill,Malappuram,Malappuram,Kerala,11.0515021,76.0697399
"Malabar Institute of Medical Sciences Blood Bank, Malappuram",NA,Kottakkal,Malappuram,Kerala,10.996047,75.9942065
M.E..S Medical College Blood Bank,NA,Perinthalmanna,Malappuram,Kerala,10.9561652,76.1762221
"Almas Hospital Blood Bank, Chankuvatty",NA,Kottakkal,Malappuram,Kerala,10.9996,75.9910416
Sree Valsam Institute of Medical Sciences,"Naduvattam, Kololamba",Edappal,Malappuram,Kerala,10.7653386,76.0073341
Karuna Medical Collage Hospital Blood Bank,"IV/931, Vilayodi, Chittur",Alathur,Palakkad,Kerala,10.6791761,76.7753168
Mother Care Hospital Blood Bank,Vattambalam,Mannarkad,Palakkad,Kerala,10.9834371,76.423226
Palakkad Blood Bank,"5/373, I Floor, Soorya Enclave, Opposite Palat Hospital, Civil Station Road,",Palakkad,Palakkad,Kerala,10.7618157,76.6545371
Valluvanad Hospital Blood Bank,NA,Ottapalam,Palakkad,Kerala,10.7746261,76.3605481
"Archana hospital blood bank, Pandalam",NA,Pandalam,Alappuzha,Kerala,9.2198015,76.6794218
Chithra Hospital,NA,Pandalam,Alappuzha,Kerala,9.2139006,76.6847224
Holy Cross Hospital,Adoor,Adoor,Pathanamthitta,Kerala,9.1616791,76.724261
Knanaya Medical Mission Hospital,NA,Ranni,Pathanamthitta,Kerala,9.3847519,76.7803359
Mar Gregorious Memorial Muthoot Medical Centre,NA,Kozhencherry,Pathanamthitta,Kerala,9.2581857,76.7872801
Menathottam Hospital,"Angadi, Ranni",Ranni,Pathanamthitta,Kerala,9.3819627,76.7742393
Pushpagiri Hospital,NA,Thiruvalla,Pathanamthitta,Kerala,9.3818529,76.5802207
Thiruvalla Medical Mission Hospital,NA,Thiruvalla,Pathanamthitta,Kerala,9.393864,76.5783102
Fellowship Mission Hospital Blood Bank,NA,Kumbanad,Pathanamthitta,Kerala,9.3713559,76.6560167
Lifeline Suoer Speciality Hospital,"Building No XII/804 J, 14th Mile, Melood",Adoor,Pathanamthitta,Kerala,9.1634556,76.7063254
Ananthapuri Hospital and Research Institute Blood Bank,NA,Thiruvananthapuram,Thiruvananthapuram,Kerala,8.4863805,76.9270122
Cosmopolitan hospitals(pvt) Ltd,NA,Thiruvananthapuram,Thiruvananthapuram,Kerala,8.5157477,76.935768
Dr.Somervel CSI Mission Hospital,NA,Karakkonam,Thiruvananthapuram,Kerala,8.3906043,77.1686473
"Kerala Institute of Medical Sciences,Anayara, Thiruvananthapuram",NA,Thiruvananthapuram,Thiruvananthapuram,Kerala,8.5137118,76.9093451
Nims Hospital Blood Bank,Aralumoodu,Neyyattinkara,Thiruvananthapuram,Kerala,8.4122542,77.0663388
P.N.M.Hospital,NA,Kattakkada,Thiruvananthapuram,Kerala,8.50496,77.074982
PRS Hospital Private Limited,Killipalam,Thiruvananthapuram,Thiruvananthapuram,Kerala,8.4809686,76.9591566
Sivagiri SreeNarayana Medical Mission,NA,Thiruvananthapuram,Thiruvananthapuram,Kerala,8.760219,76.7394237
Sree Uthradam Thirunal Hospital,Pattom,Thiruvananthapuram,Thiruvananthapuram,Kerala,8.516323,76.94036
Superior Blood Bank,"Gandhari Amman Koil Street,",Thiruvananthapuram,Thiruvananthapuram,Kerala,8.4935647,76.9494083
S U T Royal Hospital,Kochullur,Trivandrum,Thiruvananthapuram,Kerala,8.5295313,76.9290151
Amala Cancer Hospital& Research Centre,NA,Amalanagar,Thrissur,Kerala,10.5600471,76.168866
Aswini Hospital Pvt Ltd,Karunakaran Nambiar Road,Thrissur,Thrissur,Kerala,10.534769,76.214143
Bishop Alappat Mission Hospital,NA,Thrissur,Thrissur,Kerala,10.3951679,76.1646448
Elite Mission Hospital,NA,Koorkencherry,Thrissur,Kerala,10.50237,76.21108
I.M.A Blood Bank Complex and Research Centre,NA,Ramavarmapuram,Thrissur,Kerala,10.5597508,76.2267863
Jubilee Mission Hospital,NA,Thrissur,Thrissur,Kerala,10.5208483,76.226095
Malankara Orthodox Syrian Church Medical Mission Hospital,NA,Thrissur,Thrissur,Kerala,10.5192638,76.2144586
Maria Theresa Hospital,NA,Kuzhikkattusery,Thrissur,Kerala,10.2892401,76.2772953
"Mary Immaculate Mission Hospital,",NA,Engandiyur,Thrissur,Kerala,10.5085088,76.0576854
Mother Hospital,NA,Pullazhi,Thrissur,Kerala,10.519494,76.1852598
Royal Hospital,F,Kunnamkulam,Thrissur,Kerala,10.6458845,76.0673858
Sacred Heart Mission Hospital,NA,Pullur,Thrissur,Kerala,10.3450995,76.2345456
St Josephs Hospital,NA,Choondal,Thrissur,Kerala,10.6170431,76.0949162
Thrichur Heart Hospital Ltd,NA,Thrissur,Thrissur,Kerala,10.512612,76.214572
Thrissur Metropolital Health Care ( P) Ltd,NA,NA,NA,Kerala,10.5104051,76.2103405
Unity Hospital (P) Ltd,NA,Kunnamkulam,Thrissur,Kerala,10.6354586,76.0817737
West Fort Hitech Hospital,NA,Punkunnam,Thrissur,Kerala,10.5362878,76.1971161
"West Fort Hospital, Thrissur",NA,Thrissur,Thrissur,Kerala,10.524218,76.201819
St James Hospital,NA,Chalakkudy,Thrissur,Kerala,10.3151438,76.335548
Sree Gokulam Medical College & Research Foundation,NA,Venjaramoodu,Thiruvananthapuram,Kerala,8.6927545,76.9146744
Century Hospital,NA,Mulakuzha,Allapuzha,Kerala,9.3048957,76.6354511
Immaculate Heart Of Mary Hospital,NA,"Bharananganam,",Kottayam,Kerala,9.7034591,76.7203959
Velankanni Matha Hospital Pvt. Ltd.,Building No X/387 N,Thellakam,Kottayam,Kerala,9.6484321,76.5496066
D M Wayanad Institute of Meddical Sciences,Naseera Nagar,Meppadi,Wayanad,Kerala,11.5603633,76.1615446
"The Managing Partner, M/S Leo Hospital","No 881 (3),",Kalpetta,Wayanad,Kerala,11.6046806,76.0853189
Taluk Head Quarter HospitalBlood Bank,NA,Alwaye,Ernakulam,Kerala,9.0191882,76.9246649
General Hospital,NA,Pathanamthitta,Pathanamthitta,Kerala,9.2661427,76.7816955
Woman and Child Hospital,Beach bazar,Alappuzha,Alappuzha,Kerala,9.4896983,76.3203918
Co-Operative Medical College,HMT Colony,Kalamassery,Ernakulam,Kerala,10.052382,76.3555876
Taluk Head Quarters Hospital,NA,Kottakkara,Kollam,Kerala,9.0042848,76.7755801
Indira Gandhi Hospital Blood Bank,NA,Kavaratti island,Kavaratti island,Lakshdweep,10.5611628,72.6377016
Gandhi Medical College Blood Bank,Gandhi Medical College and Hamidia Hospital,Bhopal,Bhopal,Madhya Pradesh,23.2587151,77.3939931
Medical College Blood Bank,MGM Medical College and M Y Hospital,Indore,Indore,Madhya Pradesh,22.714332,75.8828785
Medical College,G R Medical College,Gwalior,Gwalior,Madhya Pradesh,26.1905418,78.1590802
Medical College,S S Medical College,Rewa,Rewa,Madhya Pradesh,24.5317119,81.2996972
Medical College,District Hospital,Ujjain,Ujjain,Madhya Pradesh,23.232615,75.811555
District Hospital,"J P Hospital, 1250, Hospital Campus, Tulsi Nagar",Bhopal,Bhopal,Madhya Pradesh,23.2298616,77.4175396
District Hospital,District Hospital,Balaghat,Balaghat,Madhya Pradesh,21.8183513,80.1827986
District Hospital,District Hospital,Barwani,Barwani,Madhya Pradesh,22.0344455,74.8998075
District Hospital,District Hospital,Betul,Betul,Madhya Pradesh,21.9034796,77.8982179
District Hospital,District Hospital,Chhindwara,Chhindwara,Madhya Pradesh,22.0526399,78.9372182
District Hospital,District Hospital,Chhatarpur,Chhatarpur,Madhya Pradesh,24.9072081,79.5843719
District Hospital,"Bhoj District Hospital, Mandu Road",Dhar,Dhar,Madhya Pradesh,22.5942558,75.3089897
District Hospital,M G Government District Hospital,Dewas,Dewas,Madhya Pradesh,22.9622067,76.0480753
District Hospital,District Hospital,Damoh,Damoh,Madhya Pradesh,23.8331451,79.44076
District Hospital,District Hospital,Guna,Guna,Madhya Pradesh,24.6490927,77.3049797
District Hospital,District Hospital,Hoshangabad,Hoshangabad,Madhya Pradesh,22.7577921,77.7187765
Rani Durgawati Hospital,Rani Durgawati Hosp,Jabalpur,Jabalpur,Madhya Pradesh,23.1579686,79.9192303
District Hospital,District Hospital,Jhabua,Jhabua,Madhya Pradesh,22.7749669,74.5941173
District Hospital,District Hospital,Khandwa,Khandwa(East Nimar),Madhya Pradesh,21.8242673,76.3435271
District Hospital,"District Hospital, Sanawad Road",Khargone,Khargone (West Nimar),Madhya Pradesh,21.8319324,75.6286114
District Hospital,District Hospital,Mandla,Mandla,Madhya Pradesh,22.5962799,80.3703887
District Hospital,District Hospital,Mandsaur,Mandsaur,Madhya Pradesh,24.0731,75.0688
District Hospital,District Hospital,Morena,Morena,Madhya Pradesh,26.4966382,77.9984849
District Hospital,Shankar Lal Dubey District Hospital,Narsinghpur,Narsinghpur,Madhya Pradesh,22.9415489,79.2255392
District Hospital,District Hospital,Panna,Panna,Madhya Pradesh,24.7120769,80.1812187
District Hospital,District Hospital,Ratlam,Ratlam,Madhya Pradesh,23.3273958,75.0388455
District Hospital,District Hospital,Raisen,Raisen,Madhya Pradesh,23.3334933,77.7804309
District Hospital,District Hospital campus,Rajgarh,Rajgarh,Madhya Pradesh,24.0070199,76.7292392
District Hospital,"New District Hospital, (Tilli Hospital)",Sagar,Sagar,Madhya Pradesh,23.8226576,78.7550595
District Hospital,"District Hospital, Blood Bank",Satna,Satna,Madhya Pradesh,24.5683945,80.8320855
District Hospital,Smt Indira Gandhi District Hospital,Seoni,Seoni,Madhya Pradesh,22.0949946,79.5517032
District Hospital,"Shri Kushabhau Thakre, District Hospital",Shahdol,Shahdol,Madhya Pradesh,23.3080183,81.3530426
District Hospital,District Hospital,Shajapur,Shajapur,Madhya Pradesh,23.4211483,76.2747887
District Hospital,District Hospital,Sehore,Sehore,Madhya Pradesh,23.198387,77.0812717
District Hospital,District Hospital,Shivpuri,Shivpuri,Madhya Pradesh,25.4248271,77.6513028
District Hospital,"Rajendra Hospital (District Hospital), Blood Bank",Tikamgarh,Tikamgarh,Madhya Pradesh,24.7573049,78.8340266
District Hospital,District Hospital,Vidisha,Vidisha,Madhya Pradesh,23.5201887,77.8083535
District Hospital,Government District Hospital,Katni,Katni,Madhya Pradesh,23.8325023,80.3924443
District Hospital,"District Hospital, Blood Bank",Sidhi,Sidhi,Madhya Pradesh,24.4127244,81.8807676
District Hospital,District Hospital,Bhind,Bhind,Madhya Pradesh,26.5660079,78.7826842
District Hospital,District Hospital,Datia,Datia,Madhya Pradesh,25.6872383,78.4422165
District Hospital,District Hospital,Alirajpur,Alirajpur,Madhya Pradesh,22.3116756,74.3554054
District Hospital,District Hospital,Umaria,Umaria,Madhya Pradesh,23.5254929,80.8343714
District Hospital,District Hospital,Sheopur,Sheopur,Madhya Pradesh,25.6760663,76.7116456
Rani Durgawati Hospital,Elgin,Jabalpur,Jabalpur,Madhya Pradesh,23.1579686,79.9192303
District Hospital,District Hospital,Harda,Harda,Madhya Pradesh,22.3406339,77.0930439
District Hospital,District Hospital,Burhanpur,Burhanpur,Madhya Pradesh,21.308409,76.2094324
District Hospital,District Hospital Blood Bank,Dindori,Dindori,Madhya Pradesh,22.9460341,81.0752821
CH Itars,"Janseva Rugnalaya Civil Hospital, Itarsi",Hoshangabad,Hoshangabad,Madhya Pradesh,22.6054858,77.753544
Civil Hospital Bhanpura,District Mandsaur,Mandsaur,Mandsaur,Madhya Pradesh,24.0692408,75.0718261
IGH Gas Rahat,Indira Gandhi Mahila Evam Bal Chikitsalaya Gas Rahat,Bhopal,Bhopal,Madhya Pradesh,23.2430842,77.4053322
