h_name,address,city,district,state,lat,lng
Sir J.J.Group of Hospital,"Main Building, Gr.floor, Sir J.J.Hospital Byculla Mumbai",Mumbai,Mumbai,Maharashtra,18.9630684,72.8336083
Mumbai Port Trust Blood Bank,"Nadkarni Park, Wadala (E) Mumbai",Mumbai,Mumbai,Maharashtra,19.012747,72.8613887
G.T.Hospital Blood Bank,Near L.T.Marg Police Station Mumbai,Mumbai,Mumbai,Maharashtra,18.9421522,72.8322309
"INS, Ashwini Blood Bank",Colaba Mumbai,Mumbai,Mumbai,Maharashtra,18.9001523,72.81523469999999
Tata Memorial Hospital Blood Bank,"5th Floor, Service Block,,Dr.E.Borges Road Parel Mumbai",Mumbai,Mumbai,Maharashtra,19.004984,72.8431002
"Dr. Babasaheb Ambedkar Memorial Hospital, Central Railway Hospital Blood Bank",Central Railway byculla(E) Mumbai,Mumbai,Mumbai,Maharashtra,18.9803317,72.83370210000001
"Cama and Albles Hospital, Abdul Fazalbhoy Blood Bank","Mahapalika Marg, Mumbai CST",Mumbai,Mumbai,Maharashtra,18.9421522,72.8322309
Bhabha Atomic Research Centre Hospital Blood Bank,"BARC Hospital, Anushakti Nagar Mumbai",Mumbai,Mumbai,Maharashtra,19.0425619,72.9148258
Esic Model Hospital,"ODC Blood Bank, Room No-20/A, Central Road MIDC Andheri (E),Mumbai",Mumbai,Mumbai,Maharashtra,19.1184535,72.8674241
Anviksha Pathological Laboratory Blood Bank,"Paras Darshan, M.G.Road, Ghatkopar-E Mumbai",Mumbai,Mumbai,Maharashtra,19.0823971,72.9045493
Asian Heart Institute and Research center,"ICICI Tower, Bandra Kurla Complex , Bandra (E) Mumbai",Mumbai,Mumbai,Maharashtra,19.0655033,72.86096409999999
West Coast Blood Bank,"Basement 101,Moon Bldg,798, Mori Road, Mahim(W),Mumbai",Mumbai,Mumbai,Maharashtra,19.0429537,72.8407301
Fortis Hospital Blood Bank,"Mulund Goregaon Link Road, Nahur , Mumbai",Mumbai,Mumbai,Maharashtra,19.1620779,72.9419882
Kohinoor hospital blood bank,"Upper basement, room no - 29 to 43, Kirol road, off L.B.S Marg, Kurla (w)",Mumbai,Mumbai,Maharashtra,19.0760717,72.8862889
Seven hills Healthcare Private Limited Hospital,"Blood Bank,2nd Floor, Block-16, Seven hills Hospital, Survey No.155, 156, 162 - 168 Part, Marol - Maroshi Road, Andheri(E), Mumbai",Mumbai,Mumbai,Maharashtra,19.1143726,72.8796839
Haematology Laboratory Blood Bank,"Parekh House, 14, Mama Parmanand Marg, Mumbai",Mumbai,Mumbai,Maharashtra,18.955171,72.81595039999999
Cumbal Hill Hospital And Heart Institute Blood Bank,"93-95, August Kranti Maidan, Mumbai",Mumbai,Mumbai,Maharashtra,18.963517,72.8087827
Kapoorben Vasanji Lathiya Blood Bank Nanavati Hospital,"Vile Parle (W), Mumbai",Mumbai,Mumbai,Maharashtra,19.0958738,72.8401105
"Samarpan Blood Bank,","Swastraya Bldg ,Gr Floor, Hingwala Lane, Near Simming pool ,Ghatkopar (E), Mumbai",Mumbai,Mumbai,Maharashtra,19.0896446,72.9070551
Bandra Holly Family Hospital Society Blood Bank,St.Andrews Road Bandra Mumbai,Mumbai,Mumbai,Maharashtra,19.0551638,72.82728809999999
Holy Spirit Hospital Blood Bank,"Mahakali Road, Andheri (E), Mumbai",Mumbai,Mumbai,Maharashtra,19.1283936,72.8666038
The B.D. Petit Parsi General Hospital,"B.Petit Road, Cumballa Hill, Mumbai",Mumbai,Mumbai,Maharashtra,18.9687959,72.80584929999999
Breach Candy Hospital And Research Centre,"60 A, Bhulabhai Desai Road Mumbai",Mumbai,Mumbai,Maharashtra,18.9728176,72.8042935
Jaslok Hospital And Research Centre,"15,Dr.G.Deshmukh Marg, Mumbai",Mumbai,Mumbai,Maharashtra,18.9716603,72.80983189999999
Prince Aly Khan Hospital Blood Bank,"Aga Hall, Nesbit Road, Mazgaon, Mumbai",Mumbai,Mumbai,Maharashtra,18.9708409,72.8365499
Bhatia General Hospital and Blood Bank,"Tukaram Javji Road, Tardeo Mumbai",Mumbai,Mumbai,Maharashtra,18.9657019,72.8134633
Bombay Hospital Trust Blood Bank,"12, New Marine Lines Mumbai",Mumbai,Mumbai,Maharashtra,18.9410651,72.8278163
P.D. Hinduja National Hospital And Medical Research,"Blood Bank, Veer Savarkar Road, Mahim (W), Mumbai",Mumbai,Mumbai,Maharashtra,19.0335001,72.838349
N.M Wadia Hospital Blood Bank,"Acharya Donde Marg, Parel, Mumbai",Mumbai,Mumbai,Maharashtra,19.00452,72.84179689999999
Lilavati Hospital and Research Centre Blood Bank,"A 791, Bandra Reclamation, Bandra (W), Mumbai",Mumbai,Mumbai,Maharashtra,19.0510891,72.8292259
Ashirwad Blood Bank,"Imperial Mahal, 2nd Floor above Shabana Stores,Khodadad Circle, Dr B.A Ambedkar Road Dadar TT Mumbai",Mumbai,Mumbai,Maharashtra,19.0173406,72.84816359999999
K.J.Somaiya Medical College and Hospital Blood Bank,"Somaiya Ayurvihar Complex , Eastern Express Highway , Sion, Mumbai",Mumbai,Mumbai,Maharashtra,19.047134,72.8748609
S. R. Mehta and Sir. K.P Cardiac Institute,"Plot No.96,Rd.No.31, King Circle Sion (E) Mumbai",Mumbai,Mumbai,Maharashtra,19.0323589,72.859599
Shushrusha Citizens Co-op Hospital Blood Bank,"698-B Ranade Road, Dadar, Mumbai",Mumbai,Mumbai,Maharashtra,19.0234501,72.8378333
B.S.E.S M.G. Hospital,"Rotary D.J Goenka Blood Bank, Near Railway Station Andheri (W)",Mumbai,Mumbai,Maharashtra,19.11944,72.8449787
Masina Hospital Blood Bank,"Sant Savta Marg, Byculla (E)",Mumbai,Mumbai,Maharashtra,18.9742477,72.8361915
S. L. Raheja Hospital. Blood Bank,"Mahim, Raheja Rugnalaya Marg, Mahim, Mumbai",Mumbai,Mumbai,Maharashtra,19.0459091,72.84254419999999
Dr. L. H. Hiranandani Hospital,"Hill Side, Hiranandani Gardens Powai, Powai",Mumbai,Mumbai,Maharashtra,19.1204014,72.91708
"Prabodhan Blood Bank, Siddharth Hospital","Siddharth nagar,Prabhodhan Kridabhawan Marg Goregaon(w)",Mumbai,Mumbai,Maharashtra,19.1597683,72.8400877
Navjivan Blood Bank and Lab,"Shop No.1, &#34;Abhilasha II&#34; Punjabi Lane Borivali (W)",Mumbai,Mumbai,Maharashtra,19.2302551,72.85253829999999
Saifee Hospital Trust Blood Bank,"15/17, Maharishi Karve Marg, Opp Charni Road Station",Mumbai,Mumbai,Maharashtra,18.952508,72.81819899999999
Mahatma Gandhi Seva Mandir Blood Bank,"Mahatma Gandhi Seva Mandir Hospital, 2nd floor, Opp. Bandra Lake, S V Road, Bandra (W),Mumbai",Mumbai,Mumbai,Maharashtra,19.0557955,72.8369797
"Nandakishor Education SocietysMatoshri Valbai Mulji Shah, Arpan Blood Bank","Aniraj Tower, Janta Market, L.B.S Marg, Bhandup (W)",Mumbai,Mumbai,Maharashtra,19.1426388,72.93339150000001
Hi-tech Blood Transfusion and Allied services,"Jignesh Apartment ,Sainath Road, Malad (W)",Mumbai,Mumbai,Maharashtra,19.2097664,72.8363524
Borivali Blood Bank (Doshi Memorial Charitable Trust),"3,4,5, Vithal Apartment, Near Ram Mandir, Mandpeshwar Road, opp. Flyover, Borivali(w)",Mumbai,Mumbai,Maharashtra,19.2492229,72.85335549999999
Sir J.J.Mahanagar Rakthapedhi,"Sir J.J Mahanagar Raktapedhi,F.D. Petit Bldg., J.J.Campus,J.J.Road, Byculla, Mumbai",Mumbai,Mumbai,Maharashtra,18.963357,72.8324105
Manas Serological Institute Blood Bank,"CTS NO-167 / 168 / A1 101-104 Grace Plaza S.V.Road, near Railway Phatak, Jogeshwari (w),Mumbai",Mumbai,Mumbai,Maharashtra,19.1419371,72.8432271
Kokilaben Dhibhai Ambani Blood Bank,"4 bunglows, Achutrao Patwardhan Marg, Andheri (west),Mumbai",Mumbai,Mumbai,Maharashtra,19.1313189,72.8250929
Indian Red Cross Society Bombay City Branch Blood Bank,"Blood Centre,141, Shahid Bhagatsingh Road, Town Hall Compound Near R.B.I Fort",Mumbai,Mumbai,Maharashtra,18.9324683,72.8363303
KEM Hospital Blood Bank,"Acharya Donde Marg, Parel",Mumbai,Mumbai,Maharashtra,19.0006201,72.8416075
Harilal Bhagwati Hospital Blood Bank,"SVP Road, Borivali-W, Mumbai",Mumbai,Mumbai,Maharashtra,19.241455,72.85483599999999
R.N.Cooper General Hospital Blood Bank,"North south Road no-1,Juhu, Vile Parle (W) Mumbai",Mumbai,Mumbai,Maharashtra,19.1077678,72.83620549999999
K.B.Bhabha General Hospital,"R.K.Patkar Marg, Bandra (W) Mumbai",Mumbai,Mumbai,Maharashtra,19.0574544,72.83364499999999
BYL Nair Hospital,"New OPD Bldg. 2nd Floor, Dr. A. L.Nair Road Mumbai Central Mumbai",Mumbai,Mumbai,Maharashtra,18.9744423,72.8221897
Lokmanya Tilak Municipal Hospital Blood Bank,"O.P.D Building, 1st floor, Sion (W), Mumbai",Mumbai,Mumbai,Maharashtra,19.0368684,72.85837269999999
Rajawadi Hospital Blood Bank,"Seth V.C. Gandhi and M.V. Vora M,Rajawadi, Ghatkopar-(E), Mumbai",Mumbai,Mumbai,Maharashtra,19.0793049,72.9016939
V.N. Desai Municipal General Hospital Blood Bank,"T.P.S II, 11th Road, Santacruz (E) Mumbai",Mumbai,Mumbai,Maharashtra,19.0788224,72.8449937
M.T.Agarwal Mun.Gen.Hospital Blood Bank,"Dr.R.P.Road, Mulund (W) Mumbai",Mumbai,Mumbai,Maharashtra,19.1753855,72.95109699999999
District Civil Surgeon Blood Bank,"District Hospital Blood Bank, Alibag",Raigad,Raigad,Maharashtra,18.6417535,72.8709066
"Civil Surgeon, General Hospital Blood Bank","Tal-District-Ratnagirii, Civil Hospital Ratnagiri",Ratnagiri,Ratnagiri,Maharashtra,16.989092,73.2992651
"Civil Surgeon, General Hospital Blood Bank","Sindhudurg Oros,At post - Oros, Tal - Kudal Dist - Sindhudurga (Oros)",Sindhudurga,Sindhudurga,Maharashtra,16.1157111,73.706594
"Cottage Hospital, Blood Bank, Sawantwadi","Sub -Dist Cottage Hospital, Blood Bank, Sawantwadi ,C-Sindhudurg.",Sindhudurga,Sindhudurga,Maharashtra,15.9052627,73.8213213
Pantgashah Cottage Hospital Blood Bank,"At Post - Jawhar, District - Thane",Thane,Thane,Maharashtra,19.9050038,73.2312946
Civil Hospital (Vitthal Sayanna) Blood Bank,Tembhi Naka Thane (W),Thane,Thane,Maharashtra,19.1985706,72.97796869999999
Central Hospital Blood Bank,"Ulhasnagar, Central Hospital Nehru Chowk Road Ulhasnagar",Thane,Thane,Maharashtra,19.2288555,73.16512449999999
Tarapore Automic Power Station Hospital Blood Bank,"TAPS Hospital Blood Bank, TAPS Colony Near Boisar,TQ-Palghar Dist-Thane",Thane,Thane,Maharashtra,19.8129342,72.743549
Advanced centre for treatment research and education in cancer (ACTREC),"Tata Memorial Center, Owe Village, Sector 22,Plot no-2, Kharghar, Navi Mumbai",Mumbai,Mumbai,Maharashtra,19.0652764,73.0647647
"JVP Blood Bank and Transfusion Centre, Blood Bank","201 ,213 Arenja Arcade Plot no- 4 Sec-17 ,Next to Apana Bazar, Vashi Navi Mumbai",Thane,Thane,Maharashtra,19.0723304,73.0007004
Sankalp Blood Bank,"Riddhi Siddhi-Opp.ICICI Bank, Near Ramchandra Hall, Murbad Road Kalyan-(W)",Thane,Thane,Maharashtra,19.2411304,73.14676610000001
Jupiter Hospital Blood Bank,"Jupiter Hospital, Eastern Express Highway, Service Road, Near Voltas, Naupada, Thane (W)",Thane,Thane,Maharashtra,19.2097076,72.9724274
Dr. D.Y. Patil Hospital and Research Centre,"Sector-5, Nerul(E) Navi Mumbai",Mumbai,Mumbai,Maharashtra,19.0411561,73.0246854
Rotary Club New Panvel charitable Trust s Late Dr. B.V. Limaye Blood Bank,"Plot No-8,sect.1, Khanda Colony, Mumbai Pune Road, New Panvel-(W)",Raigad,Raigad,Maharashtra,19.0082655,73.108207
"Kakasaheb Chitle Memorial Centre Sanchalit, Jankalyan Blood Bank,","Mahad, mahad dist- Raigad",Raigad,Raigad,Maharashtra,18.0827353,73.42265010000001
"Shree Sai Medical Trusts, Shree Sai Blood Bank","old Panvel,103,104,105,1st Floor Tirthraj Bldg.Old Thana naka Road, Near Police Station Old Panvel Dist-Raigad",Raigad,Raigad,Maharashtra,18.9939701,73.1065625
Shree Swami Samarth Blood Bank,"Darvan,TQ-Chiplun,Dist-Ratnagiri",Ratnagiri,Ratnagiri,Maharashtra,17.5323106,73.5177928
Plasma Diagnostic Lab and Blood Bank,"Meghdoot, Bldg, Gopal nagar, Hotel Janaki, Opp. Manjunath School, Dombivali( E)",Thane,Thane,Maharashtra,19.2156428,73.0960781
Vaidhya Blood Bank,"1st Fr. Satyam Apartment, M.G Road,Jeevan Jyot Hospital near Naupada Police Station, Thane (W)",Thane,Thane,Maharashtra,19.1878455,72.9672978
Navjeevan Blood Bank,"Gokhale Road, Naupada Near Dr.Mhaskars Hospital Thane (W)",Thane,Thane,Maharashtra,19.1877042,72.96790179999999
"Swargiya Shri Waman Hari Pethe Smruti, Sanjivani Blood Bank,","Sanjivani Hospital, Virar",Thane,Thane,Maharashtra,19.4551613,72.8103098
Sarla Blood Bank,"Ravi Hospital 1st Floor, 50 Anand Nagar, Navghar Vasai (W)",Thane,Thane,Maharashtra,19.381023,72.831302
Tssia Blood Bank,"Tssia House, Road No.P 26/T,Rd-16, Wagle Estate, Thane (W)",Thane,Thane,Maharashtra,19.1947452,72.9528478
Kai Wamanrao oak Blood Bank,"Ghantali Mandir Road, Vishnu Nagar, Naupada, Thane",Thane,Thane,Maharashtra,19.1900575,72.9714724
"Gor Banjara RSS Jankalyan Samiti, Seva Blood Bank","Basement Puspadev Appt, Near Sarvesh Hall Opp Manav Kalyan Kendra Dombivli",NA,NA,Maharashtra,19.2157147,73.0916005
Blood Line Blood Bank,"Swargiya Dharmvir Anand Dighe Sankool, Tika No-10, Near vikas Palm, Dr.Ambedkar Road, Thane (w)",Thane,Thane,Maharashtra,19.2007625,72.9749817
Kalyan dombivali Municipal Corporation Sponsored Nandakishore Education Society Arpan Blood Bank,"2nd floor, Bai Rukhminibal Hospital, Kalyan (w)",Thane,Thane,Maharashtra,19.2375062,73.1349429
Smt. Devkaabai Kalyanji Chheda Amrutvahini Blood Bank,"Ashirwad Apartment, 2nd Floor, Dshsnu (E) Dist-Thane",Thane,Thane,Maharashtra,19.6144181,74.1848595
"Sanjeevan Blood Bank, Sanjeevan Blood Bank","1st Floor Indravati Hospital Sector-3, Airoli Navi Mumbai",Thane,Thane,Maharashtra,19.1567325,72.9977624
Vijayee blood bank,"Andrandes bhavan 1st floor, plot No 2, Sr.no 277A Behind Papdi Telephone Exchange, Near Sai Services Vasai (W)",Thane,Thane,Maharashtra,19.3587109,72.8118417
Mira Bhayandar Municipal Corporation Rajeev Gandhi Blood Bank,C.S No.30/32 Poonam Sagar Complex near Allahabad Bank Mira Road (E) Dist-Thane,Thane,Thane,Maharashtra,19.2740254,72.8615923
"Maharashtra Blood Bank, Component and Apheresis Cenre","C- wing, 107/207, Kuldeep Arcade, Near Navli Railway Phatak, Station Road, Palghar (w), Dist: Thane",Thane,Thane,Maharashtra,19.6935581,72.76551839999999
Chidanand Charitable Trust Dombivali,"Siddhi Hospital,Bajiprabhu Chowk, Dombivali (East)",Thane,Thane,Maharashtra,19.2185744,73.0892984
Seva Blood Bank,"Pushpadev Apartment,Basement,Opp.Manav Kalyan Kendra, Near Sarvesh Hall, Dombivali",Thane,Thane,Maharashtra,19.2157147,73.0916005
Indian Red Cross Society Blood Bank,"Khareghat Road, Ratnagiri",Ratnagiri,Ratnagiri,Maharashtra,16.9886169,73.2981849
Chhatrapati Shivaji Maharaj Hospital Blood Bank,"Thane Belapur Road, Kalwa Thane",Thane,Thane,Maharashtra,19.19246,72.9869621
Navi Mumbai Municipal Corporation,"General Hospital Vashi, Near St.Mery Church Sector-10, Vashi, Navi Mumbai",Thane,Thane,Maharashtra,19.0827939,72.9960397
"Shri Vasantrao Naik Blood Bank, Government Medical College and Hospital",Yavatmal,Yavatmal,Yavatmal,Maharashtra,20.396062,78.119311
"Civil Surgeon, General Hospital Blood Bank","District Gen Hospital Comp. Z.P.Road, Akola",Akola,Akola,Maharashtra,20.697961,76.97599600000001
"Dist-Hospital for Women, Blood Bank","Plot No.2, OPD Building District Hospital for Women Near Durga Chowk Akola",Akola,Akola,Maharashtra,20.7140877,77.00660570000001
"Civil Surgeon, Dist- General Hospital Blood Bank","Amravati,Dist - General Hospital Blood Bank, Irwin Chowk, Amravati",Amravati,Amravati,Maharashtra,20.933264,77.7607687
Government Hospital Blood Bank,"General Hospital Shegaon Road, Khamgaon Dist-Buldhana",Buldhana,Buldhana,Maharashtra,20.7958675,76.6966885
"Lokmanya TSSIA Blood Bank, Thane","Tssia House, Road No.P 26/T,Rd-16,Next to Thane Janata Sahakari Bank, Behind the petrol pump, Wagle Estate, Thane (W)",Thane,Thane,Maharashtra,19.1947452,72.9528478
Saibai Mote General Hospital Blood Bank,"Shegaon, Saibai Mote General Hospital Shegaon Dist-Buldhana",Buldhana,Buldhana,Maharashtra,20.7958675,76.6966885
"Civil Surgeon, District General Hospital Blood Bank","Buldhana, General Hospital Blood Bank Buldhana (M.S)",Buldhana,Buldhana,Maharashtra,20.5333472,76.18738510000001
"Civil Surgeon, General Hospital Blood Bank Washim","General Hospital Blood Bank, Near Akola Naka Washim",NA,NA,Maharashtra,20.1211021,77.1297922
Dr. Vivek Pimpalkar Blood Bank,"Akola, plot no-9/7, Krishna Kripa Building, M.G.Road, Akola",Akola,Akola,Maharashtra,20.7078978,76.9986121
Jeevan dhara Buldhana Urban Blood Bank,"Tehsilto Stadium road, Buldhana",Buldhana,Buldhana,Maharashtra,20.5292147,76.1841701
Shriram Blood Bank,"T.K.Chembers, Ratanlal Plot, Akola",Akola,Akola,Maharashtra,20.7128679,77.00767549999999
Dr. Murlidhar Kharche Memorial Jeevan Jyoti Blood Bank,"Bharat Kala Rd., Malkapur",Buldhana,Buldhana,Maharashtra,20.8864914,76.207179
Laxmi Blood Bank,Pusad,Yavatmal,Yavatmal,Maharashtra,20.3925181,78.1349185
Satyashanti Blood Bank,"2nd floor Satyashanti Hospital, Opp. Bus Stand, At-Pusad",Yavatmal,Yavatmal,Maharashtra,19.9086766,77.5669802
Akola Diagnostic Centre Blood Bank and Component Lab,"Shivdwar, Civi Line Chowk, Opp LRT College",Akola,Akola,Maharashtra,20.6996477,77.01614359999999
Dr. Mankar Memorial Blood Bank,Amankha Plot,Akola,Akola,Maharashtra,20.70484,77.019429
Dr. Hedgewar Blood Bank,"Akola,Balaji Plot SBI Colony no - 1, Akola",Akola,Akola,Maharashtra,20.7183427,77.0187588
"ICON Blood Bank,Ganediwal Charitable Trust","ICON Blood Bank, ICON Hospital, Kedia plot, Akola",Akola,Akola,Maharashtra,20.71347,77.01200999999999
Shri Balaji Blood Bank,"Blood Component Lab and Blood Transfusion Center,1st Floor, Alsi Complex, Ambapeth, Amravati",Amravati,Amravati,Maharashtra,20.9304109,77.7544975
Dr. P.D.M.H.C. Hospital and Research Centre,"Block-A,1st Floor, Shivaji Nagar, Amravati",Amravati,Amravati,Maharashtra,20.8547191,77.7399396
Sant Gadgebaba Blood Bank and Component Centre,"Badnera,Opp.Shrihari hospital, Juni vasti, Badnera Amravati",Amravati,Amravati,Maharashtra,20.8644258,77.73595329999999
Lilavati Blood Bank,"John Lay Out, Jan bhrun Road Dist-Buldhana",Buldhana,Buldhana,Maharashtra,20.5347257,76.1724615
Shri. Brahman Swrankar Samaj Trust,"Farshi, Main Road, Khamgaon, Dist-Buldhana",Buldhana,Buldhana,Maharashtra,20.7086505,76.5582154
Dr Late Sadanadaji Burma Memorial Blood Bank,"Paratwada,Dist Amravati",Amravati,Amravati,Maharashtra,21.2779007,77.52420889999999
Sau Kantadevi Dale Blood Bank,"Maa Ganga Memorial Baheti Hospital, Akola Naka, Washim",Washim,Washim,Maharashtra,20.122475,77.12804779999999
Aieshwarya Blood Bank,"Survey No.3/2, Godhani Road, Gurunanak Nagar, Near Amolakshand College Mouza, Umarsara Dist-Yavatmal",Yavatmal,Yavatmal,Maharashtra,20.3861943,78.1330076
Shri Gajanan Blood Bank And Components,"Property no: 71, Road no.9, 2nd floor , Bajaj Satkar Bhavan, Yavatmal(m.s)",Yavatmal,Yavatmal,Maharashtra,20.3875153,78.13151479999999
Ekneel Blood Bank,"Near City Centre,Datta Chowk",Yavatmal,Yavatmal,Maharashtra,20.3883006,78.1311939
Reginal Blood Bank Government Medical College and Hospital,Aurangabad,Aurangabad,Aurangabad,Maharashtra,19.8692476,75.34860789999999
MGM Medical College and Hospital Blood Bank,"N-6 , Town Centre CIDCO",Aurangabad,Aurangabad,Maharashtra,19.8778083,75.3541987
Dattaji Bhale Blood BankHedgewar Hospital,Dr.Hegdewar Rugnalaya Campus Garkheda Parisar,Aurangabad,Aurangabad,Maharashtra,19.8692856,75.34854059999999
Lokmanya Blood BankGopinath Chambers,Adalat Road,Aurangabad,Aurangabad,Maharashtra,19.8729396,75.3207123
Seth Nandlal Dhoot Hospital Blood Bank,"A-1, MIDC, Chikalthana, Jalna Road",Aurangabad,Aurangabad,Maharashtra,19.8727429,75.3876703
Arpan Voluntary,"2nd floor, Sonia Chambers, Opp Seven Hills Flyover, Jalna Road",Aurangabad,Aurangabad,Maharashtra,19.875505,75.352446
Amruta Blood Bank,"1st floor, Shop No 102,103, Nano Mall Complex, Near Shahnoormiya Durga",Aurangabad,Aurangabad,Maharashtra,19.8578049,75.33628279999999
"Civil Surgeon, General Hospital","Balod Bank Survey No-488, Infront of collector office , Civil Hospital Jalna",Jalna,Jalna,Maharashtra,20.7750288,81.2518833
Jankalyan Blood Bank,"Wing No-03, S, No 224, Shri Chatrapati Shivaji Maharaj Bazar Sankul, Old Cotton Market Yard",Jalna,Jalna,Maharashtra,19.851223,75.89822140000001
Noor Hospital Blood Bank,"Warudi, Tq-Badnapur",Jalna,Jalna,Maharashtra,19.8692797,75.6511809
"Civil Surgeon, District General Hospital Blood Bank",Subhash Road Parbhani,Parbhani,Parbhani,Maharashtra,19.2710168,76.7664092
"Civil Surgeon, District General Hospital Blood Bank","Akola Road Risala Bazar, Hingoli",Hingoli,Hingoli,Maharashtra,19.7243008,77.15504179999999
Dr. Shankarrao Chavan Government Medical College and Guru Govindsinghji Memorial Hospital Blood Bank,"Vazirabad, Nanded",Nanded,Nanded,Maharashtra,19.1563979,77.3132801
Indian Red Cross Society Blood Bank,"Parsi Anjuman Complex, Vazirabad, Nanded",Nanded,Nanded,Maharashtra,19.1537067,77.3116526
Golvalkar Guruji Blood Bank,"Plot No.2-12-407, Bandhaghat Road, Vazirabad, Nanded.",Nanded,Nanded,Maharashtra,22.5984447,88.3483069
Arpan Blood Bank,"2nd floor ,Dayma Complex, Doctor Lane, Ghamodia,Nanded",Nanded,Nanded,Maharashtra,19.1584856,77.3076042
Arpan Voluntary,"Plot No -66, Survey No-53, Mahalaxmi Nagar, Nanded",Nanded,Nanded,Maharashtra,19.1382514,77.3209555
Guru Gobindsinghji Blood bank,"Geeta Bhavan 1and2 Floor, House No 3-1-366, Near Government, Ayurvedic College, bus stand road, Vazirabad Nanded",Nanded,Nanded,Maharashtra,19.155872,77.308357
"Civil Surgeon, Government Medical College General Hospital Blood Bank","Government Medical College General Hospital Old Railway Station, Gandhi Chowk Latur",Latur,Latur,Maharashtra,18.3964662,76.5780876
Dr. Bhalchandra Blood Bank,"Red Cross Bhavan, Gandhi Market, Latur",Latur,Latur,Maharashtra,18.4011126,76.5804667
Smt. Saraswati Karad Blood Bank,"MIMSR Medical College andYashwantrao. Chavan Rural Hospital Amejogai Road,Vishwanath Puram, Latur",Latur,Latur,Maharashtra,17.277693,74.1843535
Nagappa Amberkhane Blood Bank,Banshelki Road Near Nalegaon Railway Crossing Gate Udgir Dist Latur,Latur,Latur,Maharashtra,18.3923055,77.10698599999999
Arpan Blood Bank,"H.No R-3-1030, old Sonawane Hospital Near Ashok Hotel Main Road Latur",Latur,Latur,Maharashtra,18.3984549,76.5712542
"Civil Surgeon, General Hospital Blood Bank","Civil Hospital Osmanabad, Tqand Dist Osmanabad",Osmanabad,Osmanabad,Maharashtra,18.1809938,76.03638699999999
Shri Krishna Blood Bank,"Dr Patange Hospital Building ,Ajay Nagar Omerga, Tq, - Omerga, Dist- Osmanabad",Osmanabad,Osmanabad,Maharashtra,17.8350298,76.6221499
"Civil Surgeon, General Hospital Blood Bank","Civil Hospital Beed, Tqand Dist Beed",Beed,Beed,Maharashtra,18.98631,75.751807
Swami Ramanand Tirth Arben Medical College Hospital Blood Bank,Swami Ramanand Tirth Arben Medical College Hospital Ambajogai Tq. Ambajogai Dist Beed,Beed,Beed,Maharashtra,18.7317373,76.3717175
Vaidynath Blood Bank,"H. No-8, CS No- 684/22, Jay Nagar,Parli Vaijnath Dist Beed",Beed,Beed,Maharashtra,18.8472975,76.5225444
Navjivan Blood Bank,"Plot No 2-10-240 1 st floor, Jalna Road, Opp M.S.E.B. Office Beed Dist Beed",Beed,Beed,Maharashtra,19.0009437,75.7533179
Newlife Blood Bank,"Plot No 22, Survey No 389 & 394, Beside Gurudwara, Station Road, Parbhani",Parbhani,Parbhani,Maharashtra,19.2598849,76.7724866
Nanded Blood Bank,"Shivaji Nagar ,Opp Adhar Hospital, Nanded",Nanded,Nanded,Maharashtra,19.1661216,77.3056752
Lions Blood Bank,"1st floor, Near Tej Bahadur English School ,Osampura,Aurangabad",Aurangabad,Aurangabad,Maharashtra,19.8761653,75.3433139
Hazur Saheb Blood Bank,"2nd Floor, opp Bank of India, Sant kripa market, GG road, Nanded",Nanded,Nanded,Maharashtra,19.1495928,77.315173
"Maule Pratishtan ,Mauli Blood Bank","Gayatri Hospital,Barshi Road, Latur",Latur,Latur,Maharashtra,18.4019824,76.559522
Arpan Blood Bank,"3rd floor,Thorat Hospital, Anand Nagar,DP road,Ambejogai",NA,NA,Maharashtra,18.725503,76.3907376
"Government Medical College Blood Bank, Nagpur","In charge Blood Bank Government Medical College and Hospital Blood Bank, 2nd Floor Hanuman Nagar, Nagpur",Nagpur,Nagpur,Maharashtra,21.1283874,79.09720159999999
Super Speciality Hospital and Medical Post Graduate Institute Blood Bank,"Maenad Rd, Near RST Cancer Hospital, Nagpur",Nagpur,Nagpur,Maharashtra,21.1239533,79.1024991
Indira Gandhi Medical College and Hospital Blood Bank,"IGMC Hospital, Central Avenue Road, Nagpur",Nagpur,Nagpur,Maharashtra,21.153418,79.09397349999999
Civil Hospital Bandera Blood Bank,"General Hospital Blood Bank, Bandera",Bandera,Bandera,Maharashtra,19.7514798,75.7138884
General Hospital Blood Bank,"General Hospital Blood Bank, Chandrapur",Chandrapur,Chandrapur,Maharashtra,19.9437944,79.2937314
Sub-District Rural Hospital Blood Bank,"Aheri, At Post & Tal. Aheri, District Gadchiroli",Gadchiroli,Gadchiroli,Maharashtra,19.4133545,80.0059101
"Civil Surgeon, General Hospital Blood Bank","Gadchiroli, General Hospital Blood Bank, Gadchiroli",Gadchiroli,Gadchiroli,Maharashtra,20.1702042,79.9829117
Bai Gangabai Ladies Hospital Blood Bank,"Gondia, Bai Gangabai Ladies Hospital Blood Bank, Civil Lines, Gondia",Gondia,Gondia,Maharashtra,21.4597282,80.19689319999999
Daga Memorial Women Government Hospital Blood Bank,"Gandhibag, Nagpur",Nagpur,Nagpur,Maharashtra,21.1531291,79.10340819999999
"District - Civil Surgeon, General Hospital Blood Bank Wardha",New Bldg. OPD 1st Floor General Hosp.Dr.Ambedkar Road Near Jilha Parisad Wardha,Wardha,Wardha,Maharashtra,20.7285536,78.587318
"Central India Institute of Haematology and Oncologys Blood and Blood Component Bank and Apheresis Unit,Superspeciality Blood and Cancer Hospital","Plot No-14/2, Park Corner, Bal raj Marg, Near Loma Square,Dhantoli, Nagpur",Nagpur,Nagpur,Maharashtra,21.1349239,79.0789776
Abashed Blood Bank,"Indian Medical Charitable Trust, Main Road Gandhi chowk Bhandara",Bandera,Bandera,Maharashtra,21.4627408,79.8360009
Ankur Hospital Blood Bank,"Balaji Ward, Chandrapur",Chandrapur,Chandrapur,Maharashtra,19.9437944,79.2937314
"Dr. Ninawe Blood Bank, Ninawe Hospital","Near Benglur Bakery, Kasturba Rd.Chandrapur",Chandrapur,Chandrapur,Maharashtra,19.9559881,79.29661469999999
Cristanand Education Society Blood Bank,"Brahampuri, Gujri Ward No.2, Chandrapur",Chandrapur,Chandrapur,Maharashtra,20.6114102,79.859083
Jeevan Jyoti Blood Bank and Component,"JP Chamber, Madhav Nagar, Dakshin Ambakshari Road Nagpur",Nagpur,Nagpur,Maharashtra,21.123939,79.06438539999999
Dr. Hegdewar Blood Bank,"2, Sitaram Smruti, West High Court Road, Laxmibhuvan Square, Audumbar Apartment, Dharmpeth, Nagpur",Nagpur,Nagpur,Maharashtra,21.1407037,79.0604658
Sainath Blood Bank,"1st floor, Manoj Bldg, Central Bajar Road, opp Hotel Centre Point, Ramdaspeth, Nagpur",Nagpur,Nagpur,Maharashtra,21.1342939,79.0763688
Ayush Blood Bank and component Lab,"9th Floor, A wing, 901-905,910-912 ,Lokmat Building Nagpur",Nagpur,Nagpur,Maharashtra,21.1361779,79.0798903
Lifeline Blood Bank Components and Apherisis Centre,"Neeti Gaurav complex , 2nd floor, Central Bazar road, Lokmat Square, Ramdaspeth, Nagpur",Nagpur,Nagpur,Maharashtra,21.1346405,79.0795208
Rainbow Blood Bank,"3rd Floor, 282, Rainbow Diagnostic Services Central Bazar Road, Ramdas Peth, Nagpur",Nagpur,Nagpur,Maharashtra,21.1335838,79.0727368
"NKP Salve Inst.of Med.Sci. and Res.Center.Lata Mangeshkar Hosp, Blood Bank","5,YMCA Complex, Digdoh Hills, Hingna Road, Nagpur",Nagpur,Nagpur,Maharashtra,21.1012124,79.0019684
Kasturba Health Society Blood Bank,"Sevagram,Department of Pathology, MGIMS and Kasturba Hospital Sevagram, District Wardha",Wardha,Wardha,Maharashtra,20.7387488,78.6611203
Jawaharlal Nehru Medical College Blood Bank,"Savangi(Meghe), Paloti Road District Wardha",Wardha,Wardha,Maharashtra,20.7149298,78.57627699999999
Shri Bhausaheb Hire Government Medical College and Hospital,"Civil Hospital Compound, Sakri Road Dhule",Dhule,Dhule,Maharashtra,20.8639536,74.7623454
"Civil Surgeon, General Hospital","Dist Government Hospital Tarak pur Savedi Road, Circle Nashik, Ahmednagar",Ahmednagar,Ahmednagar,Maharashtra,19.1113957,74.73189649999999
General Hospital Blood Bank,Zilha Peth Jalgaon,Jalgaon,Jalgaon,Maharashtra,21.0096136,75.5664999
"Civil Surgeon, District General Hospital Blood Bank","Nandurbar, Railway Station Road Survey no.406 civil hospital Compound Sakri Road, Near Collector Office Nandurbar",Nandurbar,Nandurbar,Maharashtra,21.3623796,74.2398175
"Roachabai Sugnomal Manwani, Cantonment General Hospital","Vadner Road, Devlali Nashik",Nashik,Nashik,Maharashtra,19.9032742,73.82570849999999
"Civil Surgeon, District- Civil Hospital Blood Bank","District- Civil Hospital Blood Bank Near Thakkar Bazaar, Trimbak naka, Nashik",Nashik,Nashik,Maharashtra,19.9968854,73.7781984
Sainik Aspatal Military Hospital Blood Bank,"Sainik Aspatal, Military Hospital, Deolali",Nashik,Nashik,Maharashtra,19.8981081,73.8274327
"Sanjeevani Blood Bank,Kopargaon","110, Nishigandh, Vivekanand Nagar, Near S.G Vidyalay,Circle Nashik, Kopargaon",Ahmednagar,Ahmednagar,Maharashtra,19.8803911,74.4709187
"Rotary Blood Bank, Rahuri Charitable Trust","Acharya Anand Rushiji Bhavan, Near Water Tank, Nagar Manmad Road,Circle Nashik, A/P.Rahuri Dist-Ahmednagar",Ahmednagar,Ahmednagar,Maharashtra,19.3959489,74.6462499
Arpan Blood Bank,"Sanamner,First Floor, H.No.1542/43, above Bank of Badoda Swatantrya Chowk, Sangamner, Circle Nashik, Ahmednagar",Ahmednagar,Ahmednagar,Maharashtra,19.5714901,74.2123799
"Jankalyan Blood Bank, Nalegaon","Gadgil Patangan, Nalegaon, Circle Nashik,Ahmednagar",Ahmednagar,Ahmednagar,Maharashtra,19.0946195,74.73137489999999
"Pravara Medical Trust Blood Bank, Pravara Rural Hospital and Medical Dental College Loni (BK)",TQ.Rahata District Ahmednagar,Ahmednagar,Ahmednagar,Maharashtra,19.5789481,74.4546668
Jondhales Nitya Seva Blood Bank,"R.C.Complex, Mamlatdar Kacheri Road, Circle Nashik, Shriram Dist-Ahmednagar",Ahmednagar,Ahmednagar,Maharashtra,19.9974533,73.78980229999999
Shri. Sainath Blood Bank,"opp. Bus Stand, Shri Saibaba Sansthan, Shirdi Tal - Rahata,Dist - Ahmednagar",Ahmednagar,Ahmednagar,Maharashtra,19.7631946,74.4755928
Padm.Dr.Vithalrao Vikhe Patil Found.Ahmednagar Med.Collg.Hospital,"Opp.Government Milk Dairy Vadgaon Gupta M.I.D.C., Circle Nashik, Ahmednagar",Ahmednagar,Ahmednagar,Maharashtra,19.1783801,74.69933929999999
Shrirampur Blood Bank,Shrirampur,Ahmednagar,Ahmednagar,Maharashtra,19.6227007,74.6603993
Anand rushiji Blood Bank,"Survey no.16/1, plot no.2 behind Anadrushiji Hospital Burudgaon road,Circle Nashik, Ahmednagar",Ahmednagar,Ahmednagar,Maharashtra,19.0825022,74.7361612
"Jeevanraj Charitable Foundation,s Ahmednagar Blood Bank","F.p.No. - 17, 2nd Floor, Ahmednagar Zillha Krishi Audyogik Sarva Seva Sahakari Sanstha Maryadit, Market Yard, Circle NashikAhmednagar",Ahmednagar,Ahmednagar,Maharashtra,19.0853447,74.7403131
"Nandkishor Education Society, Arpan Blood Bank","1st Floor, SAHAKAR Kranti Bldg. Market Yard, Circle Nashik, Ahmednagar",Ahmednagar,Ahmednagar,Maharashtra,19.0871,74.7388543
"Shree Navjeevan Blood Bank and Component Laboratary, Dhule","Plot No.39, Behind Vaibhav Nagar, Behind LIC Colony, Sushil Nagar Golibar Tekdi",Dhule,Dhule,Maharashtra,20.8944137,74.75962899999999
Jawahar Medical Foundation Blood Bank,"Hutatma Shririshkumar Nagar, Opp.Jawahar Suthgirani, Morane, Sakri Road, Dhule",Dhule,Dhule,Maharashtra,20.9035865,74.75637429999999
Jeevan Jyoti Blood Bank,"3252 Agra Road, near Prabhakar Theater",Dhule,Dhule,Maharashtra,20.8978811,74.7753742
Janseva Blood Bank,"Fulwala Chowk, (C.S.No.1415/A/1/A) Lane no. 4 Dr.Odhekar Bldg, Agra Road",Dhule,Dhule,Maharashtra,20.904121,74.77766989999999
Madhavrao Golwalkar Swayamsevi Blood Bank,"273, Navi Peth, Jalgaon",Jalgaon,Jalgaon,Maharashtra,21.0124812,75.5679509
Jeevan Surabhi Blood Bank,"Laxmi Nagar, Kargaon Road, Chalisgaon Dist-Jalgaon",Jalgaon,Jalgaon,Maharashtra,20.4663196,75.0086279
Jeevanshri Raktapedi,"I st Floor, Rasmanju complex, Bhagwat Road, Amalner",Jalgaon,Jalgaon,Maharashtra,21.0420187,75.0599804
Dhanwantri Blood Bank,"H.no. 5/464/1 T.P.Scheme No-1, Survey No 124/1/3A Plot no 777/3, Jamner Road, Rangoli Hotel Jawal Anand Nagar Bhusawal Dist - Jalgaon",Jalgaon,Jalgaon,Maharashtra,21.0385928,75.7799716
Godavari Foundations Dr.Ulhas Patil Medical College and Hospital Blood Bank,"Hospital Blg, 2nd floor, Gat no.315/316/321/305 Jalgaon-Bhsawal Road,N.H no -6 Jalgaon (kh)",Jalgaon,Jalgaon,Maharashtra,21.0133104,75.6964405
Jankalyan Rakta Pedhi,"Nandurbar,1st Floor,Vivekanand Hospital, Desaipura, Nandurbar",Nandurbar,Nandurbar,Maharashtra,21.3643385,74.2448903
Ansar Blood Bank,"Malegaon,1398/1, Islampura, Industrial Society Compound, Quidwai Road, Malegaon Nashik",Nashik,Nashik,Maharashtra,20.5520427,74.5326417
Arpan Blood Bank and Blood Component Laboratory and Research Centre,"Athawale Chambers, Tilak Road, Nashik",Nashik,Nashik,Maharashtra,20.0041928,73.7880769
Malegaon Blood Bank,"50,Tipare Colony, Camp Road, Malegaon TQ.Malegaon Dist-Nashik",Nashik,Nashik,Maharashtra,20.5530646,74.5180384
Jankalyan Blood Bank,"Nashik,3, Shree Nagar, Old Gangapur Naka, Gangapur Road, Nashik",Nashik,Nashik,Maharashtra,20.0088206,73.7701266
Seva Blood Bank,"Nilkanth Building, Satana Naka, Satana Rd, Malegaon, Dist-Nashik",Nashik,Nashik,Maharashtra,20.5525469,74.5166651
NDMVPS Medical College and Hospital Blood Bank,At Past Adgaon Dist Nashik,Nashik,Nashik,Maharashtra,20.0358636,73.8522337
Samta Blood Bank,"F-1, 1st floor Suyojit Comercial Complex, Mumbai Agra Highway, above vishal mega mart, Mumbai naka Nashik",Nashik,Nashik,Maharashtra,19.984823,73.7828315
Sanjeevani Blood Bank,"Nashik,Krushna-Chaya Bangla, Plot No. 10/11, Kurdukar Nagar, Behind Fame Theatre, Nashik Pune Road, Nashik",Nashik,Nashik,Maharashtra,19.9755924,73.803969
Jijau Mahila sevabhavi sansthan Nashik Blood Bank and Transfusion Research institute blood bank,"Ishwar Krupa Ganesh nagar, Tidke colony, Nashik",Nashik,Nashik,Maharashtra,20.0056552,73.7377212
Poonam Janjagruti Sansthan Sanchit Ashtavinayak Blood Bank,"Skylab Superspeciality ,Sai Palace First floor,Opp Akashvani Kendra,Near Proffessor Colony Chawk,Ahmednagar",Ahmednagar,Ahmednagar,Maharashtra,19.1169959,74.7358871
"HAL Ozar Township Infront of Gem High School ,Ozar ,Tal-Niphad,Nashik","HAL Ozar Township Infront of Gem High School ,Ozar ,Tal-Niphad,Nashik",Nashik,Nashik,Maharashtra,20.1004018,73.9429625
Indian Red Cross Society Blood Bank,"Near Civil Hospital, Athwadi Bazar, Opp.B.J.Market Jalgaon",Jalgaon,Jalgaon,Maharashtra,21.0102803,75.5676977
Askaran Tarachand Jain Blood Bank,"Jawahar Market, First Floor, Near Police Station Chopda, District Jalgaon",Jalgaon,Jalgaon,Maharashtra,21.2472081,75.3031435
J.D.C. Bytco Hospital Blood Bank,"1st Flr,Bytco Hospital, Nashik Road, Behind Durga Garden Shahu Path Nashik",Nashik,Nashik,Maharashtra,19.9491333,73.83874349999999
Atul Medical and Rehabilitation Societys Arpan Blood Bank,"Atul Medical and Rehabilitation Society, Arpan Blood Bank Dhule JainOswal Boarding, Ganpati Road, Near Santoshi Mata Mandir, Dhule, Nashik",Dhule,Dhule,Maharashtra,20.9035678,74.7677842
Arpan Blood Bank,Dhule,Dhule,Dhule,Maharashtra,20.9035678,74.7677842
Shahada Blood Bank( Whole Human Blood ),Shahada,NA,NA,Maharashtra,21.5547961,74.4728761
Rajashri Chatrapati Shahu Maharaj Government Medical College and chatrapati Pramilaraje General Hospital Blood Bank,"Dasara Chowk, Somwar Peth, Kolhapur",Kolhapur,Kolhapur,Maharashtra,16.702276,74.2279855
Pune Chest and General Hospital Blood Bank,"Pune, Aundh Camp, Pune",Pune,Pune,Maharashtra,18.6368772,73.8441787
Sasoon Sarvopchar Hospital Blood Bank,"Ground Floor,Section 5, Opp.Central Medical Stores,Station Rd Pune",Pune,Pune,Maharashtra,18.516655,73.85885499999999
Armed Forces Blood Bank,Vanwadi Armed Force Medical College Pune,Pune,Pune,Maharashtra,18.5040375,73.8900961
"Padma bhushan Vasantdada Patil (Civil Surgeon), Government General Hospital Blood Bank","Dr. Ambedkar Road, Miraj ,Sangli",Sangli,Sangli,Maharashtra,16.8535993,74.5722213
"S.S.Venutai.Y.Chavan Sub-District Hospital, Blood Bank Karad","Plot No.290/91, Budhwar peth Station Road, karad Satara",Satara,Satara,Maharashtra,17.2880488,74.1861787
"Civil Surgeon, Sarva Samanya Hospital Blood Bank","Bazar Road, Satara",Satara,Satara,Maharashtra,17.6804639,74.018261
Dean Chatrapati Shivaji Maharaj Sarvopchar Hospital Blood Bank,OPD Building 1st Floor Solapur,Solapur,Solapur,Maharashtra,17.6656323,75.9113874
"Late Balasaheb Datye, Lions Blood Bank","Lions Park, Datye Mala, Ichalkaranji Dist-Kolhapur",Kolhapur,Kolhapur,Maharashtra,16.6817434,74.4673084
Rajarshi Shahu Blood Bank,"Rotary Samaj Seva Centre, 253, K.E.Assembly Road, Kolhapur",Kolhapur,Kolhapur,Maharashtra,16.6913076,74.24486619999999
Mahatma Gandhi Hospital Blood Bank,"At.Post-Pargaon, TQ-Hatkanangale, Dist-Kolhapur",Kolhapur,Kolhapur,Maharashtra,16.8621816,74.2398548
Annasaheb Galatge Lions Blood Bank,"Gadhinglaj Lions Welfare Association,Gadhinglaj,Doctors Colony, Gadhinglaj, Dist-Kolhapur",Kolhapur,Kolhapur,Maharashtra,16.2189267,74.3518095
"Acharya Shree Tulsi Blood Bank,Udgaon","Gat.No.1232 Sangli - Kolhapur Road, Jaysingpur Udgaon , Kolhapur",Kolhapur,Kolhapur,Maharashtra,16.7856411,74.564217
Dr. D.Y Patil Hospital Blood Bank,Kadamwadi Kolhapur,Kolhapur,Kolhapur,Maharashtra,16.7144346,74.2564812
"Arpan Blood Bank, Blood Component and Apheresis Centre Kolhapur","1st floor Saroj Appartment,Subhash Road 1315, C Ward, opp.Shramik Bhavan, Laxmipuri, Kolhapur.",Kolhapur,Kolhapur,Maharashtra,16.6988274,74.2311762
Jankalyan Raktapedhi Pune,"1003,Shukrawar Peth,Swargate - Saras Baugh Road, Near.Natraj Hotel, Pune",Pune,Pune,Maharashtra,18.5009187,73.8575327
Inlaks Budharani Hospital Blood Bank,"7-9, Koregaon Park, Pune",Pune,Pune,Maharashtra,18.5348639,73.88742189999999
Indian Serological Institute Blood Bank,"21, Anand Baugh, Navi Peth, Near Vaikunth, Pune",Pune,Pune,Maharashtra,18.5061746,73.8401299
"Acharya Anandrushiji Blood Bank, Pune","191-192, New Sadashiv Peth, S.M.Joshi Foundation Bldg. Near Patrakar Bhavan Pune",Pune,Pune,Maharashtra,18.5092549,73.8425781
Akshay Blood Bank,"Survey No.10/1/3, Unnati Nagar,Bantar High School, Hadapsar Pune",Pune,Pune,Maharashtra,18.4990113,73.94123239999999
"Garware Blood Bank, Talegaon Rural Hospital","Talegaon Dhabhade, Tal- Maval, Distirct Pune",Pune,Pune,Maharashtra,18.7350966,73.6756012
Jahangir Nursing Home Blood Bank,"32, Sasoon Road, Pune",Pune,Pune,Maharashtra,18.5302599,73.876847
KEM Hospital Blood Bank,"Sardar Moodliar Road, Rastha Peth, Pune",Pune,Pune,Maharashtra,18.5199621,73.8670312
Medical Foundation A.H. Wadia Trust Blood Bank,"40, Sassoon Road, Ruby Hall Clinic, Post Box No. 70, Pune",Pune,Pune,Maharashtra,19.1269077,72.8348717
Bharati Vidyapeeth Medical Foundations Bharati Hospital Blood Bank,"Sector - 28, Dhankawadi, Pune Satara Road, Pune",Pune,Pune,Maharashtra,18.4595566,73.85732390000001
Padmashree Dr.D.Y Patil (Vishweshwar) Blood Bank,"Padmashree, Dr. Dy. Patil Medical College Hospital , Sant Tukaram Nagar Pimpari Pune",Pune,Pune,Maharashtra,18.6211747,73.8207114
Deenanath Mangeshkar Hospital,"Erandawane, Near Mhatre Bridge Pune",Pune,Pune,Maharashtra,18.5021281,73.83211039999999
Poona Serological Institute Blood Bank,"C.T.S. No-592,3rd Floor,Dhanwantari Complex Rasta Peth Pune",Pune,Pune,Maharashtra,18.5173554,73.8644877
Sahiyadari Speciality Hospital Blood Bank,"Kokoan Mitra Mandal Medical Port Trusts Sahiyadari SpecialityHospital Blood Bank, Plot No-30 C, Erandvane, Karve Road, Pune",Pune,Pune,Maharashtra,18.5890036,73.82254569999999
Aditya Birla Memorial Hospital Blood Bank,"Survey No:31, Near Morya Mangal Karyalay, Thergaon, Chinchwad, Pune",Pune,Pune,Maharashtra,18.625716,73.774776
Rakesh Jain Memorial Blood Bank,"Poona Hospital and Reserch Centre 27, Sadashiv Peth Pune",Pune,Pune,Maharashtra,18.5108864,73.8421479
Noble Hospital Blood Bank,"B-007, Basement c/o Noble Hospital, 153 Magarpatta city Road, Hadapsar, Pune",Pune,Pune,Maharashtra,18.5050348,73.9272568
Smt Kashibai Navale General Hospital Blood Bank,"Sr. No. 50/15 building NO.5 2nd floor, Narhe, Ambegaon Pune",Pune,Pune,Maharashtra,18.4563263,73.8208408
Pimpari Serological Institute Blood Bank,"Esteem Tower, opposite K.S.B Pump, Pune-Mumbai Highway, Kharalwadi, Pimpari",Pune,Pune,Maharashtra,18.624322,73.80793
Chakan Blood Bank,"sr.no. 4976/1/2 gate no.2401, yashwantnagar Ambethan road. A/P Chakan, Tal.khed pune",Pune,Pune,Maharashtra,18.7599537,73.81007009999999
R.G Gholap Memorial Blood Bank,"office no.301, 3rd floor Ashoka Centre, S.No - 47/14, Pune Satara Road Parvati, Pune",Pune,Pune,Maharashtra,18.487153,73.857101
"Kranti Mitra Mandal Charitable Trusts, Pune Blood Bank","1st floor PMT buiding Gadital, Hadapsar Pune",Pune,Pune,Maharashtra,18.5022162,73.9415077
Rajaram Bapu Blood Bank,"Opp.Christan bunglow, Islampur Peth Road, Islampur, TQ.Walwa Dist-Sangli",Sangli,Sangli,Maharashtra,17.0484898,74.2521628
Vasantdada Patil Blood Bank and Haematology Research Centre,Mirasaheb Shopping Center Opp.City Police Station Miraj Dist-Sangli,Sangli,Sangli,Maharashtra,31.2826685,-86.2555067
"Miraj Medical Centre, Wanless Hospital Blood Bank","Miraj,Wanless Hospital Blood bank Miraj Medical Centre Miraj",Sangli,Sangli,Maharashtra,16.8320923,74.6454258
Jeevan Rekha Charitable Trust Blood Bank,"H.No-329/E Ward No.5 1st Floor,Umrani Road A/p-jath District Sangli",Sangli,Sangli,Maharashtra,17.0499959,75.21350090000001
Smt. Anila Kantilal Kothari Blood Bank and dept. of hemato Oncology,"Dr. D. K. Gosavi Memorial, Shri Siddhivinayak Ganapati Cancer Hospital, Sangli-Miraj Road Miraj",Sangli,Sangli,Maharashtra,16.8338904,74.6354323
Bharati Vidyapeeth University Medical college And Hospital,"A/p Wanlesswadi, Tal- Miraj",Sangli,Sangli,Maharashtra,16.8419409,74.6199017
Hindratna Prakashbapu Patil Blood Bank,"2nd floor, Siddhivinayak Commercial Complex Guest House, Miraj Road, Near Tata Showroom Sangli",Sangli,Sangli,Maharashtra,16.8462592,74.6019005
"Miraj Serological Institute Blood Bank, Miraj","S.no.795/A1, Dr.Bhalchandra patil Hospital zaribag budhgaonkar mala near gulabrao patil medical college, Circle Kolhapur, Miraj",Sangli,Sangli,Maharashtra,16.8289118,74.6392599
Akshay Blood Bank,"Plot no- 117, near Anand Nursing Home, 2nd floor Miraj Sangli Road, Sangli",Sangli,Sangli,Maharashtra,16.8332492,74.63903619999999
Phaltan Medical Foundation Blood Bank,"C.T.S.No.5604/6, Near Dnyaneshwar Mandir, Behind State Bank of India, Laxminagar, 1st Floor Phaltan, Satara",Satara,Satara,Maharashtra,17.9888703,74.4337733
"Krishna Hospital and Medical Research Centre, Blood Bank, Karad","Poona Bangalore(NH4)Highway Near Debhewadi Road Karad, Dist-Satara",Satara,Satara,Maharashtra,17.2608588,74.1763768
"Akshay Medical Trust, Akshay Blood Bank","506/22, Sadar Bazar,Near State Bank opp Nirmal Hotel, Satara",Satara,Satara,Maharashtra,17.6932566,74.0076136
"Mauli Blood Bank, Satara","529/b, parasnis colony near Hotel Monark Powai Naka sadarbazar satara",Satara,Satara,Maharashtra,17.6860843,74.0079564
Yashwantrao Chavan blood bank,"Phase 5, Super market, 1st flor hall no.2/1 final plot no.432,433, shaniwar peth, karad",Satara,Satara,Maharashtra,17.2792058,74.18261729999999
Shri Markendya Charitable and Medical Trust Irrapanna N Boli Blood Bank,"Ashok Chowk, 896/97 Bhavnarishi Peth (Bolli Mangal karayalaya 1fr.Solapur",Solapur,Solapur,Maharashtra,17.6599188,75.9063906
"Dr. Hegdewar Rakta Pedhi Sanstha, Solapur","1st Floor, Sahyadri Shopping Centre Railway Lines, Solapur",Solapur,Solapur,Maharashtra,17.6639273,75.9007979
Solapur Blood Bank,"136, Railway Line,near Railway Station, near Atthar Hospital, Anjani Chembers, Solapur",Solapur,Solapur,Maharashtra,17.6639273,75.9007979
"IMA, Sahakar Maharshi Shankarrao Mohite Patil Blood Bank","804, Old Pandharpur Road, Ganeshnagar Akluj, District - Solapur",Solapur,Solapur,Maharashtra,18.3741478,74.1244162
Akshay Blood Bank,"Survey No.2212, First Floor, Laxmi Narayan Apartment, South Sadar Bazar, Solapur.",Solapur,Solapur,Maharashtra,17.6572596,75.9102702
"M.M.Patel Public Charitable Trust, Ashwini Rural Medical College and Hospital Blood Bank","Padmavati Complex, 91 Saat Rasta, Kumbhari, Gat no.261 and 262/1-7, Akkalkot Road, Dist-Solapur",Solapur,Solapur,Maharashtra,17.6458959,75.9859752
"Athar Minorities Social and Welfare Associations, Athar Blood Bank","1st floor, 410 Shukrawar peth, Jamiya Complex, Near Jama Masjid, Solapur",Solapur,Solapur,Maharashtra,17.6763776,75.9082162
"Sai Seva Medical Foundation,Vaibhavlaxmi Blood bank","1036/A, E- ward, 1st floor, Deccan Engineering, opp. Parvati Multiplex, Rajaram Road ,Kolhapur",Kolhapur,Kolhapur,Maharashtra,16.6970509,74.235297
Indian Red Cross Society (IRCS) (Late Manikbai Chandulal Saraf) Blood Bank,"Nr.Government Silver Jubilee Hospital, Patas Road Baramati Pune",Pune,Pune,Maharashtra,18.1525958,74.5749968
"Indian Red Cross Society Blood Bank , Shirgaonkar Blood Bank","Opp. Civil Hospital, Plot No.49, City Survey No.601/7,Sangli",Sangli,Sangli,Maharashtra,16.853807,74.5750018
"Indian Red Cross Soceity, Shriman Rambhai Shah Blood Bank","Jawaharlal Hospital Compound,Shivaji Road, Barsi, Somwarpeth, Solapur",Solapur,Solapur,Maharashtra,18.2335851,75.68989490000001
"Indian Red Cross Society, Bai Gopabai Damani Blood Bank","165 Railway Line, Red Cross Road, Dufferin Chowk, Solapur",Solapur,Solapur,Maharashtra,17.6730444,75.90712719999999
"Indian Red Cross Society, Sarjubai Bansila Bajaj Blood Bank","62/2/3/4, Bhakti Marg, Pandharpur, Solapur",Solapur,Solapur,Maharashtra,17.6708583,75.3269802
Kolhapur Municipal Corporation Blood Bank Kolhapur,"C.T.S. 83 D-Ward, Near Kasba Gate Police Chowky Kolhapur",Kolhapur,Kolhapur,Maharashtra,16.6966481,74.22095759999999
Krantiveer Chapekar Bandhu Blood Bank,"Pimpri Chinchwad Mahanagar Palika Talera Hospital, Tanaji Nagar Chinchwad - Pune",Pune,Pune,Maharashtra,18.6264933,73.78442780000002
"The new century Medical and Educational foundation malegaon, Nashik","NCORD Blood Bank and Aphaeresis centre, S. No. 241/2/1, Geet ganga bldg., Medipoint Hospital lane, Baner, Pune",Pune,Pune,Maharashtra,20.5547497,74.5100291
Ekta Apang Vikas Sansthas Ayush Blood Bank,"office no. 17/18/19, 1st floor, sunshree woods commercial complex, NIBM, Kondhwa, Tal. Haveli, District Pune",Pune,Pune,Maharashtra,18.4772721,73.9030216
Chattrapati Shahu Maharaj Pratisthans Aadhar Blood Bank,"S.No. 30, 4th floor, office no. 41, 402, 403, and 5th floor off 502, waris Heights, Pune-Satara Road, Dhankwadi, Pune",Pune,Pune,Maharashtra,18.466262,73.857738
Chattrapati Shahu Maharaj Pratisthans Aadhar Blood Bank,"S.No. 30, 4th floor, office no. 41, 402, 403, & 5th floor off 502, waris Heights, Pune-Satara Road, Dhankwadi, Pune",Pune,Pune,Maharashtra,18.466262,73.857738
Shree Basaveshwar Manav vikas gramin sevabhavi sansthas Adarsh Blood Bank,"Arihant Galaxy, 1st floor, C.S. No. 1599, Opp. Civil Hospital, Garpir Road, Sangli",Sangli,Sangli,Maharashtra,16.849606,74.573825
Azad Panchis Groups Sddheshwar Blood Bank,"Kalyani Towers, 126 Siddheshwar Peth, Near Yashwantrao Hospital Behind civil court, Solapur",Solapur,Solapur,Maharashtra,17.6691882,75.909947
Vande mataram samajik Samsthas Jeevandhara Blood Bank,"Ground floor, & 1st floor, 1648 E Ward, 7th lane, Kolhapur",Kolhapur,Kolhapur,Maharashtra,16.7034427,74.2212741
Sanjeevan Blood Bank,"250/B/65, 1st floor, lucky naresh banglow, opp collector office, nagala Park, Kolhapur",Kolhapur,Kolhapur,Maharashtra,16.7086642,74.23401299999999
"Azad Panchi Group Charitable Trusts , Miraj Serological Institute Blood Bank","Civil Hospital Ganesh Nagar, 1st lane, S. No. 1682, Sangli",Sangli,Sangli,Maharashtra,16.8509201,74.5713147
Shri.R.R.Patil Shikashan Sheti sanshodhan Aani vikas sansthas Adhar Blood Bank,"1 Floor ,12/966 C/o Dr. Dilip Joahi Hospital, Sambhaji chowk ,rajaram road ,Inchalkaranji ,tal-Hantkanagle, Kolhapur.",Kolhapur,Kolhapur,Maharashtra,16.6992458,74.2462132
National Plasma Fractionation Centre,"7th Floor, New Multistoreyed Building, KEM Hospital",Mumbai,Mumbai,Maharashtra,19.00148,72.84047799999999
